{
"type": "FeatureCollection",
"name": "fogo_2019",
"crs": { "type": "name", "properties": { "name": "urn:ogc:def:crs:OGC:1.3:CRS84" } },
"features": [
{ "type": "Feature", "properties": { "id_feicao": "fogo_2019_1", "ano": 2019.0, "mes": 4, "codigo_original": 12, "classe": "Formação Campestre", "cor": "#d6bc74", "area_ha": 2.5021395696213378 }, "geometry": { "type": "Polygon", "coordinates": [ [ [ -45.027424795792143, -21.23940725160832 ], [ -45.027424795792143, -21.240754724534497 ], [ -45.02904176330356, -21.240754724534487 ], [ -45.02904176330356, -21.23940725160832 ], [ -45.027424795792143, -21.23940725160832 ] ] ] } },
{ "type": "Feature", "properties": { "id_feicao": "fogo_2019_2", "ano": 2019.0, "mes": 7, "codigo_original": 15, "classe": "Pastagem", "cor": "#edde8e", "area_ha": 1.4176577357109674 }, "geometry": { "type": "Polygon", "coordinates": [ [ [ -44.977568297523511, -21.263661764279547 ], [ -44.977568297523511, -21.263931258864773 ], [ -44.978915770449689, -21.263931258864776 ], [ -44.978915770449689, -21.263122775109075 ], [ -44.977298802938272, -21.263122775109075 ], [ -44.977298802938272, -21.263661764279547 ], [ -44.977568297523511, -21.263661764279547 ] ] ] } },
{ "type": "Feature", "properties": { "id_feicao": "fogo_2019_3", "ano": 2019.0, "mes": 7, "codigo_original": 15, "classe": "Pastagem", "cor": "#edde8e", "area_ha": 2.5854843650324271 }, "geometry": { "type": "Polygon", "coordinates": [ [ [ -45.027694290377376, -21.243449670386862 ], [ -45.027963784962616, -21.243449670386862 ], [ -45.027963784962616, -21.243988659557324 ], [ -45.027694290377376, -21.243988659557331 ], [ -45.027694290377376, -21.244258154142553 ], [ -45.029311257888793, -21.244258154142564 ], [ -45.029311257888793, -21.243988659557317 ], [ -45.029580752474033, -21.243988659557324 ], [ -45.029580752474033, -21.242910681216383 ], [ -45.027963784962616, -21.24291068121639 ], [ -45.027963784962616, -21.243180175801623 ], [ -45.027694290377376, -21.243180175801623 ], [ -45.027694290377376, -21.243449670386862 ] ] ] } },
{ "type": "Feature", "properties": { "id_feicao": "fogo_2019_4", "ano": 2019.0, "mes": 7, "codigo_original": 15, "classe": "Pastagem", "cor": "#edde8e", "area_ha": 0.083416493040136999 }, "geometry": { "type": "Polygon", "coordinates": [ [ [ -44.894563965270862, -21.218925663130396 ], [ -44.89429447068563, -21.218925663130392 ], [ -44.89429447068563, -21.219195157715625 ], [ -44.894563965270862, -21.219195157715628 ], [ -44.894563965270862, -21.218925663130396 ] ] ] } },
{ "type": "Feature", "properties": { "id_feicao": "fogo_2019_5", "ano": 2019.0, "mes": 7, "codigo_original": 15, "classe": "Pastagem", "cor": "#edde8e", "area_ha": 0.16683297978754072 }, "geometry": { "type": "Polygon", "coordinates": [ [ [ -44.895372449026574, -21.219195157715628 ], [ -44.895372449026574, -21.218925663130392 ], [ -44.894833459856102, -21.218925663130392 ], [ -44.894833459856102, -21.219195157715628 ], [ -44.895372449026574, -21.219195157715628 ] ] ] } },
{ "type": "Feature", "properties": { "id_feicao": "fogo_2019_6", "ano": 2019.0, "mes": 7, "codigo_original": 15, "classe": "Pastagem", "cor": "#edde8e", "area_ha": 0.83416680241059515 }, "geometry": { "type": "Polygon", "coordinates": [ [ [ -44.895641943611807, -21.218925663130396 ], [ -44.896180932782279, -21.218925663130396 ], [ -44.896180932782279, -21.219195157715625 ], [ -44.896450427367519, -21.219195157715632 ], [ -44.896450427367519, -21.218925663130385 ], [ -44.897528405708456, -21.218925663130388 ], [ -44.897528405708456, -21.218656168545152 ], [ -44.896719921952752, -21.218656168545166 ], [ -44.896719921952752, -21.218386673959923 ], [ -44.896180932782279, -21.218386673959923 ], [ -44.896180932782279, -21.218656168545159 ], [ -44.895641943611807, -21.218656168545163 ], [ -44.895641943611807, -21.218925663130396 ] ] ] } },
{ "type": "Feature", "properties": { "id_feicao": "fogo_2019_7", "ano": 2019.0, "mes": 7, "codigo_original": 15, "classe": "Pastagem", "cor": "#edde8e", "area_ha": 1.1678663931231945 }, "geometry": { "type": "Polygon", "coordinates": [ [ [ -45.04143851422441, -21.214074760596141 ], [ -45.041708008809643, -21.214074760596144 ], [ -45.041708008809643, -21.213535771425672 ], [ -45.040630030468698, -21.213535771425676 ], [ -45.040630030468698, -21.214613749766613 ], [ -45.04143851422441, -21.21461374976662 ], [ -45.04143851422441, -21.214074760596141 ] ] ] } },
{ "type": "Feature", "properties": { "id_feicao": "fogo_2019_8", "ano": 2019.0, "mes": 7, "codigo_original": 24, "classe": "Área urbanizada", "cor": "#d4271e", "area_ha": 0.16678396058045328 }, "geometry": { "type": "Polygon", "coordinates": [ [ [ -44.977298802938272, -21.263122775109075 ], [ -44.977837792108744, -21.263122775109071 ], [ -44.977837792108744, -21.262853280523839 ], [ -44.977298802938272, -21.262853280523839 ], [ -44.977298802938272, -21.263122775109075 ] ] ] } },
{ "type": "Feature", "properties": { "id_feicao": "fogo_2019_9", "ano": 2019.0, "mes": 7, "codigo_original": 24, "classe": "Área urbanizada", "cor": "#d4271e", "area_ha": 0.16678395848460495 }, "geometry": { "type": "Polygon", "coordinates": [ [ [ -44.978376781279216, -21.263122775109075 ], [ -44.978915770449689, -21.263122775109075 ], [ -44.978915770449689, -21.262853280523839 ], [ -44.978376781279216, -21.262853280523842 ], [ -44.978376781279216, -21.263122775109075 ] ] ] } },
{ "type": "Feature", "properties": { "id_feicao": "fogo_2019_10", "ano": 2019.0, "mes": 7, "codigo_original": 41, "classe": "Outras Lavouras Temporárias", "cor": "#f54ca9", "area_ha": 0.083416483034470815 }, "geometry": { "type": "Polygon", "coordinates": [ [ [ -44.896450427367519, -21.218925663130385 ], [ -44.896450427367519, -21.219195157715632 ], [ -44.896719921952752, -21.219195157715635 ], [ -44.896719921952752, -21.218925663130399 ], [ -44.896450427367519, -21.218925663130385 ] ] ] } },
{ "type": "Feature", "properties": { "id_feicao": "fogo_2019_11", "ano": 2019.0, "mes": 8, "codigo_original": 12, "classe": "Formação Campestre", "cor": "#d6bc74", "area_ha": 1.6665602058672233 }, "geometry": { "type": "Polygon", "coordinates": [ [ [ -45.063267575628508, -21.37792746841955 ], [ -45.063267575628508, -21.379005446760498 ], [ -45.064615048554693, -21.379005446760495 ], [ -45.064615048554693, -21.377927468419553 ], [ -45.063267575628508, -21.37792746841955 ] ] ] } },
{ "type": "Feature", "properties": { "id_feicao": "fogo_2019_12", "ano": 2019.0, "mes": 8, "codigo_original": 15, "classe": "Pastagem", "cor": "#edde8e", "area_ha": 0.66705529681218212 }, "geometry": { "type": "Polygon", "coordinates": [ [ [ -45.021226420331715, -21.280639923149408 ], [ -45.021226420331715, -21.281717901490342 ], [ -45.021765409502187, -21.281717901490346 ], [ -45.021765409502187, -21.280639923149408 ], [ -45.021226420331715, -21.280639923149408 ] ] ] } },
{ "type": "Feature", "properties": { "id_feicao": "fogo_2019_13", "ano": 2019.0, "mes": 8, "codigo_original": 15, "classe": "Pastagem", "cor": "#edde8e", "area_ha": 0.50029280448333258 }, "geometry": { "type": "Polygon", "coordinates": [ [ [ -45.02041793657601, -21.280909417734641 ], [ -45.02041793657601, -21.280639923149408 ], [ -45.020687431161249, -21.280639923149405 ], [ -45.020687431161249, -21.280370428564162 ], [ -45.019609452820305, -21.280370428564165 ], [ -45.019609452820305, -21.280639923149405 ], [ -45.019878947405537, -21.280639923149405 ], [ -45.019878947405537, -21.280909417734634 ], [ -45.02041793657601, -21.280909417734641 ] ] ] } },
{ "type": "Feature", "properties": { "id_feicao": "fogo_2019_14", "ano": 2019.0, "mes": 8, "codigo_original": 15, "classe": "Pastagem", "cor": "#edde8e", "area_ha": 0.16680528222935881 }, "geometry": { "type": "Polygon", "coordinates": [ [ [ -45.027694290377376, -21.243449670386862 ], [ -45.027694290377376, -21.243988659557331 ], [ -45.027963784962616, -21.243988659557324 ], [ -45.027963784962616, -21.243449670386862 ], [ -45.027694290377376, -21.243449670386862 ] ] ] } },
{ "type": "Feature", "properties": { "id_feicao": "fogo_2019_15", "ano": 2019.0, "mes": 8, "codigo_original": 15, "classe": "Pastagem", "cor": "#edde8e", "area_ha": 0.083411043115337771 }, "geometry": { "type": "Polygon", "coordinates": [ [ [ -45.01664501238271, -21.228357973613651 ], [ -45.01664501238271, -21.228627468198891 ], [ -45.016914506967943, -21.228627468198887 ], [ -45.016914506967943, -21.228357973613651 ], [ -45.01664501238271, -21.228357973613651 ] ] ] } },
{ "type": "Feature", "properties": { "id_feicao": "fogo_2019_16", "ano": 2019.0, "mes": 8, "codigo_original": 15, "classe": "Pastagem", "cor": "#edde8e", "area_ha": 0.50047027633869456 }, "geometry": { "type": "Polygon", "coordinates": [ [ [ -45.016106023212238, -21.22701050068747 ], [ -45.016106023212238, -21.227549489857946 ], [ -45.016914506967943, -21.227549489857946 ], [ -45.016914506967943, -21.22701050068747 ], [ -45.016106023212238, -21.22701050068747 ] ] ] } },
{ "type": "Feature", "properties": { "id_feicao": "fogo_2019_17", "ano": 2019.0, "mes": 8, "codigo_original": 15, "classe": "Pastagem", "cor": "#edde8e", "area_ha": 0.25023670097387246 }, "geometry": { "type": "Polygon", "coordinates": [ [ [ -45.016106023212238, -21.226202016931765 ], [ -45.016106023212238, -21.226471511516998 ], [ -45.016914506967943, -21.226471511516998 ], [ -45.016914506967943, -21.226202016931762 ], [ -45.016106023212238, -21.226202016931765 ] ] ] } },
{ "type": "Feature", "properties": { "id_feicao": "fogo_2019_18", "ano": 2019.0, "mes": 8, "codigo_original": 15, "classe": "Pastagem", "cor": "#edde8e", "area_ha": 10.927163188363462 }, "geometry": { "type": "Polygon", "coordinates": [ [ [ -45.019339958235065, -21.225124038590817 ], [ -45.019339958235065, -21.224854544005588 ], [ -45.022573893257899, -21.224854544005588 ], [ -45.022573893257899, -21.224315554835108 ], [ -45.022843387843132, -21.224315554835108 ], [ -45.022843387843132, -21.224585049420345 ], [ -45.023112882428372, -21.224585049420352 ], [ -45.023112882428372, -21.224315554835112 ], [ -45.023382377013604, -21.224315554835115 ], [ -45.023382377013604, -21.224585049420345 ], [ -45.023651871598844, -21.224585049420345 ], [ -45.023651871598844, -21.224854544005588 ], [ -45.024999344525021, -21.224854544005581 ], [ -45.024999344525021, -21.223776565664636 ], [ -45.022573893257899, -21.223776565664636 ], [ -45.022573893257899, -21.222968081908931 ], [ -45.019609452820305, -21.222968081908927 ], [ -45.019609452820305, -21.223776565664636 ], [ -45.01826197989412, -21.223776565664636 ], [ -45.01826197989412, -21.225124038590824 ], [ -45.019339958235065, -21.225124038590817 ] ] ] } },
{ "type": "Feature", "properties": { "id_feicao": "fogo_2019_19", "ano": 2019.0, "mes": 8, "codigo_original": 15, "classe": "Pastagem", "cor": "#edde8e", "area_ha": 0.16683777474086892 }, "geometry": { "type": "Polygon", "coordinates": [ [ [ -45.04143851422441, -21.214074760596141 ], [ -45.04143851422441, -21.21461374976662 ], [ -45.041708008809643, -21.214613749766613 ], [ -45.041708008809643, -21.214074760596144 ], [ -45.04143851422441, -21.214074760596141 ] ] ] } },
{ "type": "Feature", "properties": { "id_feicao": "fogo_2019_20", "ano": 2019.0, "mes": 8, "codigo_original": 15, "classe": "Pastagem", "cor": "#edde8e", "area_ha": 1.3349119169712673 }, "geometry": { "type": "Polygon", "coordinates": [ [ [ -45.052487792219075, -21.190089742510164 ], [ -45.052487792219075, -21.191167720851091 ], [ -45.05356577056002, -21.191167720851102 ], [ -45.05356577056002, -21.19008974251016 ], [ -45.052487792219075, -21.190089742510164 ] ] ] } },
{ "type": "Feature", "properties": { "id_feicao": "fogo_2019_21", "ano": 2019.0, "mes": 8, "codigo_original": 15, "classe": "Pastagem", "cor": "#edde8e", "area_ha": 0.08339153316587819 }, "geometry": { "type": "Polygon", "coordinates": [ [ [ -44.977298802938272, -21.263661764279547 ], [ -44.977298802938272, -21.263931258864773 ], [ -44.977568297523511, -21.263931258864773 ], [ -44.977568297523511, -21.263661764279547 ], [ -44.977298802938272, -21.263661764279547 ] ] ] } },
{ "type": "Feature", "properties": { "id_feicao": "fogo_2019_22", "ano": 2019.0, "mes": 8, "codigo_original": 15, "classe": "Pastagem", "cor": "#edde8e", "area_ha": 1.3343587851314422 }, "geometry": { "type": "Polygon", "coordinates": [ [ [ -44.973795373330205, -21.252612486284875 ], [ -44.973795373330205, -21.253690464625819 ], [ -44.97487335167115, -21.253690464625823 ], [ -44.97487335167115, -21.252612486284875 ], [ -44.973795373330205, -21.252612486284875 ] ] ] } },
{ "type": "Feature", "properties": { "id_feicao": "fogo_2019_23", "ano": 2019.0, "mes": 8, "codigo_original": 15, "classe": "Pastagem", "cor": "#edde8e", "area_ha": 1.3346325861765587 }, "geometry": { "type": "Polygon", "coordinates": [ [ [ -45.009638153166577, -21.221620608982747 ], [ -45.009638153166577, -21.222698587323695 ], [ -45.010716131507522, -21.222698587323698 ], [ -45.010716131507522, -21.221620608982754 ], [ -45.009638153166577, -21.221620608982747 ] ] ] } },
{ "type": "Feature", "properties": { "id_feicao": "fogo_2019_24", "ano": 2019.0, "mes": 8, "codigo_original": 15, "classe": "Pastagem", "cor": "#edde8e", "area_ha": 0.41708166508248434 }, "geometry": { "type": "Polygon", "coordinates": [ [ [ -44.896180932782279, -21.219195157715625 ], [ -44.896180932782279, -21.219464652300864 ], [ -44.897528405708456, -21.219464652300868 ], [ -44.897528405708456, -21.219195157715628 ], [ -44.896180932782279, -21.219195157715625 ] ] ] } },
{ "type": "Feature", "properties": { "id_feicao": "fogo_2019_25", "ano": 2019.0, "mes": 8, "codigo_original": 15, "classe": "Pastagem", "cor": "#edde8e", "area_ha": 0.41708414259897053 }, "geometry": { "type": "Polygon", "coordinates": [ [ [ -44.897258911123224, -21.218656168545166 ], [ -44.897258911123224, -21.218117179374683 ], [ -44.896450427367519, -21.218117179374687 ], [ -44.896450427367519, -21.21838667395992 ], [ -44.896719921952752, -21.218386673959923 ], [ -44.896719921952752, -21.218656168545166 ], [ -44.897258911123224, -21.218656168545166 ] ] ] } },
{ "type": "Feature", "properties": { "id_feicao": "fogo_2019_26", "ano": 2019.0, "mes": 8, "codigo_original": 15, "classe": "Pastagem", "cor": "#edde8e", "area_ha": 2.1688375488333356 }, "geometry": { "type": "Polygon", "coordinates": [ [ [ -44.895372449026574, -21.217847684789447 ], [ -44.895372449026574, -21.21811717937468 ], [ -44.895102954441334, -21.218117179374691 ], [ -44.895102954441334, -21.218386673959927 ], [ -44.89429447068563, -21.218386673959913 ], [ -44.89429447068563, -21.218925663130392 ], [ -44.894563965270862, -21.218925663130396 ], [ -44.894563965270862, -21.219195157715628 ], [ -44.894833459856102, -21.219195157715628 ], [ -44.894833459856102, -21.218925663130392 ], [ -44.895372449026574, -21.218925663130392 ], [ -44.895372449026574, -21.219195157715628 ], [ -44.896180932782279, -21.219195157715625 ], [ -44.896180932782279, -21.218925663130396 ], [ -44.895641943611807, -21.218925663130396 ], [ -44.895641943611807, -21.218656168545163 ], [ -44.896180932782279, -21.218656168545159 ], [ -44.896180932782279, -21.217308695618978 ], [ -44.895911438197047, -21.217308695618978 ], [ -44.895911438197047, -21.217578190204215 ], [ -44.895641943611807, -21.217578190204215 ], [ -44.895641943611807, -21.217847684789447 ], [ -44.895372449026574, -21.217847684789447 ] ] ] } },
{ "type": "Feature", "properties": { "id_feicao": "fogo_2019_27", "ano": 2019.0, "mes": 8, "codigo_original": 15, "classe": "Pastagem", "cor": "#edde8e", "area_ha": 0.083428589648380874 }, "geometry": { "type": "Polygon", "coordinates": [ [ [ -44.992659994296716, -21.196827107141058 ], [ -44.992929488881956, -21.196827107141054 ], [ -44.992929488881956, -21.196557612555814 ], [ -44.992659994296716, -21.196557612555814 ], [ -44.992659994296716, -21.196827107141058 ] ] ] } },
{ "type": "Feature", "properties": { "id_feicao": "fogo_2019_28", "ano": 2019.0, "mes": 8, "codigo_original": 15, "classe": "Pastagem", "cor": "#edde8e", "area_ha": 0.2502902266584337 }, "geometry": { "type": "Polygon", "coordinates": [ [ [ -45.005595734388038, -21.194132161288689 ], [ -45.006404218143743, -21.194132161288696 ], [ -45.006404218143743, -21.19386266670346 ], [ -45.005595734388038, -21.193862666703467 ], [ -45.005595734388038, -21.194132161288689 ] ] ] } },
{ "type": "Feature", "properties": { "id_feicao": "fogo_2019_29", "ano": 2019.0, "mes": 8, "codigo_original": 21, "classe": "Mosaico de Usos", "cor": "#ffefc3", "area_ha": 0.25025081440487629 }, "geometry": { "type": "Polygon", "coordinates": [ [ [ -44.895102954441334, -21.218386673959927 ], [ -44.895102954441334, -21.218117179374691 ], [ -44.89429447068563, -21.218117179374687 ], [ -44.89429447068563, -21.218386673959913 ], [ -44.895102954441334, -21.218386673959927 ] ] ] } },
{ "type": "Feature", "properties": { "id_feicao": "fogo_2019_30", "ano": 2019.0, "mes": 8, "codigo_original": 21, "classe": "Mosaico de Usos", "cor": "#ffefc3", "area_ha": 0.083417084403930586 }, "geometry": { "type": "Polygon", "coordinates": [ [ [ -44.895372449026574, -21.21811717937468 ], [ -44.895372449026574, -21.217847684789447 ], [ -44.895102954441334, -21.217847684789454 ], [ -44.895102954441334, -21.218117179374691 ], [ -44.895372449026574, -21.21811717937468 ] ] ] } },
{ "type": "Feature", "properties": { "id_feicao": "fogo_2019_31", "ano": 2019.0, "mes": 8, "codigo_original": 21, "classe": "Mosaico de Usos", "cor": "#ffefc3", "area_ha": 0.083417231927430571 }, "geometry": { "type": "Polygon", "coordinates": [ [ [ -44.895641943611807, -21.217847684789447 ], [ -44.895641943611807, -21.217578190204215 ], [ -44.895372449026574, -21.217578190204211 ], [ -44.895372449026574, -21.217847684789447 ], [ -44.895641943611807, -21.217847684789447 ] ] ] } },
{ "type": "Feature", "properties": { "id_feicao": "fogo_2019_32", "ano": 2019.0, "mes": 8, "codigo_original": 21, "classe": "Mosaico de Usos", "cor": "#ffefc3", "area_ha": 0.083417222023289647 }, "geometry": { "type": "Polygon", "coordinates": [ [ [ -44.897797900293696, -21.217578190204225 ], [ -44.897528405708456, -21.217578190204225 ], [ -44.897528405708456, -21.217847684789447 ], [ -44.897797900293696, -21.217847684789451 ], [ -44.897797900293696, -21.217578190204225 ] ] ] } },
{ "type": "Feature", "properties": { "id_feicao": "fogo_2019_33", "ano": 2019.0, "mes": 8, "codigo_original": 21, "classe": "Mosaico de Usos", "cor": "#ffefc3", "area_ha": 0.083417372029181563 }, "geometry": { "type": "Polygon", "coordinates": [ [ [ -44.897528405708456, -21.217308695618982 ], [ -44.897258911123224, -21.217308695618978 ], [ -44.897258911123224, -21.217578190204215 ], [ -44.897528405708456, -21.217578190204225 ], [ -44.897528405708456, -21.217308695618982 ] ] ] } },
{ "type": "Feature", "properties": { "id_feicao": "fogo_2019_34", "ano": 2019.0, "mes": 8, "codigo_original": 41, "classe": "Outras Lavouras Temporárias", "cor": "#f54ca9", "area_ha": 0.083375342770759017 }, "geometry": { "type": "Polygon", "coordinates": [ [ [ -45.102344290487714, -21.293306168655487 ], [ -45.102074795902475, -21.293306168655491 ], [ -45.102074795902475, -21.29357566324072 ], [ -45.102344290487714, -21.29357566324073 ], [ -45.102344290487714, -21.293306168655487 ] ] ] } },
{ "type": "Feature", "properties": { "id_feicao": "fogo_2019_35", "ano": 2019.0, "mes": 8, "codigo_original": 41, "classe": "Outras Lavouras Temporárias", "cor": "#f54ca9", "area_ha": 0.41687744705667718 }, "geometry": { "type": "Polygon", "coordinates": [ [ [ -45.101535806732002, -21.293306168655487 ], [ -45.102074795902475, -21.293306168655491 ], [ -45.102074795902475, -21.293036674070247 ], [ -45.101535806732002, -21.293036674070244 ], [ -45.101535806732002, -21.292767179485022 ], [ -45.10126631214677, -21.292767179485026 ], [ -45.10126631214677, -21.293575663240723 ], [ -45.101535806732002, -21.293575663240723 ], [ -45.101535806732002, -21.293306168655487 ] ] ] } },
{ "type": "Feature", "properties": { "id_feicao": "fogo_2019_36", "ano": 2019.0, "mes": 8, "codigo_original": 41, "classe": "Outras Lavouras Temporárias", "cor": "#f54ca9", "area_ha": 0.083375485988426951 }, "geometry": { "type": "Polygon", "coordinates": [ [ [ -45.10099681756153, -21.293036674070255 ], [ -45.100727322976297, -21.293036674070244 ], [ -45.100727322976297, -21.293306168655487 ], [ -45.10099681756153, -21.293306168655484 ], [ -45.10099681756153, -21.293036674070255 ] ] ] } },
{ "type": "Feature", "properties": { "id_feicao": "fogo_2019_37", "ano": 2019.0, "mes": 8, "codigo_original": 41, "classe": "Outras Lavouras Temporárias", "cor": "#f54ca9", "area_ha": 3.3352684866782569 }, "geometry": { "type": "Polygon", "coordinates": [ [ [ -45.019609452820305, -21.280639923149405 ], [ -45.019609452820305, -21.281178912319881 ], [ -45.019339958235065, -21.281178912319881 ], [ -45.019339958235065, -21.282526385246058 ], [ -45.020687431161249, -21.282526385246058 ], [ -45.020687431161249, -21.281987396075589 ], [ -45.020956925746482, -21.281987396075579 ], [ -45.020956925746482, -21.281717901490353 ], [ -45.021226420331715, -21.281717901490342 ], [ -45.021226420331715, -21.280639923149408 ], [ -45.02041793657601, -21.280639923149408 ], [ -45.02041793657601, -21.280909417734641 ], [ -45.019878947405537, -21.280909417734634 ], [ -45.019878947405537, -21.280639923149405 ], [ -45.019609452820305, -21.280639923149405 ] ] ] } },
{ "type": "Feature", "properties": { "id_feicao": "fogo_2019_38", "ano": 2019.0, "mes": 8, "codigo_original": 41, "classe": "Outras Lavouras Temporárias", "cor": "#f54ca9", "area_ha": 3.4198496514894154 }, "geometry": { "type": "Polygon", "coordinates": [ [ [ -45.117166492675686, -21.228896962784116 ], [ -45.117166492675686, -21.229166457369359 ], [ -45.116627503505214, -21.229166457369359 ], [ -45.116627503505214, -21.229974941125064 ], [ -45.117705481846151, -21.229974941125061 ], [ -45.117705481846151, -21.229705446539832 ], [ -45.118783460187096, -21.229705446539832 ], [ -45.118783460187096, -21.229435951954596 ], [ -45.119322449357568, -21.229435951954596 ], [ -45.119322449357568, -21.228357973613655 ], [ -45.117974976431391, -21.228357973613651 ], [ -45.117974976431391, -21.228627468198884 ], [ -45.117705481846151, -21.22862746819888 ], [ -45.117705481846151, -21.228896962784116 ], [ -45.117166492675686, -21.228896962784116 ] ] ] } },
{ "type": "Feature", "properties": { "id_feicao": "fogo_2019_39", "ano": 2019.0, "mes": 8, "codigo_original": 41, "classe": "Outras Lavouras Temporárias", "cor": "#f54ca9", "area_ha": 2.4189247019897215 }, "geometry": { "type": "Polygon", "coordinates": [ [ [ -45.016914506967943, -21.228627468198887 ], [ -45.01664501238271, -21.228627468198891 ], [ -45.01664501238271, -21.228357973613651 ], [ -45.016914506967943, -21.228357973613651 ], [ -45.016914506967943, -21.227549489857946 ], [ -45.015297539456526, -21.227549489857939 ], [ -45.015297539456526, -21.228896962784116 ], [ -45.016914506967943, -21.22889696278412 ], [ -45.016914506967943, -21.228627468198887 ] ] ] } },
{ "type": "Feature", "properties": { "id_feicao": "fogo_2019_40", "ano": 2019.0, "mes": 8, "codigo_original": 41, "classe": "Outras Lavouras Temporárias", "cor": "#f54ca9", "area_ha": 0.83412010510098189 }, "geometry": { "type": "Polygon", "coordinates": [ [ [ -45.016106023212238, -21.22701050068747 ], [ -45.016914506967943, -21.22701050068747 ], [ -45.016914506967943, -21.227279995272706 ], [ -45.017184001553183, -21.22727999527271 ], [ -45.017184001553183, -21.226202016931762 ], [ -45.016914506967943, -21.226202016931762 ], [ -45.016914506967943, -21.226471511516998 ], [ -45.016106023212238, -21.226471511516998 ], [ -45.016106023212238, -21.22701050068747 ] ] ] } },
{ "type": "Feature", "properties": { "id_feicao": "fogo_2019_41", "ano": 2019.0, "mes": 8, "codigo_original": 41, "classe": "Outras Lavouras Temporárias", "cor": "#f54ca9", "area_ha": 2.085424970152788 }, "geometry": { "type": "Polygon", "coordinates": [ [ [ -44.896450427367519, -21.218117179374687 ], [ -44.897258911123224, -21.218117179374683 ], [ -44.897258911123224, -21.218656168545166 ], [ -44.897528405708456, -21.218656168545152 ], [ -44.897528405708456, -21.218925663130388 ], [ -44.896719921952752, -21.218925663130399 ], [ -44.896719921952752, -21.219195157715635 ], [ -44.897797900293696, -21.219195157715632 ], [ -44.897797900293696, -21.217847684789451 ], [ -44.897528405708456, -21.217847684789447 ], [ -44.897528405708456, -21.217578190204225 ], [ -44.897258911123224, -21.217578190204215 ], [ -44.897258911123224, -21.217308695618978 ], [ -44.896180932782279, -21.217308695618978 ], [ -44.896180932782279, -21.218386673959923 ], [ -44.896450427367519, -21.21838667395992 ], [ -44.896450427367519, -21.218117179374687 ] ] ] } },
{ "type": "Feature", "properties": { "id_feicao": "fogo_2019_42", "ano": 2019.0, "mes": 8, "codigo_original": 41, "classe": "Outras Lavouras Temporárias", "cor": "#f54ca9", "area_ha": 1.6683383340230125 }, "geometry": { "type": "Polygon", "coordinates": [ [ [ -45.00802118565516, -21.217308695618971 ], [ -45.00802118565516, -21.21838667395992 ], [ -45.009368658581337, -21.21838667395992 ], [ -45.009368658581337, -21.217308695618971 ], [ -45.00802118565516, -21.217308695618971 ] ] ] } },
{ "type": "Feature", "properties": { "id_feicao": "fogo_2019_43", "ano": 2019.0, "mes": 8, "codigo_original": 41, "classe": "Outras Lavouras Temporárias", "cor": "#f54ca9", "area_ha": 0.083429629496039298 }, "geometry": { "type": "Polygon", "coordinates": [ [ [ -45.005056745217566, -21.194671150459168 ], [ -45.005056745217566, -21.194940645044404 ], [ -45.005326239802812, -21.194940645044401 ], [ -45.005326239802812, -21.194671150459161 ], [ -45.005056745217566, -21.194671150459168 ] ] ] } },
{ "type": "Feature", "properties": { "id_feicao": "fogo_2019_44", "ano": 2019.0, "mes": 8, "codigo_original": 46, "classe": "Café", "cor": "#d68fe2", "area_ha": 3.7518794930357595 }, "geometry": { "type": "Polygon", "coordinates": [ [ [ -45.101535806732002, -21.293036674070244 ], [ -45.102074795902475, -21.293036674070247 ], [ -45.102074795902475, -21.293306168655491 ], [ -45.101535806732002, -21.293306168655487 ], [ -45.101535806732002, -21.293575663240723 ], [ -45.10126631214677, -21.293575663240723 ], [ -45.10126631214677, -21.293036674070244 ], [ -45.10099681756153, -21.293036674070255 ], [ -45.10099681756153, -21.293306168655484 ], [ -45.100727322976297, -21.293306168655487 ], [ -45.100727322976297, -21.294114652411189 ], [ -45.10099681756153, -21.294114652411199 ], [ -45.10099681756153, -21.294384146996435 ], [ -45.10126631214677, -21.294384146996435 ], [ -45.10126631214677, -21.294653641581668 ], [ -45.101535806732002, -21.294653641581672 ], [ -45.101535806732002, -21.294923136166908 ], [ -45.102613785072947, -21.294923136166911 ], [ -45.102613785072947, -21.294384146996435 ], [ -45.10288327965818, -21.294384146996432 ], [ -45.10288327965818, -21.293036674070247 ], [ -45.102344290487714, -21.293036674070244 ], [ -45.102344290487714, -21.292767179485026 ], [ -45.101535806732002, -21.292767179485022 ], [ -45.101535806732002, -21.293036674070244 ] ], [ [ -45.102344290487714, -21.293306168655487 ], [ -45.102344290487714, -21.29357566324073 ], [ -45.102074795902475, -21.29357566324072 ], [ -45.102074795902475, -21.293306168655491 ], [ -45.102344290487714, -21.293306168655487 ] ] ] } },
{ "type": "Feature", "properties": { "id_feicao": "fogo_2019_45", "ano": 2019.0, "mes": 9, "codigo_original": 3, "classe": "Formação Florestal", "cor": "#1f8d49", "area_ha": 0.33371168137429719 }, "geometry": { "type": "Polygon", "coordinates": [ [ [ -44.994007467222893, -21.197635590896766 ], [ -44.994007467222893, -21.198174580067239 ], [ -44.994546456393365, -21.198174580067228 ], [ -44.994546456393365, -21.197635590896756 ], [ -44.994007467222893, -21.197635590896766 ] ] ] } },
{ "type": "Feature", "properties": { "id_feicao": "fogo_2019_46", "ano": 2019.0, "mes": 9, "codigo_original": 15, "classe": "Pastagem", "cor": "#edde8e", "area_ha": 0.58364511032849553 }, "geometry": { "type": "Polygon", "coordinates": [ [ [ -45.145193929540213, -21.289263749876952 ], [ -45.145463424125445, -21.289263749876945 ], [ -45.145463424125445, -21.288724760706483 ], [ -45.144924434954973, -21.288724760706476 ], [ -45.144924434954973, -21.290072233632653 ], [ -45.145193929540213, -21.290072233632653 ], [ -45.145193929540213, -21.289263749876952 ] ] ] } },
{ "type": "Feature", "properties": { "id_feicao": "fogo_2019_47", "ano": 2019.0, "mes": 9, "codigo_original": 15, "classe": "Pastagem", "cor": "#edde8e", "area_ha": 0.083378120656839111 }, "geometry": { "type": "Polygon", "coordinates": [ [ [ -45.145732918710685, -21.288724760706483 ], [ -45.145732918710685, -21.288994255291719 ], [ -45.146002413295918, -21.288994255291712 ], [ -45.146002413295918, -21.28872476070649 ], [ -45.145732918710685, -21.288724760706483 ] ] ] } },
{ "type": "Feature", "properties": { "id_feicao": "fogo_2019_48", "ano": 2019.0, "mes": 9, "codigo_original": 15, "classe": "Pastagem", "cor": "#edde8e", "area_ha": 2.0014348358834386 }, "geometry": { "type": "Polygon", "coordinates": [ [ [ -45.021765409502187, -21.261775302182883 ], [ -45.021765409502187, -21.261236313012429 ], [ -45.022034904087427, -21.261236313012425 ], [ -45.022034904087427, -21.260966818427189 ], [ -45.022304398672659, -21.260966818427189 ], [ -45.022304398672659, -21.260158334671488 ], [ -45.021226420331715, -21.260158334671484 ], [ -45.021226420331715, -21.260427829256724 ], [ -45.020956925746482, -21.260427829256713 ], [ -45.020956925746482, -21.261775302182894 ], [ -45.021765409502187, -21.261775302182883 ] ] ] } },
{ "type": "Feature", "properties": { "id_feicao": "fogo_2019_49", "ano": 2019.0, "mes": 9, "codigo_original": 15, "classe": "Pastagem", "cor": "#edde8e", "area_ha": 0.25023961187782762 }, "geometry": { "type": "Polygon", "coordinates": [ [ [ -45.022843387843132, -21.224585049420345 ], [ -45.022843387843132, -21.224315554835108 ], [ -45.022573893257899, -21.224315554835108 ], [ -45.022573893257899, -21.224854544005588 ], [ -45.023112882428372, -21.224854544005584 ], [ -45.023112882428372, -21.224585049420352 ], [ -45.022843387843132, -21.224585049420345 ] ] ] } },
{ "type": "Feature", "properties": { "id_feicao": "fogo_2019_50", "ano": 2019.0, "mes": 9, "codigo_original": 15, "classe": "Pastagem", "cor": "#edde8e", "area_ha": 8.2589023227075771 }, "geometry": { "type": "Polygon", "coordinates": [ [ [ -45.14654140246639, -21.208415374306195 ], [ -45.14654140246639, -21.208145879720959 ], [ -45.150044832074457, -21.208145879720949 ], [ -45.150044832074457, -21.207876385135719 ], [ -45.150314326659696, -21.207876385135723 ], [ -45.150314326659696, -21.206798406794782 ], [ -45.149775337489224, -21.206798406794778 ], [ -45.149775337489224, -21.206528912209546 ], [ -45.148158369977807, -21.206528912209549 ], [ -45.148158369977807, -21.206798406794782 ], [ -45.145463424125445, -21.206798406794778 ], [ -45.145463424125445, -21.208415374306195 ], [ -45.14654140246639, -21.208415374306195 ] ] ] } },
{ "type": "Feature", "properties": { "id_feicao": "fogo_2019_51", "ano": 2019.0, "mes": 9, "codigo_original": 15, "classe": "Pastagem", "cor": "#edde8e", "area_ha": 4.5050138549130994 }, "geometry": { "type": "Polygon", "coordinates": [ [ [ -45.150583821244929, -21.202486493431007 ], [ -45.150583821244929, -21.202755988016236 ], [ -45.152200788756346, -21.202755988016243 ], [ -45.152200788756346, -21.20248649343101 ], [ -45.152470283341579, -21.20248649343101 ], [ -45.152470283341579, -21.201408515090066 ], [ -45.150853315830162, -21.201408515090062 ], [ -45.150853315830162, -21.201139020504826 ], [ -45.149775337489224, -21.201139020504822 ], [ -45.149775337489224, -21.201408515090066 ], [ -45.149505842903984, -21.201408515090069 ], [ -45.149505842903984, -21.202486493431007 ], [ -45.150583821244929, -21.202486493431007 ] ] ] } },
{ "type": "Feature", "properties": { "id_feicao": "fogo_2019_52", "ano": 2019.0, "mes": 9, "codigo_original": 15, "classe": "Pastagem", "cor": "#edde8e", "area_ha": 1.3352151322489094 }, "geometry": { "type": "Polygon", "coordinates": [ [ [ -45.018800969064593, -21.155594435599973 ], [ -45.018800969064593, -21.156672413940903 ], [ -45.019878947405537, -21.156672413940896 ], [ -45.019878947405537, -21.155594435599966 ], [ -45.018800969064593, -21.155594435599973 ] ] ] } },
{ "type": "Feature", "properties": { "id_feicao": "fogo_2019_53", "ano": 2019.0, "mes": 9, "codigo_original": 15, "classe": "Pastagem", "cor": "#edde8e", "area_ha": 1.3353408155561963 }, "geometry": { "type": "Polygon", "coordinates": [ [ [ -45.010985626092754, -21.141311222582459 ], [ -45.010985626092754, -21.142389200923407 ], [ -45.012063604433699, -21.142389200923407 ], [ -45.012063604433699, -21.14131122258247 ], [ -45.010985626092754, -21.141311222582459 ] ] ] } },
{ "type": "Feature", "properties": { "id_feicao": "fogo_2019_54", "ano": 2019.0, "mes": 9, "codigo_original": 15, "classe": "Pastagem", "cor": "#edde8e", "area_ha": 3.1686036225305139 }, "geometry": { "type": "Polygon", "coordinates": [ [ [ -44.924747358817278, -21.276866998956095 ], [ -44.924747358817278, -21.277944977297047 ], [ -44.926633820913935, -21.27794497729705 ], [ -44.926633820913935, -21.27632800978563 ], [ -44.92555584257299, -21.276328009785637 ], [ -44.92555584257299, -21.276597504370866 ], [ -44.925016853402518, -21.276597504370869 ], [ -44.925016853402518, -21.276866998956102 ], [ -44.924747358817278, -21.276866998956095 ] ] ] } },
{ "type": "Feature", "properties": { "id_feicao": "fogo_2019_55", "ano": 2019.0, "mes": 9, "codigo_original": 15, "classe": "Pastagem", "cor": "#edde8e", "area_ha": 1.2512437029896037 }, "geometry": { "type": "Polygon", "coordinates": [ [ [ -45.005595734388038, -21.219734146886097 ], [ -45.005595734388038, -21.218656168545163 ], [ -45.00478725063234, -21.218656168545159 ], [ -45.00478725063234, -21.219464652300868 ], [ -45.003978766876621, -21.219464652300868 ], [ -45.003978766876621, -21.219734146886097 ], [ -45.005595734388038, -21.219734146886097 ] ] ] } },
{ "type": "Feature", "properties": { "id_feicao": "fogo_2019_56", "ano": 2019.0, "mes": 9, "codigo_original": 15, "classe": "Pastagem", "cor": "#edde8e", "area_ha": 24.778005906089795 }, "geometry": { "type": "Polygon", "coordinates": [ [ [ -44.991582015955771, -21.199252558408173 ], [ -44.991851510541011, -21.199252558408173 ], [ -44.991851510541011, -21.199522052993405 ], [ -44.992659994296716, -21.199522052993409 ], [ -44.992659994296716, -21.199791547578645 ], [ -44.992121005126243, -21.199791547578648 ], [ -44.992121005126243, -21.200330536749117 ], [ -44.993737972637661, -21.200330536749117 ], [ -44.993737972637661, -21.20086952591959 ], [ -44.994276961808133, -21.200869525919593 ], [ -44.994276961808133, -21.201139020504826 ], [ -44.99562443473431, -21.201139020504833 ], [ -44.99562443473431, -21.200600031334361 ], [ -44.99589392931955, -21.200600031334357 ], [ -44.99589392931955, -21.200061042163878 ], [ -44.996163423904783, -21.200061042163881 ], [ -44.996163423904783, -21.199791547578648 ], [ -44.996702413075255, -21.199791547578652 ], [ -44.996702413075255, -21.198983063822944 ], [ -44.99751089683096, -21.198983063822944 ], [ -44.99751089683096, -21.198444074652471 ], [ -44.998049886001432, -21.198444074652475 ], [ -44.998049886001432, -21.19898306382294 ], [ -44.999397358927617, -21.198983063822936 ], [ -44.999397358927617, -21.197905085481995 ], [ -44.996702413075255, -21.197905085482002 ], [ -44.996702413075255, -21.197096601726283 ], [ -44.99589392931955, -21.197096601726287 ], [ -44.99589392931955, -21.196827107141051 ], [ -44.99562443473431, -21.196827107141051 ], [ -44.99562443473431, -21.197635590896756 ], [ -44.995085445563838, -21.197635590896766 ], [ -44.995085445563838, -21.197905085481999 ], [ -44.994546456393365, -21.197905085481995 ], [ -44.994546456393365, -21.198174580067228 ], [ -44.994007467222893, -21.198174580067239 ], [ -44.994007467222893, -21.197905085481999 ], [ -44.993737972637661, -21.197905085481992 ], [ -44.993737972637661, -21.197635590896759 ], [ -44.993198983467188, -21.197635590896759 ], [ -44.993198983467188, -21.196288117970578 ], [ -44.992929488881956, -21.196288117970585 ], [ -44.992929488881956, -21.196018623385346 ], [ -44.993198983467188, -21.196018623385338 ], [ -44.993198983467188, -21.194940645044397 ], [ -44.991582015955771, -21.194940645044394 ], [ -44.991582015955771, -21.195210139629648 ], [ -44.991312521370538, -21.195210139629644 ], [ -44.991312521370538, -21.196557612555811 ], [ -44.991582015955771, -21.196557612555825 ], [ -44.991582015955771, -21.199252558408173 ] ], [ [ -44.992659994296716, -21.196827107141058 ], [ -44.992659994296716, -21.196557612555814 ], [ -44.992929488881956, -21.196557612555814 ], [ -44.992929488881956, -21.196827107141054 ], [ -44.992659994296716, -21.196827107141058 ] ] ] } },
{ "type": "Feature", "properties": { "id_feicao": "fogo_2019_57", "ano": 2019.0, "mes": 9, "codigo_original": 15, "classe": "Pastagem", "cor": "#edde8e", "area_ha": 4.1714814763100021 }, "geometry": { "type": "Polygon", "coordinates": [ [ [ -45.000205842683322, -21.195479634214873 ], [ -45.000205842683322, -21.195749128800109 ], [ -45.000744831853794, -21.195749128800102 ], [ -45.000744831853794, -21.195479634214877 ], [ -45.001014326439034, -21.19547963421488 ], [ -45.001014326439034, -21.194940645044394 ], [ -45.001283821024266, -21.194940645044404 ], [ -45.001283821024266, -21.193862666703453 ], [ -44.999936348098089, -21.193862666703467 ], [ -44.999936348098089, -21.194401655873929 ], [ -44.998588875171905, -21.194401655873936 ], [ -44.998588875171905, -21.19547963421487 ], [ -45.000205842683322, -21.195479634214873 ] ] ] } },
{ "type": "Feature", "properties": { "id_feicao": "fogo_2019_58", "ano": 2019.0, "mes": 9, "codigo_original": 15, "classe": "Pastagem", "cor": "#edde8e", "area_ha": 9.5110206916558457 }, "geometry": { "type": "Polygon", "coordinates": [ [ [ -44.994546456393365, -21.194940645044394 ], [ -44.994546456393365, -21.195210139629637 ], [ -44.99562443473431, -21.195210139629644 ], [ -44.99562443473431, -21.196557612555818 ], [ -44.99589392931955, -21.196557612555818 ], [ -44.99589392931955, -21.194671150459172 ], [ -44.996163423904783, -21.194671150459158 ], [ -44.996163423904783, -21.194132161288685 ], [ -44.996702413075255, -21.194132161288692 ], [ -44.996702413075255, -21.193054182947744 ], [ -44.995085445563838, -21.193054182947751 ], [ -44.995085445563838, -21.192784688362519 ], [ -44.992659994296716, -21.192784688362519 ], [ -44.992659994296716, -21.194671150459168 ], [ -44.993468478052428, -21.194671150459165 ], [ -44.993468478052428, -21.194940645044394 ], [ -44.994546456393365, -21.194940645044394 ] ] ] } },
{ "type": "Feature", "properties": { "id_feicao": "fogo_2019_59", "ano": 2019.0, "mes": 9, "codigo_original": 15, "classe": "Pastagem", "cor": "#edde8e", "area_ha": 27.615249139070009 }, "geometry": { "type": "Polygon", "coordinates": [ [ [ -45.001822810194739, -21.194940645044394 ], [ -45.001553315609506, -21.194940645044394 ], [ -45.001553315609506, -21.195479634214866 ], [ -45.001283821024266, -21.195479634214866 ], [ -45.001283821024266, -21.195749128800117 ], [ -45.001014326439034, -21.195749128800109 ], [ -45.001014326439034, -21.196018623385342 ], [ -45.000205842683322, -21.196018623385338 ], [ -45.000205842683322, -21.197905085481999 ], [ -45.001822810194739, -21.197905085481995 ], [ -45.001822810194739, -21.197635590896759 ], [ -45.002092304779978, -21.197635590896759 ], [ -45.002092304779978, -21.19736609631153 ], [ -45.002361799365211, -21.197366096311523 ], [ -45.002361799365211, -21.197096601726283 ], [ -45.003709272291395, -21.19709660172629 ], [ -45.003709272291395, -21.196827107141047 ], [ -45.003978766876621, -21.196827107141054 ], [ -45.003978766876621, -21.196557612555814 ], [ -45.005056745217566, -21.196557612555814 ], [ -45.005056745217566, -21.196288117970578 ], [ -45.005326239802812, -21.196288117970578 ], [ -45.005326239802812, -21.194940645044401 ], [ -45.00478725063234, -21.194940645044397 ], [ -45.00478725063234, -21.194671150459165 ], [ -45.005326239802812, -21.194671150459161 ], [ -45.005326239802812, -21.194132161288692 ], [ -45.005595734388038, -21.194132161288689 ], [ -45.005595734388038, -21.193862666703467 ], [ -45.006404218143743, -21.19386266670346 ], [ -45.006404218143743, -21.194132161288696 ], [ -45.00802118565516, -21.194132161288689 ], [ -45.00802118565516, -21.191706710021574 ], [ -45.006943207314215, -21.191706710021567 ], [ -45.006943207314215, -21.191437215436338 ], [ -45.003709272291395, -21.191437215436341 ], [ -45.003709272291395, -21.194132161288696 ], [ -45.001553315609506, -21.194132161288689 ], [ -45.001553315609506, -21.194401655873929 ], [ -45.001822810194739, -21.194401655873929 ], [ -45.001822810194739, -21.194940645044394 ] ], [ [ -45.004517756047093, -21.193862666703463 ], [ -45.004517756047093, -21.193593172118216 ], [ -45.005326239802812, -21.193593172118216 ], [ -45.005326239802812, -21.19386266670346 ], [ -45.005056745217566, -21.193862666703463 ], [ -45.005056745217566, -21.194132161288692 ], [ -45.00478725063234, -21.194132161288696 ], [ -45.00478725063234, -21.193862666703456 ], [ -45.004517756047093, -21.193862666703463 ] ] ] } },
{ "type": "Feature", "properties": { "id_feicao": "fogo_2019_60", "ano": 2019.0, "mes": 9, "codigo_original": 15, "classe": "Pastagem", "cor": "#edde8e", "area_ha": 6.8415076068871494 }, "geometry": { "type": "Polygon", "coordinates": [ [ [ -44.999397358927617, -21.187664291243024 ], [ -44.999397358927617, -21.187933785828271 ], [ -44.998858369757144, -21.187933785828271 ], [ -44.998858369757144, -21.189550753339681 ], [ -44.999127864342377, -21.189550753339677 ], [ -44.999127864342377, -21.189820247924924 ], [ -44.999666853512849, -21.189820247924921 ], [ -44.999666853512849, -21.190089742510153 ], [ -45.001014326439034, -21.190089742510157 ], [ -45.001014326439034, -21.189550753339685 ], [ -45.001283821024266, -21.189550753339685 ], [ -45.001283821024266, -21.187125302072559 ], [ -45.000205842683322, -21.187125302072555 ], [ -45.000205842683322, -21.187394796657795 ], [ -44.999936348098089, -21.187394796657795 ], [ -44.999936348098089, -21.187664291243031 ], [ -44.999397358927617, -21.187664291243024 ] ] ] } },
{ "type": "Feature", "properties": { "id_feicao": "fogo_2019_61", "ano": 2019.0, "mes": 9, "codigo_original": 21, "classe": "Mosaico de Usos", "cor": "#ffefc3", "area_ha": 0.08339287449661642 }, "geometry": { "type": "Polygon", "coordinates": [ [ [ -45.022034904087427, -21.261505807597658 ], [ -45.022304398672659, -21.261505807597661 ], [ -45.022304398672659, -21.261236313012425 ], [ -45.022034904087427, -21.261236313012425 ], [ -45.022034904087427, -21.261505807597658 ] ] ] } },
{ "type": "Feature", "properties": { "id_feicao": "fogo_2019_62", "ano": 2019.0, "mes": 9, "codigo_original": 21, "classe": "Mosaico de Usos", "cor": "#ffefc3", "area_ha": 0.16685598907135427 }, "geometry": { "type": "Polygon", "coordinates": [ [ [ -44.994546456393365, -21.197905085481995 ], [ -44.995085445563838, -21.197905085481999 ], [ -44.995085445563838, -21.197635590896766 ], [ -44.994546456393365, -21.197635590896756 ], [ -44.994546456393365, -21.197905085481995 ] ] ] } },
{ "type": "Feature", "properties": { "id_feicao": "fogo_2019_63", "ano": 2019.0, "mes": 9, "codigo_original": 41, "classe": "Outras Lavouras Temporárias", "cor": "#f54ca9", "area_ha": 1.000532105867735 }, "geometry": { "type": "Polygon", "coordinates": [ [ [ -45.14681089705163, -21.29007223363266 ], [ -45.14681089705163, -21.289263749876948 ], [ -45.145732918710685, -21.289263749876955 ], [ -45.145732918710685, -21.290072233632664 ], [ -45.14681089705163, -21.29007223363266 ] ] ] } },
{ "type": "Feature", "properties": { "id_feicao": "fogo_2019_64", "ano": 2019.0, "mes": 9, "codigo_original": 41, "classe": "Outras Lavouras Temporárias", "cor": "#f54ca9", "area_ha": 0.083378122401703156 }, "geometry": { "type": "Polygon", "coordinates": [ [ [ -45.146271907881157, -21.288724760706483 ], [ -45.146002413295918, -21.28872476070649 ], [ -45.146002413295918, -21.288994255291712 ], [ -45.146271907881157, -21.288994255291719 ], [ -45.146271907881157, -21.288724760706483 ] ] ] } },
{ "type": "Feature", "properties": { "id_feicao": "fogo_2019_65", "ano": 2019.0, "mes": 9, "codigo_original": 41, "classe": "Outras Lavouras Temporárias", "cor": "#f54ca9", "area_ha": 0.75074621333964164 }, "geometry": { "type": "Polygon", "coordinates": [ [ [ -45.00478725063234, -21.218656168545159 ], [ -45.003978766876621, -21.218656168545156 ], [ -45.003978766876621, -21.219464652300868 ], [ -45.00478725063234, -21.219464652300868 ], [ -45.00478725063234, -21.218656168545159 ] ] ] } },
{ "type": "Feature", "properties": { "id_feicao": "fogo_2019_66", "ano": 2019.0, "mes": 9, "codigo_original": 41, "classe": "Outras Lavouras Temporárias", "cor": "#f54ca9", "area_ha": 1.1680120320681069 }, "geometry": { "type": "Polygon", "coordinates": [ [ [ -45.001014326439034, -21.194940645044394 ], [ -45.001014326439034, -21.19547963421488 ], [ -45.000744831853794, -21.195479634214877 ], [ -45.000744831853794, -21.195749128800102 ], [ -45.000205842683322, -21.195749128800109 ], [ -45.000205842683322, -21.196018623385338 ], [ -45.001014326439034, -21.196018623385342 ], [ -45.001014326439034, -21.195749128800109 ], [ -45.001283821024266, -21.195749128800117 ], [ -45.001283821024266, -21.195479634214866 ], [ -45.001553315609506, -21.195479634214866 ], [ -45.001553315609506, -21.194940645044394 ], [ -45.001822810194739, -21.194940645044394 ], [ -45.001822810194739, -21.194401655873929 ], [ -45.001553315609506, -21.194401655873929 ], [ -45.001553315609506, -21.194132161288689 ], [ -45.001283821024266, -21.194132161288689 ], [ -45.001283821024266, -21.194940645044404 ], [ -45.001014326439034, -21.194940645044394 ] ] ] } },
{ "type": "Feature", "properties": { "id_feicao": "fogo_2019_67", "ano": 2019.0, "mes": 9, "codigo_original": 41, "classe": "Outras Lavouras Temporárias", "cor": "#f54ca9", "area_ha": 0.083429629431106156 }, "geometry": { "type": "Polygon", "coordinates": [ [ [ -45.005056745217566, -21.194671150459168 ], [ -45.00478725063234, -21.194671150459165 ], [ -45.00478725063234, -21.194940645044397 ], [ -45.005056745217566, -21.194940645044404 ], [ -45.005056745217566, -21.194671150459168 ] ] ] } },
{ "type": "Feature", "properties": { "id_feicao": "fogo_2019_68", "ano": 2019.0, "mes": 9, "codigo_original": 41, "classe": "Outras Lavouras Temporárias", "cor": "#f54ca9", "area_ha": 0.083431413346994665 }, "geometry": { "type": "Polygon", "coordinates": [ [ [ -45.007212701899455, -21.191437215436334 ], [ -45.006943207314215, -21.191437215436338 ], [ -45.006943207314215, -21.191706710021567 ], [ -45.007212701899455, -21.191706710021574 ], [ -45.007212701899455, -21.191437215436334 ] ] ] } },
{ "type": "Feature", "properties": { "id_feicao": "fogo_2019_69", "ano": 2019.0, "mes": 10, "codigo_original": 3, "classe": "Formação Florestal", "cor": "#1f8d49", "area_ha": 0.074934383993124812 }, "geometry": { "type": "Polygon", "coordinates": [ [ [ -45.115819019749502, -21.361218804134928 ], [ -45.115819019749502, -21.361488298720161 ], [ -45.116021749962179, -21.361488298760467 ], [ -45.116054, -21.361367 ], [ -45.116088514334479, -21.3612985716629 ], [ -45.116088514334741, -21.361218804134925 ], [ -45.115819019749502, -21.361218804134928 ] ] ] } },
{ "type": "Feature", "properties": { "id_feicao": "fogo_2019_70", "ano": 2019.0, "mes": 10, "codigo_original": 12, "classe": "Formação Campestre", "cor": "#d6bc74", "area_ha": 0.083337728817258636 }, "geometry": { "type": "Polygon", "coordinates": [ [ [ -45.115549525164269, -21.361218804134928 ], [ -45.115549525164269, -21.361488298720158 ], [ -45.115819019749502, -21.361488298720161 ], [ -45.115819019749502, -21.361218804134928 ], [ -45.115549525164269, -21.361218804134928 ] ] ] } },
{ "type": "Feature", "properties": { "id_feicao": "fogo_2019_71", "ano": 2019.0, "mes": 10, "codigo_original": 15, "classe": "Pastagem", "cor": "#edde8e", "area_ha": 1.2661293069931068 }, "geometry": { "type": "Polygon", "coordinates": [ [ [ -45.116896998090446, -21.360140825793973 ], [ -45.116896998090446, -21.360410320379213 ], [ -45.116627503505214, -21.36041032037922 ], [ -45.116627503505214, -21.360949309549685 ], [ -45.116657114248639, -21.360949309570834 ], [ -45.116863, -21.360840999999898 ], [ -45.116896998090127, -21.360819510675526 ], [ -45.116896998090446, -21.360679814964453 ], [ -45.117138883982442, -21.360679815372535 ], [ -45.11731, -21.360607 ], [ -45.117522, -21.36045 ], [ -45.117705481845135, -21.360285061539678 ], [ -45.117705481846151, -21.36014082579398 ], [ -45.117822139385602, -21.360140825847068 ], [ -45.117874, -21.360075999999896 ], [ -45.117964, -21.359859 ], [ -45.117974976427234, -21.359843005802137 ], [ -45.117974976431391, -21.359062847453036 ], [ -45.117435987260919, -21.359062847453039 ], [ -45.117435987260919, -21.359871331208748 ], [ -45.117166492675686, -21.359871331208755 ], [ -45.117166492675686, -21.360140825793977 ], [ -45.116896998090446, -21.360140825793973 ] ] ] } },
{ "type": "Feature", "properties": { "id_feicao": "fogo_2019_72", "ano": 2019.0, "mes": 10, "codigo_original": 15, "classe": "Pastagem", "cor": "#edde8e", "area_ha": 0.16668000479731254 }, "geometry": { "type": "Polygon", "coordinates": [ [ [ -45.120669922283746, -21.357176385356386 ], [ -45.120669922283746, -21.357445879941618 ], [ -45.121208911454218, -21.357445879941622 ], [ -45.121208911454218, -21.357176385356389 ], [ -45.120669922283746, -21.357176385356386 ] ] ] } },
{ "type": "Feature", "properties": { "id_feicao": "fogo_2019_73", "ano": 2019.0, "mes": 10, "codigo_original": 15, "classe": "Pastagem", "cor": "#edde8e", "area_ha": 0.083339998798849957 }, "geometry": { "type": "Polygon", "coordinates": [ [ [ -45.12013093311328, -21.357176385356389 ], [ -45.12013093311328, -21.357445879941626 ], [ -45.120400427698513, -21.357445879941618 ], [ -45.120400427698513, -21.357176385356389 ], [ -45.12013093311328, -21.357176385356389 ] ] ] } },
{ "type": "Feature", "properties": { "id_feicao": "fogo_2019_74", "ano": 2019.0, "mes": 10, "codigo_original": 15, "classe": "Pastagem", "cor": "#edde8e", "area_ha": 0.083340154293924565 }, "geometry": { "type": "Polygon", "coordinates": [ [ [ -45.121208911454218, -21.357176385356389 ], [ -45.121478406039458, -21.357176385356393 ], [ -45.121478406039458, -21.35690689077115 ], [ -45.121208911454218, -21.356906890771143 ], [ -45.121208911454218, -21.357176385356389 ] ] ] } },
{ "type": "Feature", "properties": { "id_feicao": "fogo_2019_75", "ano": 2019.0, "mes": 10, "codigo_original": 15, "classe": "Pastagem", "cor": "#edde8e", "area_ha": 0.083340305456519131 }, "geometry": { "type": "Polygon", "coordinates": [ [ [ -45.121478406039458, -21.35690689077115 ], [ -45.12174790062469, -21.35690689077115 ], [ -45.12174790062469, -21.356637396185917 ], [ -45.121478406039458, -21.356637396185917 ], [ -45.121478406039458, -21.35690689077115 ] ] ] } },
{ "type": "Feature", "properties": { "id_feicao": "fogo_2019_76", "ano": 2019.0, "mes": 10, "codigo_original": 15, "classe": "Pastagem", "cor": "#edde8e", "area_ha": 0.4958864783577146 }, "geometry": { "type": "Polygon", "coordinates": [ [ [ -45.12174790062469, -21.355828912430201 ], [ -45.12174790062469, -21.356637396185917 ], [ -45.122220041978913, -21.356637396279879 ], [ -45.122286889793756, -21.356529007355128 ], [ -45.122286889795163, -21.355828912430205 ], [ -45.12174790062469, -21.355828912430201 ] ] ] } },
{ "type": "Feature", "properties": { "id_feicao": "fogo_2019_77", "ano": 2019.0, "mes": 10, "codigo_original": 15, "classe": "Pastagem", "cor": "#edde8e", "area_ha": 1.0000890324315057 }, "geometry": { "type": "Polygon", "coordinates": [ [ [ -45.119861438528041, -21.356906890771157 ], [ -45.12013093311328, -21.35690689077115 ], [ -45.12013093311328, -21.356098407015438 ], [ -45.120400427698513, -21.356098407015441 ], [ -45.120400427698513, -21.3550204286745 ], [ -45.12013093311328, -21.355020428674504 ], [ -45.12013093311328, -21.355559417844965 ], [ -45.119591943942808, -21.355559417844972 ], [ -45.119591943942808, -21.356367901600681 ], [ -45.119861438528041, -21.356367901600681 ], [ -45.119861438528041, -21.356906890771157 ] ] ] } },
{ "type": "Feature", "properties": { "id_feicao": "fogo_2019_78", "ano": 2019.0, "mes": 10, "codigo_original": 15, "classe": "Pastagem", "cor": "#edde8e", "area_ha": 0.25002361557502301 }, "geometry": { "type": "Polygon", "coordinates": [ [ [ -45.121478406039458, -21.355289923259736 ], [ -45.122286889795163, -21.35528992325974 ], [ -45.122286889795163, -21.355020428674504 ], [ -45.121478406039458, -21.355020428674504 ], [ -45.121478406039458, -21.355289923259736 ] ] ] } },
{ "type": "Feature", "properties": { "id_feicao": "fogo_2019_79", "ano": 2019.0, "mes": 10, "codigo_original": 15, "classe": "Pastagem", "cor": "#edde8e", "area_ha": 0.083377520119105333 }, "geometry": { "type": "Polygon", "coordinates": [ [ [ -45.145193929540213, -21.289802739047428 ], [ -45.145193929540213, -21.290072233632653 ], [ -45.145463424125445, -21.290072233632657 ], [ -45.145463424125445, -21.289802739047417 ], [ -45.145193929540213, -21.289802739047428 ] ] ] } },
{ "type": "Feature", "properties": { "id_feicao": "fogo_2019_80", "ano": 2019.0, "mes": 10, "codigo_original": 15, "classe": "Pastagem", "cor": "#edde8e", "area_ha": 0.083377818651311095 }, "geometry": { "type": "Polygon", "coordinates": [ [ [ -45.145193929540213, -21.289533244462188 ], [ -45.145463424125445, -21.289533244462177 ], [ -45.145463424125445, -21.289263749876945 ], [ -45.145193929540213, -21.289263749876952 ], [ -45.145193929540213, -21.289533244462188 ] ] ] } },
{ "type": "Feature", "properties": { "id_feicao": "fogo_2019_81", "ano": 2019.0, "mes": 10, "codigo_original": 15, "classe": "Pastagem", "cor": "#edde8e", "area_ha": 0.25013412718093025 }, "geometry": { "type": "Polygon", "coordinates": [ [ [ -45.145732918710685, -21.288724760706483 ], [ -45.145463424125445, -21.288724760706483 ], [ -45.145463424125445, -21.289263749876945 ], [ -45.146002413295918, -21.289263749876945 ], [ -45.146002413295918, -21.288994255291712 ], [ -45.145732918710685, -21.288994255291719 ], [ -45.145732918710685, -21.288724760706483 ] ] ] } },
{ "type": "Feature", "properties": { "id_feicao": "fogo_2019_82", "ano": 2019.0, "mes": 10, "codigo_original": 15, "classe": "Pastagem", "cor": "#edde8e", "area_ha": 0.083339380112057646 }, "geometry": { "type": "Polygon", "coordinates": [ [ [ -45.116358008919974, -21.358254363697327 ], [ -45.116358008919974, -21.358523858282567 ], [ -45.116627503505214, -21.358523858282563 ], [ -45.116627503505214, -21.358254363697331 ], [ -45.116358008919974, -21.358254363697327 ] ] ] } },
{ "type": "Feature", "properties": { "id_feicao": "fogo_2019_83", "ano": 2019.0, "mes": 10, "codigo_original": 15, "classe": "Pastagem", "cor": "#edde8e", "area_ha": 0.083392874232827097 }, "geometry": { "type": "Polygon", "coordinates": [ [ [ -45.021765409502187, -21.261236313012429 ], [ -45.021765409502187, -21.261505807597665 ], [ -45.022034904087427, -21.261505807597658 ], [ -45.022034904087427, -21.261236313012425 ], [ -45.021765409502187, -21.261236313012429 ] ] ] } },
{ "type": "Feature", "properties": { "id_feicao": "fogo_2019_84", "ano": 2019.0, "mes": 10, "codigo_original": 15, "classe": "Pastagem", "cor": "#edde8e", "area_ha": 0.08339302356989961 }, "geometry": { "type": "Polygon", "coordinates": [ [ [ -45.022034904087427, -21.260966818427189 ], [ -45.022034904087427, -21.261236313012425 ], [ -45.022304398672659, -21.261236313012425 ], [ -45.022304398672659, -21.260966818427189 ], [ -45.022034904087427, -21.260966818427189 ] ] ] } },
{ "type": "Feature", "properties": { "id_feicao": "fogo_2019_85", "ano": 2019.0, "mes": 10, "codigo_original": 15, "classe": "Pastagem", "cor": "#edde8e", "area_ha": 0.25023961353395135 }, "geometry": { "type": "Polygon", "coordinates": [ [ [ -45.023382377013604, -21.224315554835115 ], [ -45.023112882428372, -21.224315554835112 ], [ -45.023112882428372, -21.224854544005584 ], [ -45.023651871598844, -21.224854544005588 ], [ -45.023651871598844, -21.224585049420345 ], [ -45.023382377013604, -21.224585049420345 ], [ -45.023382377013604, -21.224315554835115 ] ] ] } },
{ "type": "Feature", "properties": { "id_feicao": "fogo_2019_86", "ano": 2019.0, "mes": 10, "codigo_original": 15, "classe": "Pastagem", "cor": "#edde8e", "area_ha": 0.1668539093684405 }, "geometry": { "type": "Polygon", "coordinates": [ [ [ -44.992121005126243, -21.199791547578648 ], [ -44.992659994296716, -21.199791547578645 ], [ -44.992659994296716, -21.199522052993409 ], [ -44.992121005126243, -21.199522052993409 ], [ -44.992121005126243, -21.199791547578648 ] ] ] } },
{ "type": "Feature", "properties": { "id_feicao": "fogo_2019_87", "ano": 2019.0, "mes": 10, "codigo_original": 15, "classe": "Pastagem", "cor": "#edde8e", "area_ha": 0.3337098951435829 }, "geometry": { "type": "Polygon", "coordinates": [ [ [ -44.99751089683096, -21.198444074652471 ], [ -44.99751089683096, -21.198983063822944 ], [ -44.998049886001432, -21.19898306382294 ], [ -44.998049886001432, -21.198444074652475 ], [ -44.99751089683096, -21.198444074652471 ] ] ] } },
{ "type": "Feature", "properties": { "id_feicao": "fogo_2019_88", "ano": 2019.0, "mes": 10, "codigo_original": 15, "classe": "Pastagem", "cor": "#edde8e", "area_ha": 0.083427994769439101 }, "geometry": { "type": "Polygon", "coordinates": [ [ [ -44.993737972637661, -21.197905085481992 ], [ -44.994007467222893, -21.197905085481999 ], [ -44.994007467222893, -21.197635590896766 ], [ -44.993737972637661, -21.197635590896759 ], [ -44.993737972637661, -21.197905085481992 ] ] ] } },
{ "type": "Feature", "properties": { "id_feicao": "fogo_2019_89", "ano": 2019.0, "mes": 10, "codigo_original": 15, "classe": "Pastagem", "cor": "#edde8e", "area_ha": 0.083428588891215627 }, "geometry": { "type": "Polygon", "coordinates": [ [ [ -44.99562443473431, -21.196827107141051 ], [ -44.99589392931955, -21.196827107141051 ], [ -44.99589392931955, -21.196557612555818 ], [ -44.99562443473431, -21.196557612555818 ], [ -44.99562443473431, -21.196827107141051 ] ] ] } },
{ "type": "Feature", "properties": { "id_feicao": "fogo_2019_90", "ano": 2019.0, "mes": 10, "codigo_original": 15, "classe": "Pastagem", "cor": "#edde8e", "area_ha": 0.083428886826870732 }, "geometry": { "type": "Polygon", "coordinates": [ [ [ -44.992929488881956, -21.196018623385346 ], [ -44.992929488881956, -21.196288117970585 ], [ -44.993198983467188, -21.196288117970578 ], [ -44.993198983467188, -21.196018623385338 ], [ -44.992929488881956, -21.196018623385346 ] ] ] } },
{ "type": "Feature", "properties": { "id_feicao": "fogo_2019_91", "ano": 2019.0, "mes": 10, "codigo_original": 15, "classe": "Pastagem", "cor": "#edde8e", "area_ha": 0.66743676113905381 }, "geometry": { "type": "Polygon", "coordinates": [ [ [ -44.994546456393365, -21.194940645044394 ], [ -44.993468478052428, -21.194940645044394 ], [ -44.993468478052428, -21.194671150459165 ], [ -44.992659994296716, -21.194671150459168 ], [ -44.992659994296716, -21.194940645044394 ], [ -44.993198983467188, -21.194940645044397 ], [ -44.993198983467188, -21.195210139629648 ], [ -44.994546456393365, -21.195210139629637 ], [ -44.994546456393365, -21.194940645044394 ] ] ] } },
{ "type": "Feature", "properties": { "id_feicao": "fogo_2019_92", "ano": 2019.0, "mes": 10, "codigo_original": 15, "classe": "Pastagem", "cor": "#edde8e", "area_ha": 0.33372048092791812 }, "geometry": { "type": "Polygon", "coordinates": [ [ [ -45.005056745217566, -21.193862666703463 ], [ -45.005326239802812, -21.19386266670346 ], [ -45.005326239802812, -21.193593172118216 ], [ -45.004517756047093, -21.193593172118216 ], [ -45.004517756047093, -21.193862666703463 ], [ -45.00478725063234, -21.193862666703456 ], [ -45.00478725063234, -21.194132161288696 ], [ -45.005056745217566, -21.194132161288692 ], [ -45.005056745217566, -21.193862666703463 ] ] ] } },
{ "type": "Feature", "properties": { "id_feicao": "fogo_2019_93", "ano": 2019.0, "mes": 10, "codigo_original": 21, "classe": "Mosaico de Usos", "cor": "#ffefc3", "area_ha": 0.16678545058112745 }, "geometry": { "type": "Polygon", "coordinates": [ [ [ -45.021765409502187, -21.261505807597665 ], [ -45.021765409502187, -21.261775302182883 ], [ -45.022304398672659, -21.261775302182894 ], [ -45.022304398672659, -21.261505807597661 ], [ -45.021765409502187, -21.261505807597665 ] ] ] } },
{ "type": "Feature", "properties": { "id_feicao": "fogo_2019_94", "ano": 2019.0, "mes": 10, "codigo_original": 41, "classe": "Outras Lavouras Temporárias", "cor": "#f54ca9", "area_ha": 7.4171383050564677 }, "geometry": { "type": "Polygon", "coordinates": [ [ [ -45.115010535993797, -21.361488298720161 ], [ -45.115549525164269, -21.361488298720158 ], [ -45.115549525164269, -21.361218804134928 ], [ -45.116088514334741, -21.361218804134925 ], [ -45.116088514334741, -21.360949309549682 ], [ -45.116627503505214, -21.360949309549685 ], [ -45.116627503505214, -21.36041032037922 ], [ -45.116896998090446, -21.360410320379213 ], [ -45.116896998090446, -21.360140825793973 ], [ -45.117166492675686, -21.360140825793977 ], [ -45.117166492675686, -21.359871331208755 ], [ -45.117435987260919, -21.359871331208748 ], [ -45.117435987260919, -21.359062847453039 ], [ -45.117166492675686, -21.359062847453039 ], [ -45.117166492675686, -21.358793352867806 ], [ -45.116896998090446, -21.358793352867792 ], [ -45.116896998090446, -21.35852385828256 ], [ -45.116358008919974, -21.358523858282567 ], [ -45.116358008919974, -21.358254363697327 ], [ -45.114741041408557, -21.358254363697331 ], [ -45.114741041408557, -21.360679814964453 ], [ -45.115010535993797, -21.360679814964453 ], [ -45.115010535993797, -21.361488298720161 ] ] ] } },
{ "type": "Feature", "properties": { "id_feicao": "fogo_2019_95", "ano": 2019.0, "mes": 10, "codigo_original": 41, "classe": "Outras Lavouras Temporárias", "cor": "#f54ca9", "area_ha": 3.7503298766609281 }, "geometry": { "type": "Polygon", "coordinates": [ [ [ -45.12013093311328, -21.357176385356389 ], [ -45.120400427698513, -21.357176385356389 ], [ -45.120400427698513, -21.357445879941618 ], [ -45.120669922283746, -21.357445879941618 ], [ -45.120669922283746, -21.357176385356386 ], [ -45.121208911454218, -21.357176385356389 ], [ -45.121208911454218, -21.356906890771143 ], [ -45.121478406039458, -21.35690689077115 ], [ -45.121478406039458, -21.356637396185917 ], [ -45.12174790062469, -21.356637396185917 ], [ -45.12174790062469, -21.355828912430201 ], [ -45.122286889795163, -21.355828912430205 ], [ -45.122286889795163, -21.35528992325974 ], [ -45.121478406039458, -21.355289923259736 ], [ -45.121478406039458, -21.355020428674504 ], [ -45.120400427698513, -21.3550204286745 ], [ -45.120400427698513, -21.356098407015441 ], [ -45.12013093311328, -21.356098407015438 ], [ -45.12013093311328, -21.357176385356389 ] ] ] } },
{ "type": "Feature", "properties": { "id_feicao": "fogo_2019_96", "ano": 2019.0, "mes": 10, "codigo_original": 41, "classe": "Outras Lavouras Temporárias", "cor": "#f54ca9", "area_ha": 0.91674604523852465 }, "geometry": { "type": "Polygon", "coordinates": [ [ [ -45.119052954772336, -21.35690689077115 ], [ -45.119861438528041, -21.356906890771157 ], [ -45.119861438528041, -21.356367901600681 ], [ -45.119591943942808, -21.356367901600681 ], [ -45.119591943942808, -21.355559417844972 ], [ -45.119322449357568, -21.355559417844965 ], [ -45.119322449357568, -21.355828912430205 ], [ -45.119052954772336, -21.355828912430216 ], [ -45.119052954772336, -21.35690689077115 ] ] ] } },
{ "type": "Feature", "properties": { "id_feicao": "fogo_2019_97", "ano": 2019.0, "mes": 10, "codigo_original": 41, "classe": "Outras Lavouras Temporárias", "cor": "#f54ca9", "area_ha": 2.6677273574169726 }, "geometry": { "type": "Polygon", "coordinates": [ [ [ -45.106386709266246, -21.310014832940116 ], [ -45.106656203851486, -21.310014832940109 ], [ -45.106656203851486, -21.310284327525345 ], [ -45.107734182192431, -21.310284327525352 ], [ -45.107734182192431, -21.310014832940119 ], [ -45.108003676777663, -21.310014832940116 ], [ -45.108003676777663, -21.308936854599164 ], [ -45.107734182192431, -21.308936854599175 ], [ -45.107734182192431, -21.308667360013924 ], [ -45.106656203851486, -21.308667360013928 ], [ -45.106656203851486, -21.308936854599178 ], [ -45.106386709266246, -21.308936854599175 ], [ -45.106386709266246, -21.310014832940116 ] ] ] } },
{ "type": "Feature", "properties": { "id_feicao": "fogo_2019_98", "ano": 2019.0, "mes": 10, "codigo_original": 41, "classe": "Outras Lavouras Temporárias", "cor": "#f54ca9", "area_ha": 0.33351068077860402 }, "geometry": { "type": "Polygon", "coordinates": [ [ [ -45.145193929540213, -21.289802739047428 ], [ -45.145463424125445, -21.289802739047417 ], [ -45.145463424125445, -21.290072233632657 ], [ -45.145732918710685, -21.290072233632664 ], [ -45.145732918710685, -21.289263749876955 ], [ -45.145463424125445, -21.289263749876945 ], [ -45.145463424125445, -21.289533244462177 ], [ -45.145193929540213, -21.289533244462188 ], [ -45.145193929540213, -21.289802739047428 ] ] ] } },
{ "type": "Feature", "properties": { "id_feicao": "fogo_2019_99", "ano": 2019.0, "mes": 10, "codigo_original": 41, "classe": "Outras Lavouras Temporárias", "cor": "#f54ca9", "area_ha": 0.25013392467303203 }, "geometry": { "type": "Polygon", "coordinates": [ [ [ -45.14681089705163, -21.288994255291712 ], [ -45.146002413295918, -21.288994255291712 ], [ -45.146002413295918, -21.289263749876945 ], [ -45.14681089705163, -21.289263749876948 ], [ -45.14681089705163, -21.288994255291712 ] ] ] } },
{ "type": "Feature", "properties": { "id_feicao": "fogo_2019_100", "ano": 2019.0, "mes": 10, "codigo_original": 41, "classe": "Outras Lavouras Temporárias", "cor": "#f54ca9", "area_ha": 0.16682208520900457 }, "geometry": { "type": "Polygon", "coordinates": [ [ [ -45.117166492675686, -21.228896962784116 ], [ -45.116627503505214, -21.228896962784123 ], [ -45.116627503505214, -21.229166457369359 ], [ -45.117166492675686, -21.229166457369359 ], [ -45.117166492675686, -21.228896962784116 ] ] ] } },
{ "type": "Feature", "properties": { "id_feicao": "fogo_2019_101", "ano": 2019.0, "mes": 10, "codigo_original": 41, "classe": "Outras Lavouras Temporárias", "cor": "#f54ca9", "area_ha": 0.083411194967059052 }, "geometry": { "type": "Polygon", "coordinates": [ [ [ -45.117435987260919, -21.228627468198887 ], [ -45.117435987260919, -21.228896962784123 ], [ -45.117705481846151, -21.228896962784116 ], [ -45.117705481846151, -21.22862746819888 ], [ -45.117435987260919, -21.228627468198887 ] ] ] } },
{ "type": "Feature", "properties": { "id_feicao": "fogo_2019_102", "ano": 2019.0, "mes": 10, "codigo_original": 41, "classe": "Outras Lavouras Temporárias", "cor": "#f54ca9", "area_ha": 0.083411345226360123 }, "geometry": { "type": "Polygon", "coordinates": [ [ [ -45.117705481846151, -21.228357973613651 ], [ -45.117705481846151, -21.22862746819888 ], [ -45.117974976431391, -21.228627468198884 ], [ -45.117974976431391, -21.228357973613651 ], [ -45.117705481846151, -21.228357973613651 ] ] ] } }
]
}
