{
"type": "FeatureCollection",
"name": "fogo_2018",
"crs": { "type": "name", "properties": { "name": "urn:ogc:def:crs:OGC:1.3:CRS84" } },
"features": [
{ "type": "Feature", "properties": { "id_feicao": "fogo_2018_1", "ano": 2018.0, "mes": 5, "codigo_original": 3, "classe": "Formação Florestal", "cor": "#1f8d49", "area_ha": 0.66694546544127387 }, "geometry": { "type": "Polygon", "coordinates": [ [ [ -45.111776600970963, -21.305702919576337 ], [ -45.111776600970963, -21.305972414161577 ], [ -45.11150710638573, -21.30597241416158 ], [ -45.11150710638573, -21.307319887087758 ], [ -45.111776600970963, -21.307319887087758 ], [ -45.111776600970963, -21.306511403332046 ], [ -45.112046095556202, -21.306511403332046 ], [ -45.112046095556202, -21.305702919576337 ], [ -45.111776600970963, -21.305702919576337 ] ] ] } },
{ "type": "Feature", "properties": { "id_feicao": "fogo_2018_2", "ano": 2018.0, "mes": 5, "codigo_original": 15, "classe": "Pastagem", "cor": "#edde8e", "area_ha": 2.5863023382219255 }, "geometry": { "type": "Polygon", "coordinates": [ [ [ -44.991582015955771, -21.195210139629648 ], [ -44.991312521370538, -21.195210139629644 ], [ -44.991312521370538, -21.196557612555811 ], [ -44.992659994296716, -21.196557612555814 ], [ -44.992659994296716, -21.196018623385342 ], [ -44.992929488881956, -21.196018623385346 ], [ -44.992929488881956, -21.194940645044404 ], [ -44.991582015955771, -21.194940645044394 ], [ -44.991582015955771, -21.195210139629648 ] ], [ [ -44.991851510541011, -21.195749128800106 ], [ -44.991851510541011, -21.195210139629634 ], [ -44.992121005126243, -21.195210139629641 ], [ -44.992121005126243, -21.195749128800113 ], [ -44.991851510541011, -21.195749128800106 ] ] ] } },
{ "type": "Feature", "properties": { "id_feicao": "fogo_2018_3", "ano": 2018.0, "mes": 5, "codigo_original": 21, "classe": "Mosaico de Usos", "cor": "#ffefc3", "area_ha": 0.16673599344906023 }, "geometry": { "type": "Polygon", "coordinates": [ [ [ -45.112046095556202, -21.307050392502518 ], [ -45.112046095556202, -21.306511403332046 ], [ -45.111776600970963, -21.306511403332046 ], [ -45.111776600970963, -21.307050392502514 ], [ -45.112046095556202, -21.307050392502518 ] ] ] } },
{ "type": "Feature", "properties": { "id_feicao": "fogo_2018_4", "ano": 2018.0, "mes": 5, "codigo_original": 21, "classe": "Mosaico de Usos", "cor": "#ffefc3", "area_ha": 0.25010465436513352 }, "geometry": { "type": "Polygon", "coordinates": [ [ [ -45.11150710638573, -21.306780897917278 ], [ -45.11150710638573, -21.30597241416158 ], [ -45.111237611800497, -21.30597241416158 ], [ -45.111237611800497, -21.306780897917278 ], [ -45.11150710638573, -21.306780897917278 ] ] ] } },
{ "type": "Feature", "properties": { "id_feicao": "fogo_2018_5", "ano": 2018.0, "mes": 5, "codigo_original": 21, "classe": "Mosaico de Usos", "cor": "#ffefc3", "area_ha": 0.083368371510179534 }, "geometry": { "type": "Polygon", "coordinates": [ [ [ -45.112315590141435, -21.306241908746813 ], [ -45.112315590141435, -21.30597241416158 ], [ -45.112046095556202, -21.305972414161573 ], [ -45.112046095556202, -21.306241908746809 ], [ -45.112315590141435, -21.306241908746813 ] ] ] } },
{ "type": "Feature", "properties": { "id_feicao": "fogo_2018_6", "ano": 2018.0, "mes": 5, "codigo_original": 21, "classe": "Mosaico de Usos", "cor": "#ffefc3", "area_ha": 0.08336851821113378 }, "geometry": { "type": "Polygon", "coordinates": [ [ [ -45.111776600970963, -21.305702919576337 ], [ -45.11150710638573, -21.305702919576333 ], [ -45.11150710638573, -21.30597241416158 ], [ -45.111776600970963, -21.305972414161577 ], [ -45.111776600970963, -21.305702919576337 ] ] ] } },
{ "type": "Feature", "properties": { "id_feicao": "fogo_2018_7", "ano": 2018.0, "mes": 5, "codigo_original": 21, "classe": "Mosaico de Usos", "cor": "#ffefc3", "area_ha": 0.083368668921478095 }, "geometry": { "type": "Polygon", "coordinates": [ [ [ -45.112046095556202, -21.305433424991101 ], [ -45.111776600970963, -21.305433424991108 ], [ -45.111776600970963, -21.305702919576337 ], [ -45.112046095556202, -21.305702919576337 ], [ -45.112046095556202, -21.305433424991101 ] ] ] } },
{ "type": "Feature", "properties": { "id_feicao": "fogo_2018_8", "ano": 2018.0, "mes": 5, "codigo_original": 41, "classe": "Outras Lavouras Temporárias", "cor": "#f54ca9", "area_ha": 3.5846681545689703 }, "geometry": { "type": "Polygon", "coordinates": [ [ [ -45.123364868136107, -21.313518262548179 ], [ -45.123095373550875, -21.313518262548172 ], [ -45.123095373550875, -21.313248767962939 ], [ -45.122825878965635, -21.313248767962932 ], [ -45.122825878965635, -21.31297927337771 ], [ -45.121208911454218, -21.31297927337771 ], [ -45.121208911454218, -21.314057251718651 ], [ -45.122286889795163, -21.314057251718648 ], [ -45.122286889795163, -21.313787757133415 ], [ -45.12201739520993, -21.313787757133419 ], [ -45.12201739520993, -21.313518262548186 ], [ -45.122825878965635, -21.313518262548179 ], [ -45.122825878965635, -21.313787757133419 ], [ -45.123634362721347, -21.313787757133419 ], [ -45.123634362721347, -21.314057251718644 ], [ -45.124442846477052, -21.314057251718644 ], [ -45.124442846477052, -21.313248767962936 ], [ -45.124712341062292, -21.313248767962946 ], [ -45.124712341062292, -21.31270977879247 ], [ -45.124442846477052, -21.312709778792474 ], [ -45.124442846477052, -21.312440284207238 ], [ -45.123095373550875, -21.312440284207241 ], [ -45.123095373550875, -21.312709778792474 ], [ -45.123364868136107, -21.312709778792478 ], [ -45.123364868136107, -21.313518262548179 ] ], [ [ -45.123634362721347, -21.31270977879247 ], [ -45.12417335189182, -21.312709778792474 ], [ -45.12417335189182, -21.312979273377707 ], [ -45.12390385730658, -21.31297927337771 ], [ -45.12390385730658, -21.313787757133412 ], [ -45.123634362721347, -21.313787757133419 ], [ -45.123634362721347, -21.31270977879247 ] ] ] } },
{ "type": "Feature", "properties": { "id_feicao": "fogo_2018_9", "ano": 2018.0, "mes": 5, "codigo_original": 41, "classe": "Outras Lavouras Temporárias", "cor": "#f54ca9", "area_ha": 34.930406125000466 }, "geometry": { "type": "Polygon", "coordinates": [ [ [ -45.117435987260919, -21.304894435820632 ], [ -45.117435987260919, -21.305433424991104 ], [ -45.117166492675686, -21.305433424991104 ], [ -45.117166492675686, -21.305972414161566 ], [ -45.116896998090446, -21.305972414161577 ], [ -45.116896998090446, -21.306241908746806 ], [ -45.116627503505214, -21.306241908746813 ], [ -45.116627503505214, -21.306780897917285 ], [ -45.116358008919974, -21.306780897917289 ], [ -45.116358008919974, -21.307589381672987 ], [ -45.116088514334741, -21.307589381672987 ], [ -45.116088514334741, -21.308397865428688 ], [ -45.115819019749502, -21.308397865428702 ], [ -45.115819019749502, -21.309206349184404 ], [ -45.115549525164269, -21.309206349184404 ], [ -45.115549525164269, -21.309745338354873 ], [ -45.115280030579029, -21.309745338354876 ], [ -45.115280030579029, -21.310553822110581 ], [ -45.115010535993797, -21.310553822110581 ], [ -45.115010535993797, -21.311092811281046 ], [ -45.114471546823324, -21.31109281128106 ], [ -45.114471546823324, -21.311901295036758 ], [ -45.113663063067619, -21.311901295036758 ], [ -45.113663063067619, -21.311631800451526 ], [ -45.11339356848238, -21.311631800451526 ], [ -45.11339356848238, -21.3113623058663 ], [ -45.112854579311907, -21.311362305866293 ], [ -45.112854579311907, -21.311631800451526 ], [ -45.112585084726675, -21.311631800451519 ], [ -45.112585084726675, -21.312170789622002 ], [ -45.112315590141435, -21.312170789622005 ], [ -45.112315590141435, -21.31270977879247 ], [ -45.112046095556202, -21.31270977879247 ], [ -45.112046095556202, -21.313518262548175 ], [ -45.111776600970963, -21.313518262548179 ], [ -45.111776600970963, -21.314057251718641 ], [ -45.11150710638573, -21.314057251718651 ], [ -45.11150710638573, -21.316482702985766 ], [ -45.112854579311907, -21.31648270298577 ], [ -45.112854579311907, -21.316213208400537 ], [ -45.113124073897147, -21.316213208400541 ], [ -45.113124073897147, -21.315674219230061 ], [ -45.11339356848238, -21.315674219230058 ], [ -45.11339356848238, -21.314865735474353 ], [ -45.113663063067619, -21.314865735474349 ], [ -45.113663063067619, -21.314057251718644 ], [ -45.113932557652852, -21.314057251718641 ], [ -45.113932557652852, -21.313787757133412 ], [ -45.114202052238092, -21.313787757133415 ], [ -45.114202052238092, -21.31324876796295 ], [ -45.114471546823324, -21.313248767962943 ], [ -45.114471546823324, -21.31270977879247 ], [ -45.115010535993797, -21.312709778792474 ], [ -45.115010535993797, -21.312170789622002 ], [ -45.115280030579029, -21.312170789622002 ], [ -45.115280030579029, -21.311901295036762 ], [ -45.115549525164269, -21.311901295036758 ], [ -45.115549525164269, -21.311631800451526 ], [ -45.116088514334741, -21.311631800451526 ], [ -45.116088514334741, -21.31136230586629 ], [ -45.116358008919974, -21.311362305866293 ], [ -45.116358008919974, -21.31109281128105 ], [ -45.116627503505214, -21.311092811281057 ], [ -45.116627503505214, -21.310823316695807 ], [ -45.116896998090446, -21.310823316695821 ], [ -45.116896998090446, -21.310553822110588 ], [ -45.117435987260919, -21.310553822110585 ], [ -45.117435987260919, -21.311092811281053 ], [ -45.119052954772336, -21.311092811281057 ], [ -45.119052954772336, -21.310284327525345 ], [ -45.119322449357568, -21.310284327525345 ], [ -45.119322449357568, -21.308936854599175 ], [ -45.119052954772336, -21.308936854599175 ], [ -45.119052954772336, -21.308397865428702 ], [ -45.118513965601863, -21.308397865428692 ], [ -45.118513965601863, -21.307589381672983 ], [ -45.119052954772336, -21.307589381672997 ], [ -45.119052954772336, -21.306241908746813 ], [ -45.119322449357568, -21.306241908746802 ], [ -45.119322449357568, -21.304624941235389 ], [ -45.118513965601863, -21.304624941235385 ], [ -45.118513965601863, -21.303816457479687 ], [ -45.117974976431391, -21.303816457479691 ], [ -45.117974976431391, -21.30408595206492 ], [ -45.117705481846151, -21.30408595206492 ], [ -45.117705481846151, -21.304894435820636 ], [ -45.117435987260919, -21.304894435820632 ] ], [ [ -45.115819019749502, -21.309745338354887 ], [ -45.115819019749502, -21.310014832940116 ], [ -45.115549525164269, -21.310014832940112 ], [ -45.115549525164269, -21.309745338354873 ], [ -45.115819019749502, -21.309745338354887 ] ] ] } },
{ "type": "Feature", "properties": { "id_feicao": "fogo_2018_10", "ano": 2018.0, "mes": 5, "codigo_original": 41, "classe": "Outras Lavouras Temporárias", "cor": "#f54ca9", "area_ha": 14.339055728545972 }, "geometry": { "type": "Polygon", "coordinates": [ [ [ -45.109890138874313, -21.306780897917282 ], [ -45.10962064428908, -21.306780897917282 ], [ -45.10962064428908, -21.307050392502521 ], [ -45.108812160533368, -21.307050392502521 ], [ -45.108812160533368, -21.307589381672994 ], [ -45.108542665948136, -21.30758938167299 ], [ -45.108542665948136, -21.30785887625823 ], [ -45.108273171362903, -21.307858876258233 ], [ -45.108273171362903, -21.308128370843459 ], [ -45.107464687607191, -21.30812837084347 ], [ -45.107464687607191, -21.307858876258219 ], [ -45.107195193021958, -21.307858876258223 ], [ -45.107195193021958, -21.308667360013928 ], [ -45.107464687607191, -21.308667360013931 ], [ -45.107464687607191, -21.309206349184404 ], [ -45.107734182192431, -21.309206349184404 ], [ -45.107734182192431, -21.311092811281053 ], [ -45.108003676777663, -21.311092811281053 ], [ -45.108003676777663, -21.312440284207238 ], [ -45.109351149703841, -21.312440284207231 ], [ -45.109351149703841, -21.311901295036758 ], [ -45.10962064428908, -21.311901295036762 ], [ -45.10962064428908, -21.311631800451529 ], [ -45.109890138874313, -21.311631800451533 ], [ -45.109890138874313, -21.311362305866297 ], [ -45.10962064428908, -21.311362305866293 ], [ -45.10962064428908, -21.310823316695824 ], [ -45.109890138874313, -21.310823316695817 ], [ -45.109890138874313, -21.308667360013931 ], [ -45.110159633459553, -21.308667360013931 ], [ -45.110159633459553, -21.308128370843455 ], [ -45.110429128044785, -21.308128370843455 ], [ -45.110429128044785, -21.307858876258226 ], [ -45.110698622630025, -21.307858876258233 ], [ -45.110698622630025, -21.307050392502518 ], [ -45.111237611800497, -21.307050392502514 ], [ -45.111237611800497, -21.307589381672994 ], [ -45.111776600970963, -21.307589381672994 ], [ -45.111776600970963, -21.307319887087758 ], [ -45.11150710638573, -21.307319887087758 ], [ -45.11150710638573, -21.306780897917278 ], [ -45.111237611800497, -21.306780897917278 ], [ -45.111237611800497, -21.306511403332049 ], [ -45.110698622630025, -21.306511403332042 ], [ -45.110698622630025, -21.306241908746806 ], [ -45.110159633459553, -21.306241908746802 ], [ -45.110159633459553, -21.306511403332046 ], [ -45.109890138874313, -21.306511403332046 ], [ -45.109890138874313, -21.306780897917282 ] ] ] } },
{ "type": "Feature", "properties": { "id_feicao": "fogo_2018_11", "ano": 2018.0, "mes": 5, "codigo_original": 41, "classe": "Outras Lavouras Temporárias", "cor": "#f54ca9", "area_ha": 3.0012404929698446 }, "geometry": { "type": "Polygon", "coordinates": [ [ [ -45.104769741754836, -21.30758938167299 ], [ -45.105847720095774, -21.307589381672994 ], [ -45.105847720095774, -21.307858876258216 ], [ -45.106656203851486, -21.307858876258226 ], [ -45.106656203851486, -21.307589381672987 ], [ -45.106117214681014, -21.30758938167299 ], [ -45.106117214681014, -21.306241908746813 ], [ -45.104230752584364, -21.306241908746816 ], [ -45.104230752584364, -21.307319887087747 ], [ -45.104769741754836, -21.307319887087758 ], [ -45.104769741754836, -21.30758938167299 ] ] ] } },
{ "type": "Feature", "properties": { "id_feicao": "fogo_2018_12", "ano": 2018.0, "mes": 5, "codigo_original": 41, "classe": "Outras Lavouras Temporárias", "cor": "#f54ca9", "area_ha": 0.16673924385616556 }, "geometry": { "type": "Polygon", "coordinates": [ [ [ -45.123095373550875, -21.303816457479691 ], [ -45.122556384380403, -21.303816457479691 ], [ -45.122556384380403, -21.304085952064916 ], [ -45.123095373550875, -21.304085952064913 ], [ -45.123095373550875, -21.303816457479691 ] ] ] } },
{ "type": "Feature", "properties": { "id_feicao": "fogo_2018_13", "ano": 2018.0, "mes": 5, "codigo_original": 41, "classe": "Outras Lavouras Temporárias", "cor": "#f54ca9", "area_ha": 9.8376143181697469 }, "geometry": { "type": "Polygon", "coordinates": [ [ [ -45.10962064428908, -21.302468984553514 ], [ -45.109351149703841, -21.30246898455351 ], [ -45.109351149703841, -21.305702919576341 ], [ -45.110429128044785, -21.305702919576341 ], [ -45.110429128044785, -21.30597241416158 ], [ -45.111237611800497, -21.30597241416158 ], [ -45.111237611800497, -21.305702919576333 ], [ -45.11150710638573, -21.305702919576333 ], [ -45.11150710638573, -21.305433424991097 ], [ -45.111776600970963, -21.305433424991108 ], [ -45.111776600970963, -21.305163930405868 ], [ -45.112046095556202, -21.305163930405872 ], [ -45.112046095556202, -21.304624941235396 ], [ -45.111776600970963, -21.304624941235392 ], [ -45.111776600970963, -21.304085952064924 ], [ -45.11150710638573, -21.304085952064916 ], [ -45.11150710638573, -21.303816457479687 ], [ -45.111776600970963, -21.303816457479684 ], [ -45.111776600970963, -21.303546962894455 ], [ -45.11150710638573, -21.303546962894455 ], [ -45.11150710638573, -21.303277468309222 ], [ -45.110429128044785, -21.303277468309215 ], [ -45.110429128044785, -21.301121511627333 ], [ -45.109081655118608, -21.301121511627336 ], [ -45.109081655118608, -21.30219948996827 ], [ -45.10962064428908, -21.302199489968274 ], [ -45.10962064428908, -21.302468984553514 ] ] ] } },
{ "type": "Feature", "properties": { "id_feicao": "fogo_2018_14", "ano": 2018.0, "mes": 5, "codigo_original": 41, "classe": "Outras Lavouras Temporárias", "cor": "#f54ca9", "area_ha": 0.5835936084591784 }, "geometry": { "type": "Polygon", "coordinates": [ [ [ -45.119861438528041, -21.302738479138746 ], [ -45.12013093311328, -21.30273847913875 ], [ -45.12013093311328, -21.301929995383034 ], [ -45.119322449357568, -21.301929995383041 ], [ -45.119322449357568, -21.30246898455351 ], [ -45.119861438528041, -21.30246898455351 ], [ -45.119861438528041, -21.302738479138746 ] ] ] } },
{ "type": "Feature", "properties": { "id_feicao": "fogo_2018_15", "ano": 2018.0, "mes": 6, "codigo_original": 3, "classe": "Formação Florestal", "cor": "#1f8d49", "area_ha": 0.16683369375346091 }, "geometry": { "type": "Polygon", "coordinates": [ [ [ -44.982958189228228, -21.217847684789451 ], [ -44.982958189228228, -21.21811717937468 ], [ -44.9834971783987, -21.21811717937468 ], [ -44.9834971783987, -21.217847684789461 ], [ -44.982958189228228, -21.217847684789451 ] ] ] } },
{ "type": "Feature", "properties": { "id_feicao": "fogo_2018_16", "ano": 2018.0, "mes": 6, "codigo_original": 15, "classe": "Pastagem", "cor": "#edde8e", "area_ha": 0.16683189664548262 }, "geometry": { "type": "Polygon", "coordinates": [ [ [ -45.003978766876621, -21.219734146886097 ], [ -45.004517756047093, -21.219734146886104 ], [ -45.004517756047093, -21.219464652300868 ], [ -45.003978766876621, -21.219464652300868 ], [ -45.003978766876621, -21.219734146886097 ] ] ] } },
{ "type": "Feature", "properties": { "id_feicao": "fogo_2018_17", "ano": 2018.0, "mes": 6, "codigo_original": 15, "classe": "Pastagem", "cor": "#edde8e", "area_ha": 1.7517458300521993 }, "geometry": { "type": "Polygon", "coordinates": [ [ [ -45.003978766876621, -21.217847684789444 ], [ -45.003978766876621, -21.218117179374683 ], [ -45.004517756047093, -21.218117179374687 ], [ -45.004517756047093, -21.218656168545156 ], [ -45.00478725063234, -21.218656168545159 ], [ -45.00478725063234, -21.2197341468861 ], [ -45.005595734388038, -21.219734146886097 ], [ -45.005595734388038, -21.219195157715621 ], [ -45.005326239802812, -21.219195157715625 ], [ -45.005326239802812, -21.218925663130399 ], [ -45.005595734388038, -21.218925663130392 ], [ -45.005595734388038, -21.218656168545163 ], [ -45.005056745217566, -21.218656168545156 ], [ -45.005056745217566, -21.217847684789454 ], [ -45.00478725063234, -21.217847684789451 ], [ -45.00478725063234, -21.217578190204211 ], [ -45.004248261461868, -21.217578190204218 ], [ -45.004248261461868, -21.217847684789451 ], [ -45.003978766876621, -21.217847684789444 ] ] ] } },
{ "type": "Feature", "properties": { "id_feicao": "fogo_2018_18", "ano": 2018.0, "mes": 6, "codigo_original": 15, "classe": "Pastagem", "cor": "#edde8e", "area_ha": 0.16685851751233199 }, "geometry": { "type": "Polygon", "coordinates": [ [ [ -44.992121005126243, -21.195749128800113 ], [ -44.992121005126243, -21.195210139629641 ], [ -44.991851510541011, -21.195210139629634 ], [ -44.991851510541011, -21.195749128800106 ], [ -44.992121005126243, -21.195749128800113 ] ] ] } },
{ "type": "Feature", "properties": { "id_feicao": "fogo_2018_19", "ano": 2018.0, "mes": 6, "codigo_original": 41, "classe": "Outras Lavouras Temporárias", "cor": "#f54ca9", "area_ha": 2.0837255056553521 }, "geometry": { "type": "Polygon", "coordinates": [ [ [ -45.036048622519687, -21.339928731901292 ], [ -45.035240138763982, -21.339928731901299 ], [ -45.035240138763982, -21.340198226486532 ], [ -45.034970644178749, -21.340198226486525 ], [ -45.034970644178749, -21.340737215657004 ], [ -45.035240138763982, -21.340737215657004 ], [ -45.035240138763982, -21.341276204827473 ], [ -45.036587611690159, -21.341276204827466 ], [ -45.036587611690159, -21.340198226486518 ], [ -45.036857106275399, -21.340198226486532 ], [ -45.036857106275399, -21.339928731901292 ], [ -45.036318117104926, -21.339928731901296 ], [ -45.036318117104926, -21.340198226486532 ], [ -45.036048622519687, -21.340198226486521 ], [ -45.036048622519687, -21.339928731901292 ] ], [ [ -45.036048622519687, -21.340467721071761 ], [ -45.035509633349221, -21.340467721071764 ], [ -45.035509633349221, -21.340198226486525 ], [ -45.036048622519687, -21.340198226486521 ], [ -45.036048622519687, -21.340467721071761 ] ] ] } },
{ "type": "Feature", "properties": { "id_feicao": "fogo_2018_20", "ano": 2018.0, "mes": 6, "codigo_original": 41, "classe": "Outras Lavouras Temporárias", "cor": "#f54ca9", "area_ha": 1.9185792463792488 }, "geometry": { "type": "Polygon", "coordinates": [ [ [ -45.003439777706149, -21.218117179374691 ], [ -45.003709272291395, -21.21811717937468 ], [ -45.003709272291395, -21.218656168545163 ], [ -45.003439777706149, -21.218656168545163 ], [ -45.003439777706149, -21.218925663130399 ], [ -45.003709272291395, -21.218925663130392 ], [ -45.003709272291395, -21.219464652300861 ], [ -45.00478725063234, -21.219464652300868 ], [ -45.00478725063234, -21.218656168545159 ], [ -45.004517756047093, -21.218656168545156 ], [ -45.004517756047093, -21.218117179374687 ], [ -45.003978766876621, -21.218117179374683 ], [ -45.003978766876621, -21.217847684789444 ], [ -45.004248261461868, -21.217847684789451 ], [ -45.004248261461868, -21.217578190204218 ], [ -45.003709272291395, -21.217578190204208 ], [ -45.003709272291395, -21.217847684789444 ], [ -45.003439777706149, -21.217847684789454 ], [ -45.003439777706149, -21.218117179374691 ] ] ] } },
{ "type": "Feature", "properties": { "id_feicao": "fogo_2018_21", "ano": 2018.0, "mes": 6, "codigo_original": 41, "classe": "Outras Lavouras Temporárias", "cor": "#f54ca9", "area_ha": 0.75087741769999261 }, "geometry": { "type": "Polygon", "coordinates": [ [ [ -45.025268839110254, -21.193054182947751 ], [ -45.026616312036438, -21.193054182947748 ], [ -45.026616312036438, -21.192515193777272 ], [ -45.025538333695494, -21.192515193777272 ], [ -45.025538333695494, -21.192784688362508 ], [ -45.025268839110254, -21.192784688362515 ], [ -45.025268839110254, -21.193054182947751 ] ] ] } },
{ "type": "Feature", "properties": { "id_feicao": "fogo_2018_22", "ano": 2018.0, "mes": 6, "codigo_original": 41, "classe": "Outras Lavouras Temporárias", "cor": "#f54ca9", "area_ha": 1.0846238876603544 }, "geometry": { "type": "Polygon", "coordinates": [ [ [ -45.016106023212238, -21.189820247924917 ], [ -45.01664501238271, -21.189820247924921 ], [ -45.01664501238271, -21.189550753339677 ], [ -45.015836528626998, -21.189550753339685 ], [ -45.015836528626998, -21.189281258754455 ], [ -45.01664501238271, -21.189281258754448 ], [ -45.01664501238271, -21.189011764169219 ], [ -45.016106023212238, -21.189011764169219 ], [ -45.016106023212238, -21.188742269583972 ], [ -45.015567034041766, -21.18874226958398 ], [ -45.015567034041766, -21.190089742510157 ], [ -45.016106023212238, -21.190089742510153 ], [ -45.016106023212238, -21.189820247924917 ] ] ] } },
{ "type": "Feature", "properties": { "id_feicao": "fogo_2018_23", "ano": 2018.0, "mes": 6, "codigo_original": 41, "classe": "Outras Lavouras Temporárias", "cor": "#f54ca9", "area_ha": 4.4225559430274179 }, "geometry": { "type": "Polygon", "coordinates": [ [ [ -44.999666853512849, -21.167452197350343 ], [ -44.999397358927617, -21.167452197350343 ], [ -44.999397358927617, -21.167721691935579 ], [ -44.999127864342377, -21.167721691935576 ], [ -44.999127864342377, -21.168799670276524 ], [ -44.999397358927617, -21.168799670276524 ], [ -44.999397358927617, -21.169069164861757 ], [ -45.001014326439034, -21.169069164861757 ], [ -45.001014326439034, -21.166643713594638 ], [ -44.999936348098089, -21.166643713594631 ], [ -44.999936348098089, -21.16718270276511 ], [ -44.999666853512849, -21.16718270276511 ], [ -44.999666853512849, -21.167452197350343 ] ] ] } },
{ "type": "Feature", "properties": { "id_feicao": "fogo_2018_24", "ano": 2018.0, "mes": 6, "codigo_original": 41, "classe": "Outras Lavouras Temporárias", "cor": "#f54ca9", "area_ha": 5.1736289257846773 }, "geometry": { "type": "Polygon", "coordinates": [ [ [ -45.013680571945116, -21.165296240668461 ], [ -45.014489055700821, -21.165296240668464 ], [ -45.014489055700821, -21.165565735253686 ], [ -45.013411077359876, -21.165565735253693 ], [ -45.013411077359876, -21.166643713594642 ], [ -45.014219561115588, -21.166643713594638 ], [ -45.014219561115588, -21.166913208179871 ], [ -45.014489055700821, -21.166913208179878 ], [ -45.014489055700821, -21.167182702765114 ], [ -45.015567034041766, -21.16718270276511 ], [ -45.015567034041766, -21.166104724424162 ], [ -45.015297539456526, -21.166104724424169 ], [ -45.015297539456526, -21.164757251497992 ], [ -45.014758550286061, -21.164757251497992 ], [ -45.014758550286061, -21.164487756912745 ], [ -45.014489055700821, -21.164487756912738 ], [ -45.014489055700821, -21.164218262327513 ], [ -45.013411077359876, -21.16421826232752 ], [ -45.013411077359876, -21.164487756912745 ], [ -45.013680571945116, -21.164487756912745 ], [ -45.013680571945116, -21.165296240668461 ] ] ] } },
{ "type": "Feature", "properties": { "id_feicao": "fogo_2018_25", "ano": 2018.0, "mes": 6, "codigo_original": 41, "classe": "Outras Lavouras Temporárias", "cor": "#f54ca9", "area_ha": 0.16689179207775742 }, "geometry": { "type": "Polygon", "coordinates": [ [ [ -45.013411077359876, -21.165026746083225 ], [ -45.013141582774644, -21.165026746083225 ], [ -45.013141582774644, -21.165565735253686 ], [ -45.013411077359876, -21.165565735253693 ], [ -45.013411077359876, -21.165026746083225 ] ] ] } },
{ "type": "Feature", "properties": { "id_feicao": "fogo_2018_26", "ano": 2018.0, "mes": 7, "codigo_original": 15, "classe": "Pastagem", "cor": "#edde8e", "area_ha": 0.41707954670488834 }, "geometry": { "type": "Polygon", "coordinates": [ [ [ -45.005595734388038, -21.219734146886097 ], [ -45.00478725063234, -21.2197341468861 ], [ -45.00478725063234, -21.219464652300868 ], [ -45.004517756047093, -21.219464652300868 ], [ -45.004517756047093, -21.220003641471337 ], [ -45.005595734388038, -21.220003641471326 ], [ -45.005595734388038, -21.219734146886097 ] ] ] } },
{ "type": "Feature", "properties": { "id_feicao": "fogo_2018_27", "ano": 2018.0, "mes": 7, "codigo_original": 15, "classe": "Pastagem", "cor": "#edde8e", "area_ha": 0.083416098237689584 }, "geometry": { "type": "Polygon", "coordinates": [ [ [ -44.991851510541011, -21.219195157715628 ], [ -44.991582015955771, -21.219195157715628 ], [ -44.991582015955771, -21.219464652300871 ], [ -44.991851510541011, -21.219464652300861 ], [ -44.991851510541011, -21.219195157715628 ] ] ] } },
{ "type": "Feature", "properties": { "id_feicao": "fogo_2018_28", "ano": 2018.0, "mes": 7, "codigo_original": 15, "classe": "Pastagem", "cor": "#edde8e", "area_ha": 0.083416246157139537 }, "geometry": { "type": "Polygon", "coordinates": [ [ [ -45.005595734388038, -21.218925663130392 ], [ -45.005326239802812, -21.218925663130399 ], [ -45.005326239802812, -21.219195157715625 ], [ -45.005595734388038, -21.219195157715621 ], [ -45.005595734388038, -21.218925663130392 ] ] ] } },
{ "type": "Feature", "properties": { "id_feicao": "fogo_2018_29", "ano": 2018.0, "mes": 7, "codigo_original": 15, "classe": "Pastagem", "cor": "#edde8e", "area_ha": 0.83416296291071923 }, "geometry": { "type": "Polygon", "coordinates": [ [ [ -44.989965048444361, -21.219195157715632 ], [ -44.990504037614834, -21.219195157715625 ], [ -44.990504037614834, -21.218386673959923 ], [ -44.988887070103416, -21.218386673959927 ], [ -44.988887070103416, -21.218656168545152 ], [ -44.989965048444361, -21.218656168545152 ], [ -44.989965048444361, -21.219195157715632 ] ] ] } },
{ "type": "Feature", "properties": { "id_feicao": "fogo_2018_30", "ano": 2018.0, "mes": 7, "codigo_original": 15, "classe": "Pastagem", "cor": "#edde8e", "area_ha": 0.083416394525952633 }, "geometry": { "type": "Polygon", "coordinates": [ [ [ -45.003439777706149, -21.218656168545163 ], [ -45.003170283120923, -21.218656168545163 ], [ -45.003170283120923, -21.218925663130396 ], [ -45.003439777706149, -21.218925663130399 ], [ -45.003439777706149, -21.218656168545163 ] ] ] } },
{ "type": "Feature", "properties": { "id_feicao": "fogo_2018_31", "ano": 2018.0, "mes": 7, "codigo_original": 15, "classe": "Pastagem", "cor": "#edde8e", "area_ha": 0.25024984644269571 }, "geometry": { "type": "Polygon", "coordinates": [ [ [ -45.005595734388038, -21.218386673959923 ], [ -45.005326239802812, -21.218386673959923 ], [ -45.005326239802812, -21.218117179374687 ], [ -45.005056745217566, -21.218117179374683 ], [ -45.005056745217566, -21.218656168545156 ], [ -45.005595734388038, -21.218656168545163 ], [ -45.005595734388038, -21.218386673959923 ] ] ] } },
{ "type": "Feature", "properties": { "id_feicao": "fogo_2018_32", "ano": 2018.0, "mes": 7, "codigo_original": 15, "classe": "Pastagem", "cor": "#edde8e", "area_ha": 3.0033192073817037 }, "geometry": { "type": "Polygon", "coordinates": [ [ [ -44.981880210887283, -21.201408515090062 ], [ -44.981880210887283, -21.203294977186715 ], [ -44.982958189228228, -21.203294977186708 ], [ -44.982958189228228, -21.20248649343101 ], [ -44.983766672983933, -21.20248649343101 ], [ -44.983766672983933, -21.201408515090066 ], [ -44.98322768381346, -21.201408515090062 ], [ -44.98322768381346, -21.201678009675298 ], [ -44.982688694642988, -21.201678009675295 ], [ -44.982688694642988, -21.201408515090062 ], [ -44.981880210887283, -21.201408515090062 ] ], [ [ -44.982419200057755, -21.202486493431007 ], [ -44.982149705472516, -21.202486493431007 ], [ -44.982149705472516, -21.201947504260541 ], [ -44.982419200057755, -21.201947504260531 ], [ -44.982419200057755, -21.202486493431007 ] ] ] } },
{ "type": "Feature", "properties": { "id_feicao": "fogo_2018_33", "ano": 2018.0, "mes": 7, "codigo_original": 15, "classe": "Pastagem", "cor": "#edde8e", "area_ha": 2.0028666399601849 }, "geometry": { "type": "Polygon", "coordinates": [ [ [ -45.002361799365211, -21.15343847891808 ], [ -45.003439777706149, -21.153438478918083 ], [ -45.003439777706149, -21.152091005991903 ], [ -45.002092304779978, -21.152091005991899 ], [ -45.002092304779978, -21.153168984332844 ], [ -45.002361799365211, -21.153168984332847 ], [ -45.002361799365211, -21.15343847891808 ] ] ] } },
{ "type": "Feature", "properties": { "id_feicao": "fogo_2018_34", "ano": 2018.0, "mes": 7, "codigo_original": 21, "classe": "Mosaico de Usos", "cor": "#ffefc3", "area_ha": 0.58358189269951866 }, "geometry": { "type": "Polygon", "coordinates": [ [ [ -45.112315590141435, -21.304624941235396 ], [ -45.112315590141435, -21.304894435820636 ], [ -45.112046095556202, -21.304894435820636 ], [ -45.112046095556202, -21.305972414161573 ], [ -45.112315590141435, -21.30597241416158 ], [ -45.112315590141435, -21.305433424991108 ], [ -45.112585084726675, -21.305433424991108 ], [ -45.112585084726675, -21.304624941235396 ], [ -45.112315590141435, -21.304624941235396 ] ] ] } },
{ "type": "Feature", "properties": { "id_feicao": "fogo_2018_35", "ano": 2018.0, "mes": 7, "codigo_original": 41, "classe": "Outras Lavouras Temporárias", "cor": "#f54ca9", "area_ha": 3.9177076521104204 }, "geometry": { "type": "Polygon", "coordinates": [ [ [ -45.143576962028796, -21.329148948491856 ], [ -45.143307467443563, -21.329148948491859 ], [ -45.143307467443563, -21.329957432247564 ], [ -45.143576962028796, -21.329957432247554 ], [ -45.143576962028796, -21.3302269268328 ], [ -45.144115951199268, -21.3302269268328 ], [ -45.144115951199268, -21.330765916003276 ], [ -45.145193929540213, -21.330765916003273 ], [ -45.145193929540213, -21.330496421418044 ], [ -45.145463424125445, -21.330496421418044 ], [ -45.145463424125445, -21.330226926832797 ], [ -45.145193929540213, -21.3302269268328 ], [ -45.145193929540213, -21.329957432247568 ], [ -45.145463424125445, -21.329957432247557 ], [ -45.145463424125445, -21.329418443077095 ], [ -45.145193929540213, -21.329418443077088 ], [ -45.145193929540213, -21.329148948491859 ], [ -45.144924434954973, -21.329148948491859 ], [ -45.144924434954973, -21.32887945390662 ], [ -45.144385445784508, -21.328879453906623 ], [ -45.144385445784508, -21.32860995932138 ], [ -45.143307467443563, -21.328609959321383 ], [ -45.143307467443563, -21.32887945390662 ], [ -45.143576962028796, -21.328879453906612 ], [ -45.143576962028796, -21.329148948491856 ] ] ] } },
{ "type": "Feature", "properties": { "id_feicao": "fogo_2018_36", "ano": 2018.0, "mes": 7, "codigo_original": 41, "classe": "Outras Lavouras Temporárias", "cor": "#f54ca9", "area_ha": 0.16686461952524401 }, "geometry": { "type": "Polygon", "coordinates": [ [ [ -45.016106023212238, -21.189820247924917 ], [ -45.016106023212238, -21.190089742510153 ], [ -45.01664501238271, -21.190089742510153 ], [ -45.01664501238271, -21.189820247924921 ], [ -45.016106023212238, -21.189820247924917 ] ] ] } },
{ "type": "Feature", "properties": { "id_feicao": "fogo_2018_37", "ano": 2018.0, "mes": 7, "codigo_original": 41, "classe": "Outras Lavouras Temporárias", "cor": "#f54ca9", "area_ha": 0.2502978205174014 }, "geometry": { "type": "Polygon", "coordinates": [ [ [ -45.015836528626998, -21.189281258754455 ], [ -45.015836528626998, -21.189550753339685 ], [ -45.01664501238271, -21.189550753339677 ], [ -45.01664501238271, -21.189281258754448 ], [ -45.015836528626998, -21.189281258754455 ] ] ] } },
{ "type": "Feature", "properties": { "id_feicao": "fogo_2018_38", "ano": 2018.0, "mes": 7, "codigo_original": 41, "classe": "Outras Lavouras Temporárias", "cor": "#f54ca9", "area_ha": 0.16686580821434036 }, "geometry": { "type": "Polygon", "coordinates": [ [ [ -45.01664501238271, -21.188742269583983 ], [ -45.016106023212238, -21.188742269583972 ], [ -45.016106023212238, -21.189011764169219 ], [ -45.01664501238271, -21.189011764169219 ], [ -45.01664501238271, -21.188742269583983 ] ] ] } },
{ "type": "Feature", "properties": { "id_feicao": "fogo_2018_39", "ano": 2018.0, "mes": 7, "codigo_original": 41, "classe": "Outras Lavouras Temporárias", "cor": "#f54ca9", "area_ha": 0.50067003528969922 }, "geometry": { "type": "Polygon", "coordinates": [ [ [ -45.014489055700821, -21.167182702765114 ], [ -45.014489055700821, -21.166913208179878 ], [ -45.014219561115588, -21.166913208179871 ], [ -45.014219561115588, -21.166643713594638 ], [ -45.013411077359876, -21.166643713594642 ], [ -45.013411077359876, -21.166913208179867 ], [ -45.013680571945116, -21.166913208179871 ], [ -45.013680571945116, -21.167182702765107 ], [ -45.014489055700821, -21.167182702765114 ] ] ] } },
{ "type": "Feature", "properties": { "id_feicao": "fogo_2018_40", "ano": 2018.0, "mes": 7, "codigo_original": 41, "classe": "Outras Lavouras Temporárias", "cor": "#f54ca9", "area_ha": 0.75101436346903572 }, "geometry": { "type": "Polygon", "coordinates": [ [ [ -45.014489055700821, -21.165565735253686 ], [ -45.014489055700821, -21.165296240668464 ], [ -45.013680571945116, -21.165296240668461 ], [ -45.013680571945116, -21.164487756912745 ], [ -45.013141582774644, -21.164487756912749 ], [ -45.013141582774644, -21.165026746083225 ], [ -45.013411077359876, -21.165026746083225 ], [ -45.013411077359876, -21.165565735253693 ], [ -45.014489055700821, -21.165565735253686 ] ] ] } },
{ "type": "Feature", "properties": { "id_feicao": "fogo_2018_41", "ano": 2018.0, "mes": 7, "codigo_original": 41, "classe": "Outras Lavouras Temporárias", "cor": "#f54ca9", "area_ha": 0.083387945887632667 }, "geometry": { "type": "Polygon", "coordinates": [ [ [ -44.989156564688649, -21.270129634325212 ], [ -44.988887070103416, -21.270129634325205 ], [ -44.988887070103416, -21.270399128910451 ], [ -44.989156564688649, -21.270399128910444 ], [ -44.989156564688649, -21.270129634325212 ] ] ] } },
{ "type": "Feature", "properties": { "id_feicao": "fogo_2018_42", "ano": 2018.0, "mes": 7, "codigo_original": 41, "classe": "Outras Lavouras Temporárias", "cor": "#f54ca9", "area_ha": 3.5868876368496503 }, "geometry": { "type": "Polygon", "coordinates": [ [ [ -44.990773532200066, -21.220003641471333 ], [ -44.990773532200066, -21.220273136056569 ], [ -44.991851510541011, -21.220273136056566 ], [ -44.991851510541011, -21.219464652300861 ], [ -44.991582015955771, -21.219464652300871 ], [ -44.991582015955771, -21.219195157715628 ], [ -44.989965048444361, -21.219195157715632 ], [ -44.989965048444361, -21.218656168545152 ], [ -44.988887070103416, -21.218656168545152 ], [ -44.988887070103416, -21.2197341468861 ], [ -44.989156564688649, -21.2197341468861 ], [ -44.989156564688649, -21.22000364147134 ], [ -44.990773532200066, -21.220003641471333 ] ] ] } },
{ "type": "Feature", "properties": { "id_feicao": "fogo_2018_43", "ano": 2018.0, "mes": 7, "codigo_original": 41, "classe": "Outras Lavouras Temporárias", "cor": "#f54ca9", "area_ha": 0.083416245784724646 }, "geometry": { "type": "Polygon", "coordinates": [ [ [ -45.003439777706149, -21.218925663130399 ], [ -45.003439777706149, -21.219195157715632 ], [ -45.003709272291395, -21.219195157715625 ], [ -45.003709272291395, -21.218925663130392 ], [ -45.003439777706149, -21.218925663130399 ] ] ] } },
{ "type": "Feature", "properties": { "id_feicao": "fogo_2018_44", "ano": 2018.0, "mes": 7, "codigo_original": 41, "classe": "Outras Lavouras Temporárias", "cor": "#f54ca9", "area_ha": 0.41708337836936116 }, "geometry": { "type": "Polygon", "coordinates": [ [ [ -45.003709272291395, -21.21811717937468 ], [ -45.003439777706149, -21.218117179374691 ], [ -45.003439777706149, -21.217847684789454 ], [ -45.003170283120923, -21.217847684789458 ], [ -45.003170283120923, -21.218656168545163 ], [ -45.003709272291395, -21.218656168545163 ], [ -45.003709272291395, -21.21811717937468 ] ] ] } },
{ "type": "Feature", "properties": { "id_feicao": "fogo_2018_45", "ano": 2018.0, "mes": 7, "codigo_original": 41, "classe": "Outras Lavouras Temporárias", "cor": "#f54ca9", "area_ha": 0.083416989696008859 }, "geometry": { "type": "Polygon", "coordinates": [ [ [ -45.003439777706149, -21.217578190204215 ], [ -45.003439777706149, -21.217847684789454 ], [ -45.003709272291395, -21.217847684789444 ], [ -45.003709272291395, -21.217578190204208 ], [ -45.003439777706149, -21.217578190204215 ] ] ] } },
{ "type": "Feature", "properties": { "id_feicao": "fogo_2018_46", "ano": 2018.0, "mes": 7, "codigo_original": 41, "classe": "Outras Lavouras Temporárias", "cor": "#f54ca9", "area_ha": 0.083445673404528145 }, "geometry": { "type": "Polygon", "coordinates": [ [ [ -45.013141582774644, -21.165565735253686 ], [ -45.013141582774644, -21.165835229838923 ], [ -45.013411077359876, -21.16583522983893 ], [ -45.013411077359876, -21.165565735253693 ], [ -45.013141582774644, -21.165565735253686 ] ] ] } },
{ "type": "Feature", "properties": { "id_feicao": "fogo_2018_47", "ano": 2018.0, "mes": 8, "codigo_original": 3, "classe": "Formação Florestal", "cor": "#1f8d49", "area_ha": 0.25024987898506224 }, "geometry": { "type": "Polygon", "coordinates": [ [ [ -44.982958189228228, -21.218656168545152 ], [ -44.98322768381346, -21.218656168545163 ], [ -44.98322768381346, -21.218386673959923 ], [ -44.9834971783987, -21.218386673959923 ], [ -44.9834971783987, -21.21811717937468 ], [ -44.982958189228228, -21.21811717937468 ], [ -44.982958189228228, -21.218656168545152 ] ] ] } },
{ "type": "Feature", "properties": { "id_feicao": "fogo_2018_48", "ano": 2018.0, "mes": 8, "codigo_original": 3, "classe": "Formação Florestal", "cor": "#1f8d49", "area_ha": 0.33366827821889894 }, "geometry": { "type": "Polygon", "coordinates": [ [ [ -44.983766672983933, -21.217578190204218 ], [ -44.9834971783987, -21.217578190204225 ], [ -44.9834971783987, -21.217847684789461 ], [ -44.984036167569172, -21.217847684789451 ], [ -44.984036167569172, -21.217578190204215 ], [ -44.984305662154405, -21.217578190204218 ], [ -44.984305662154405, -21.217308695618978 ], [ -44.983766672983933, -21.217308695618975 ], [ -44.983766672983933, -21.217578190204218 ] ] ] } },
{ "type": "Feature", "properties": { "id_feicao": "fogo_2018_49", "ano": 2018.0, "mes": 8, "codigo_original": 12, "classe": "Formação Campestre", "cor": "#d6bc74", "area_ha": 0.083369269076038921 }, "geometry": { "type": "Polygon", "coordinates": [ [ [ -45.112315590141435, -21.304355446650163 ], [ -45.112315590141435, -21.304624941235396 ], [ -45.112585084726675, -21.304624941235396 ], [ -45.112585084726675, -21.30435544665016 ], [ -45.112315590141435, -21.304355446650163 ] ] ] } },
{ "type": "Feature", "properties": { "id_feicao": "fogo_2018_50", "ano": 2018.0, "mes": 8, "codigo_original": 15, "classe": "Pastagem", "cor": "#edde8e", "area_ha": 0.083374388303235167 }, "geometry": { "type": "Polygon", "coordinates": [ [ [ -45.03281468749686, -21.294653641581675 ], [ -45.032545192911627, -21.294653641581665 ], [ -45.032545192911627, -21.294923136166904 ], [ -45.03281468749686, -21.294923136166904 ], [ -45.03281468749686, -21.294653641581675 ] ] ] } },
{ "type": "Feature", "properties": { "id_feicao": "fogo_2018_51", "ano": 2018.0, "mes": 8, "codigo_original": 15, "classe": "Pastagem", "cor": "#edde8e", "area_ha": 1.7508711423035712 }, "geometry": { "type": "Polygon", "coordinates": [ [ [ -45.032275698326387, -21.294384146996439 ], [ -45.031467214570682, -21.294384146996439 ], [ -45.031467214570682, -21.294923136166908 ], [ -45.031736709155915, -21.294923136166904 ], [ -45.031736709155915, -21.294653641581672 ], [ -45.032545192911627, -21.294653641581665 ], [ -45.032545192911627, -21.294384146996432 ], [ -45.03281468749686, -21.294384146996432 ], [ -45.03281468749686, -21.29357566324073 ], [ -45.032545192911627, -21.293575663240727 ], [ -45.032545192911627, -21.293306168655484 ], [ -45.031467214570682, -21.293306168655487 ], [ -45.031467214570682, -21.294114652411203 ], [ -45.032275698326387, -21.294114652411199 ], [ -45.032275698326387, -21.294384146996439 ] ] ] } },
{ "type": "Feature", "properties": { "id_feicao": "fogo_2018_52", "ano": 2018.0, "mes": 8, "codigo_original": 15, "classe": "Pastagem", "cor": "#edde8e", "area_ha": 0.083418060610443351 }, "geometry": { "type": "Polygon", "coordinates": [ [ [ -45.14654140246639, -21.216500211863277 ], [ -45.146271907881157, -21.216500211863277 ], [ -45.146271907881157, -21.216769706448499 ], [ -45.14654140246639, -21.21676970644851 ], [ -45.14654140246639, -21.216500211863277 ] ] ] } },
{ "type": "Feature", "properties": { "id_feicao": "fogo_2018_53", "ano": 2018.0, "mes": 8, "codigo_original": 15, "classe": "Pastagem", "cor": "#edde8e", "area_ha": 0.41708968108100819 }, "geometry": { "type": "Polygon", "coordinates": [ [ [ -44.98538364049535, -21.215961222692801 ], [ -44.985653135080582, -21.215961222692798 ], [ -44.985653135080582, -21.215691728107561 ], [ -44.984844651324877, -21.215691728107554 ], [ -44.984844651324877, -21.216230717278034 ], [ -44.98538364049535, -21.216230717278037 ], [ -44.98538364049535, -21.215961222692801 ] ] ] } },
{ "type": "Feature", "properties": { "id_feicao": "fogo_2018_54", "ano": 2018.0, "mes": 8, "codigo_original": 15, "classe": "Pastagem", "cor": "#edde8e", "area_ha": 0.083418481925781815 }, "geometry": { "type": "Polygon", "coordinates": [ [ [ -44.98538364049535, -21.21488324435186 ], [ -44.98511414591011, -21.214883244351853 ], [ -44.98511414591011, -21.215152738937093 ], [ -44.98538364049535, -21.215152738937093 ], [ -44.98538364049535, -21.21488324435186 ] ] ] } },
{ "type": "Feature", "properties": { "id_feicao": "fogo_2018_55", "ano": 2018.0, "mes": 8, "codigo_original": 15, "classe": "Pastagem", "cor": "#edde8e", "area_ha": 0.083418779259640724 }, "geometry": { "type": "Polygon", "coordinates": [ [ [ -44.985653135080582, -21.214344255181388 ], [ -44.98538364049535, -21.214344255181381 ], [ -44.98538364049535, -21.214613749766613 ], [ -44.985653135080582, -21.214613749766613 ], [ -44.985653135080582, -21.214344255181388 ] ] ] } },
{ "type": "Feature", "properties": { "id_feicao": "fogo_2018_56", "ano": 2018.0, "mes": 8, "codigo_original": 15, "classe": "Pastagem", "cor": "#edde8e", "area_ha": 0.75082115566525609 }, "geometry": { "type": "Polygon", "coordinates": [ [ [ -45.012872088189404, -21.203833966357188 ], [ -45.012063604433699, -21.203833966357184 ], [ -45.012063604433699, -21.203564471771948 ], [ -45.011794109848466, -21.203564471771951 ], [ -45.011794109848466, -21.20437295552766 ], [ -45.012872088189404, -21.204372955527663 ], [ -45.012872088189404, -21.203833966357188 ] ] ] } },
{ "type": "Feature", "properties": { "id_feicao": "fogo_2018_57", "ano": 2018.0, "mes": 8, "codigo_original": 15, "classe": "Pastagem", "cor": "#edde8e", "area_ha": 3.921260703200673 }, "geometry": { "type": "Polygon", "coordinates": [ [ [ -45.147349886222102, -21.192784688362512 ], [ -45.147349886222102, -21.193593172118216 ], [ -45.147619380807335, -21.193593172118213 ], [ -45.147619380807335, -21.19386266670346 ], [ -45.148158369977807, -21.19386266670346 ], [ -45.148158369977807, -21.194132161288689 ], [ -45.149236348318752, -21.194132161288692 ], [ -45.149236348318752, -21.191976204606817 ], [ -45.148158369977807, -21.191976204606803 ], [ -45.148158369977807, -21.192245699192039 ], [ -45.147619380807335, -21.192245699192043 ], [ -45.147619380807335, -21.192784688362515 ], [ -45.147349886222102, -21.192784688362512 ] ] ] } },
{ "type": "Feature", "properties": { "id_feicao": "fogo_2018_58", "ano": 2018.0, "mes": 8, "codigo_original": 15, "classe": "Pastagem", "cor": "#edde8e", "area_ha": 0.41716122707825071 }, "geometry": { "type": "Polygon", "coordinates": [ [ [ -45.140343027005969, -21.190898226265869 ], [ -45.140343027005969, -21.190628731680622 ], [ -45.139804037835496, -21.190628731680629 ], [ -45.139804037835496, -21.191167720851094 ], [ -45.140612521591201, -21.191167720851109 ], [ -45.140612521591201, -21.190898226265862 ], [ -45.140343027005969, -21.190898226265869 ] ] ] } },
{ "type": "Feature", "properties": { "id_feicao": "fogo_2018_59", "ano": 2018.0, "mes": 8, "codigo_original": 41, "classe": "Outras Lavouras Temporárias", "cor": "#f54ca9", "area_ha": 0.16673075260072948 }, "geometry": { "type": "Polygon", "coordinates": [ [ [ -45.110429128044785, -21.311631800451533 ], [ -45.110968117215258, -21.311631800451533 ], [ -45.110968117215258, -21.31136230586629 ], [ -45.110429128044785, -21.311362305866293 ], [ -45.110429128044785, -21.311631800451533 ] ] ] } },
{ "type": "Feature", "properties": { "id_feicao": "fogo_2018_60", "ano": 2018.0, "mes": 8, "codigo_original": 41, "classe": "Outras Lavouras Temporárias", "cor": "#f54ca9", "area_ha": 0.083365523729834787 }, "geometry": { "type": "Polygon", "coordinates": [ [ [ -45.110429128044785, -21.311362305866293 ], [ -45.110429128044785, -21.31109281128105 ], [ -45.110159633459553, -21.311092811281057 ], [ -45.110159633459553, -21.311362305866293 ], [ -45.110429128044785, -21.311362305866293 ] ] ] } },
{ "type": "Feature", "properties": { "id_feicao": "fogo_2018_61", "ano": 2018.0, "mes": 8, "codigo_original": 41, "classe": "Outras Lavouras Temporárias", "cor": "#f54ca9", "area_ha": 0.083400200342458805 }, "geometry": { "type": "Polygon", "coordinates": [ [ [ -45.091025517907802, -21.248570067506343 ], [ -45.091025517907802, -21.248300572921103 ], [ -45.090756023322569, -21.248300572921107 ], [ -45.090756023322569, -21.248570067506336 ], [ -45.091025517907802, -21.248570067506343 ] ] ] } },
{ "type": "Feature", "properties": { "id_feicao": "fogo_2018_62", "ano": 2018.0, "mes": 9, "codigo_original": 3, "classe": "Formação Florestal", "cor": "#1f8d49", "area_ha": 0.083416846579218162 }, "geometry": { "type": "Polygon", "coordinates": [ [ [ -44.983766672983933, -21.218117179374687 ], [ -44.983766672983933, -21.217847684789454 ], [ -44.9834971783987, -21.217847684789461 ], [ -44.9834971783987, -21.21811717937468 ], [ -44.983766672983933, -21.218117179374687 ] ] ] } },
{ "type": "Feature", "properties": { "id_feicao": "fogo_2018_63", "ano": 2018.0, "mes": 9, "codigo_original": 3, "classe": "Formação Florestal", "cor": "#1f8d49", "area_ha": 0.16683399131794191 }, "geometry": { "type": "Polygon", "coordinates": [ [ [ -44.9834971783987, -21.217847684789461 ], [ -44.9834971783987, -21.217578190204225 ], [ -44.982958189228228, -21.217578190204208 ], [ -44.982958189228228, -21.217847684789451 ], [ -44.9834971783987, -21.217847684789461 ] ] ] } },
{ "type": "Feature", "properties": { "id_feicao": "fogo_2018_64", "ano": 2018.0, "mes": 9, "codigo_original": 3, "classe": "Formação Florestal", "cor": "#1f8d49", "area_ha": 0.083417591686419407 }, "geometry": { "type": "Polygon", "coordinates": [ [ [ -44.982149705472516, -21.216769706448506 ], [ -44.982149705472516, -21.216500211863274 ], [ -44.981880210887283, -21.216500211863266 ], [ -44.981880210887283, -21.21676970644851 ], [ -44.982149705472516, -21.216769706448506 ] ] ] } },
{ "type": "Feature", "properties": { "id_feicao": "fogo_2018_65", "ano": 2018.0, "mes": 9, "codigo_original": 3, "classe": "Formação Florestal", "cor": "#1f8d49", "area_ha": 0.083417740672146773 }, "geometry": { "type": "Polygon", "coordinates": [ [ [ -44.981880210887283, -21.216500211863266 ], [ -44.981880210887283, -21.21623071727803 ], [ -44.98161071630205, -21.216230717278041 ], [ -44.98161071630205, -21.216500211863274 ], [ -44.981880210887283, -21.216500211863266 ] ] ] } },
{ "type": "Feature", "properties": { "id_feicao": "fogo_2018_66", "ano": 2018.0, "mes": 9, "codigo_original": 12, "classe": "Formação Campestre", "cor": "#d6bc74", "area_ha": 3.0007259214168416 }, "geometry": { "type": "Polygon", "coordinates": [ [ [ -44.967866492455016, -21.332113388929443 ], [ -44.967596997869784, -21.332113388929461 ], [ -44.967596997869784, -21.333191367270402 ], [ -44.969213965381201, -21.333191367270395 ], [ -44.969213965381201, -21.332652378099919 ], [ -44.969752954551666, -21.332652378099926 ], [ -44.969752954551666, -21.331843894344221 ], [ -44.968135987040256, -21.331843894344214 ], [ -44.968135987040256, -21.331574399758974 ], [ -44.967866492455016, -21.331574399758974 ], [ -44.967866492455016, -21.332113388929443 ] ] ] } },
{ "type": "Feature", "properties": { "id_feicao": "fogo_2018_67", "ano": 2018.0, "mes": 9, "codigo_original": 12, "classe": "Formação Campestre", "cor": "#d6bc74", "area_ha": 1.0004335713285033 }, "geometry": { "type": "Polygon", "coordinates": [ [ [ -45.112585084726675, -21.30435544665016 ], [ -45.112585084726675, -21.304894435820636 ], [ -45.112854579311907, -21.304894435820632 ], [ -45.112854579311907, -21.304355446650153 ], [ -45.113124073897147, -21.304355446650153 ], [ -45.113124073897147, -21.304085952064916 ], [ -45.11339356848238, -21.30408595206492 ], [ -45.11339356848238, -21.303546962894455 ], [ -45.112315590141435, -21.303546962894455 ], [ -45.112315590141435, -21.304355446650163 ], [ -45.112585084726675, -21.30435544665016 ] ], [ [ -45.112585084726675, -21.303816457479687 ], [ -45.112854579311907, -21.303816457479684 ], [ -45.112854579311907, -21.304085952064927 ], [ -45.112585084726675, -21.304085952064913 ], [ -45.112585084726675, -21.303816457479687 ] ] ] } },
{ "type": "Feature", "properties": { "id_feicao": "fogo_2018_68", "ano": 2018.0, "mes": 9, "codigo_original": 15, "classe": "Pastagem", "cor": "#edde8e", "area_ha": 0.083365525053133299 }, "geometry": { "type": "Polygon", "coordinates": [ [ [ -45.110429128044785, -21.31109281128105 ], [ -45.110429128044785, -21.311362305866293 ], [ -45.110698622630025, -21.311362305866286 ], [ -45.110698622630025, -21.31109281128105 ], [ -45.110429128044785, -21.31109281128105 ] ] ] } },
{ "type": "Feature", "properties": { "id_feicao": "fogo_2018_69", "ano": 2018.0, "mes": 9, "codigo_original": 15, "classe": "Pastagem", "cor": "#edde8e", "area_ha": 0.25012316259351658 }, "geometry": { "type": "Polygon", "coordinates": [ [ [ -45.031736709155915, -21.294653641581672 ], [ -45.031736709155915, -21.294923136166904 ], [ -45.032545192911627, -21.294923136166904 ], [ -45.032545192911627, -21.294653641581665 ], [ -45.031736709155915, -21.294653641581672 ] ] ] } },
{ "type": "Feature", "properties": { "id_feicao": "fogo_2018_70", "ano": 2018.0, "mes": 9, "codigo_original": 15, "classe": "Pastagem", "cor": "#edde8e", "area_ha": 0.083374537602185772 }, "geometry": { "type": "Polygon", "coordinates": [ [ [ -45.032545192911627, -21.294384146996432 ], [ -45.032545192911627, -21.294653641581665 ], [ -45.03281468749686, -21.294653641581675 ], [ -45.03281468749686, -21.294384146996432 ], [ -45.032545192911627, -21.294384146996432 ] ] ] } },
{ "type": "Feature", "properties": { "id_feicao": "fogo_2018_71", "ano": 2018.0, "mes": 9, "codigo_original": 15, "classe": "Pastagem", "cor": "#edde8e", "area_ha": 0.25012405722777148 }, "geometry": { "type": "Polygon", "coordinates": [ [ [ -45.031467214570682, -21.294114652411203 ], [ -45.031467214570682, -21.294384146996439 ], [ -45.032275698326387, -21.294384146996439 ], [ -45.032275698326387, -21.294114652411199 ], [ -45.031467214570682, -21.294114652411203 ] ] ] } },
{ "type": "Feature", "properties": { "id_feicao": "fogo_2018_72", "ano": 2018.0, "mes": 9, "codigo_original": 15, "classe": "Pastagem", "cor": "#edde8e", "area_ha": 0.083418072956330622 }, "geometry": { "type": "Polygon", "coordinates": [ [ [ -45.148158369977807, -21.21650021186327 ], [ -45.148158369977807, -21.216769706448506 ], [ -45.14842786456304, -21.216769706448495 ], [ -45.14842786456304, -21.216500211863274 ], [ -45.148158369977807, -21.21650021186327 ] ] ] } },
{ "type": "Feature", "properties": { "id_feicao": "fogo_2018_73", "ano": 2018.0, "mes": 9, "codigo_original": 15, "classe": "Pastagem", "cor": "#edde8e", "area_ha": 0.16686112155375357 }, "geometry": { "type": "Polygon", "coordinates": [ [ [ -45.147619380807335, -21.19386266670346 ], [ -45.147619380807335, -21.194132161288699 ], [ -45.148158369977807, -21.194132161288689 ], [ -45.148158369977807, -21.19386266670346 ], [ -45.147619380807335, -21.19386266670346 ] ] ] } },
{ "type": "Feature", "properties": { "id_feicao": "fogo_2018_74", "ano": 2018.0, "mes": 9, "codigo_original": 15, "classe": "Pastagem", "cor": "#edde8e", "area_ha": 0.16686275099890455 }, "geometry": { "type": "Polygon", "coordinates": [ [ [ -45.147349886222102, -21.192245699192043 ], [ -45.147349886222102, -21.192784688362512 ], [ -45.147619380807335, -21.192784688362515 ], [ -45.147619380807335, -21.192245699192043 ], [ -45.147349886222102, -21.192245699192043 ] ] ] } },
{ "type": "Feature", "properties": { "id_feicao": "fogo_2018_75", "ano": 2018.0, "mes": 9, "codigo_original": 15, "classe": "Pastagem", "cor": "#edde8e", "area_ha": 1.501774264614284 }, "geometry": { "type": "Polygon", "coordinates": [ [ [ -45.148697359148279, -21.190898226265865 ], [ -45.147619380807335, -21.190898226265862 ], [ -45.147619380807335, -21.192245699192043 ], [ -45.148158369977807, -21.192245699192039 ], [ -45.148158369977807, -21.191976204606803 ], [ -45.148697359148279, -21.191976204606814 ], [ -45.148697359148279, -21.190898226265865 ] ] ] } },
{ "type": "Feature", "properties": { "id_feicao": "fogo_2018_76", "ano": 2018.0, "mes": 9, "codigo_original": 15, "classe": "Pastagem", "cor": "#edde8e", "area_ha": 1.2514851890162564 }, "geometry": { "type": "Polygon", "coordinates": [ [ [ -45.140612521591201, -21.191167720851109 ], [ -45.141151510761674, -21.191167720851098 ], [ -45.141151510761674, -21.190089742510157 ], [ -45.139804037835496, -21.190089742510153 ], [ -45.139804037835496, -21.190628731680629 ], [ -45.140343027005969, -21.190628731680622 ], [ -45.140343027005969, -21.190898226265869 ], [ -45.140612521591201, -21.190898226265862 ], [ -45.140612521591201, -21.191167720851109 ] ] ] } },
{ "type": "Feature", "properties": { "id_feicao": "fogo_2018_77", "ano": 2018.0, "mes": 9, "codigo_original": 15, "classe": "Pastagem", "cor": "#edde8e", "area_ha": 3.7516413659083008 }, "geometry": { "type": "Polygon", "coordinates": [ [ [ -44.9481933877328, -21.303546962894451 ], [ -44.9481933877328, -21.302199489968274 ], [ -44.946037431050911, -21.302199489968274 ], [ -44.946037431050911, -21.303816457479691 ], [ -44.947384903977095, -21.303816457479687 ], [ -44.947384903977095, -21.303546962894455 ], [ -44.9481933877328, -21.303546962894451 ] ] ] } },
{ "type": "Feature", "properties": { "id_feicao": "fogo_2018_78", "ano": 2018.0, "mes": 9, "codigo_original": 15, "classe": "Pastagem", "cor": "#edde8e", "area_ha": 1.6676404898243895 }, "geometry": { "type": "Polygon", "coordinates": [ [ [ -44.986731113421527, -21.281178912319877 ], [ -44.986731113421527, -21.281448406905117 ], [ -44.986461618836294, -21.281448406905117 ], [ -44.986461618836294, -21.281178912319881 ], [ -44.986192124251055, -21.28117891231987 ], [ -44.986192124251055, -21.280370428564169 ], [ -44.98538364049535, -21.280370428564162 ], [ -44.98538364049535, -21.281717901490346 ], [ -44.987000608006767, -21.281717901490346 ], [ -44.987000608006767, -21.281178912319866 ], [ -44.986731113421527, -21.281178912319877 ] ] ] } },
{ "type": "Feature", "properties": { "id_feicao": "fogo_2018_79", "ano": 2018.0, "mes": 9, "codigo_original": 15, "classe": "Pastagem", "cor": "#edde8e", "area_ha": 8.8407368101594876 }, "geometry": { "type": "Polygon", "coordinates": [ [ [ -44.931754218033412, -21.244527648727797 ], [ -44.931754218033412, -21.245336132483502 ], [ -44.932023712618651, -21.245336132483512 ], [ -44.932023712618651, -21.245605627068741 ], [ -44.933371185544829, -21.245605627068734 ], [ -44.933371185544829, -21.244527648727789 ], [ -44.933101690959596, -21.244527648727797 ], [ -44.933101690959596, -21.243449670386862 ], [ -44.932562701789124, -21.243449670386866 ], [ -44.932562701789124, -21.241832702875438 ], [ -44.932832196374356, -21.241832702875431 ], [ -44.932832196374356, -21.241563208290206 ], [ -44.933101690959596, -21.241563208290202 ], [ -44.933101690959596, -21.241024219119737 ], [ -44.933371185544829, -21.24102421911973 ], [ -44.933371185544829, -21.240754724534487 ], [ -44.933640680130061, -21.240754724534494 ], [ -44.933640680130061, -21.240215735364018 ], [ -44.933371185544829, -21.240215735364028 ], [ -44.933371185544829, -21.239946240778796 ], [ -44.932293207203884, -21.239946240778789 ], [ -44.932293207203884, -21.241024219119726 ], [ -44.931484723448179, -21.241024219119733 ], [ -44.931484723448179, -21.244527648727797 ], [ -44.931754218033412, -21.244527648727797 ] ] ] } },
{ "type": "Feature", "properties": { "id_feicao": "fogo_2018_80", "ano": 2018.0, "mes": 9, "codigo_original": 15, "classe": "Pastagem", "cor": "#edde8e", "area_ha": 1.3345377968114698 }, "geometry": { "type": "Polygon", "coordinates": [ [ [ -44.961668116994595, -21.232400392392183 ], [ -44.961668116994595, -21.233478370733131 ], [ -44.96274609533554, -21.233478370733128 ], [ -44.96274609533554, -21.232400392392186 ], [ -44.961668116994595, -21.232400392392183 ] ] ] } },
{ "type": "Feature", "properties": { "id_feicao": "fogo_2018_81", "ano": 2018.0, "mes": 9, "codigo_original": 15, "classe": "Pastagem", "cor": "#edde8e", "area_ha": 31.031293490168359 }, "geometry": { "type": "Polygon", "coordinates": [ [ [ -44.983766672983933, -21.214074760596144 ], [ -44.98322768381346, -21.214074760596148 ], [ -44.98322768381346, -21.214344255181381 ], [ -44.982419200057755, -21.214344255181381 ], [ -44.982419200057755, -21.21461374976662 ], [ -44.981341221716811, -21.214613749766617 ], [ -44.981341221716811, -21.215961222692794 ], [ -44.98161071630205, -21.215961222692801 ], [ -44.98161071630205, -21.216230717278041 ], [ -44.981880210887283, -21.21623071727803 ], [ -44.981880210887283, -21.216500211863266 ], [ -44.982149705472516, -21.216500211863274 ], [ -44.982149705472516, -21.216769706448506 ], [ -44.982419200057755, -21.216769706448503 ], [ -44.982419200057755, -21.217039201033746 ], [ -44.982688694642988, -21.217039201033746 ], [ -44.982688694642988, -21.217308695618975 ], [ -44.982958189228228, -21.217308695618975 ], [ -44.982958189228228, -21.217578190204208 ], [ -44.983766672983933, -21.217578190204218 ], [ -44.983766672983933, -21.217308695618975 ], [ -44.984305662154405, -21.217308695618978 ], [ -44.984305662154405, -21.217578190204218 ], [ -44.984036167569172, -21.217578190204215 ], [ -44.984036167569172, -21.217847684789451 ], [ -44.983766672983933, -21.217847684789454 ], [ -44.983766672983933, -21.218117179374687 ], [ -44.9834971783987, -21.21811717937468 ], [ -44.9834971783987, -21.218386673959923 ], [ -44.98322768381346, -21.218386673959923 ], [ -44.98322768381346, -21.218656168545163 ], [ -44.982958189228228, -21.218656168545152 ], [ -44.982958189228228, -21.220542630641805 ], [ -44.98322768381346, -21.220542630641805 ], [ -44.98322768381346, -21.221081619812281 ], [ -44.9834971783987, -21.221081619812278 ], [ -44.9834971783987, -21.221351114397514 ], [ -44.984305662154405, -21.221351114397514 ], [ -44.984305662154405, -21.22189010356799 ], [ -44.984844651324877, -21.22189010356799 ], [ -44.984844651324877, -21.222159598153226 ], [ -44.985922629665822, -21.222159598153226 ], [ -44.985922629665822, -21.220812125227042 ], [ -44.985653135080582, -21.220812125227049 ], [ -44.985653135080582, -21.220273136056576 ], [ -44.98538364049535, -21.220273136056573 ], [ -44.98538364049535, -21.218656168545159 ], [ -44.984844651324877, -21.218656168545152 ], [ -44.984844651324877, -21.215691728107554 ], [ -44.985653135080582, -21.215691728107561 ], [ -44.985653135080582, -21.215961222692798 ], [ -44.98538364049535, -21.215961222692801 ], [ -44.98538364049535, -21.216230717278037 ], [ -44.987539597177239, -21.21623071727803 ], [ -44.987539597177239, -21.215961222692798 ], [ -44.988078586347704, -21.215961222692801 ], [ -44.988078586347704, -21.215422233522329 ], [ -44.987809091762472, -21.215422233522336 ], [ -44.987809091762472, -21.214074760596144 ], [ -44.987539597177239, -21.214074760596141 ], [ -44.987539597177239, -21.213535771425676 ], [ -44.987270102591999, -21.213535771425676 ], [ -44.987270102591999, -21.212996782255203 ], [ -44.986192124251055, -21.212996782255207 ], [ -44.986192124251055, -21.213266276840439 ], [ -44.985922629665822, -21.213266276840439 ], [ -44.985922629665822, -21.213805266010901 ], [ -44.983766672983933, -21.213805266010915 ], [ -44.983766672983933, -21.214074760596144 ] ], [ [ -44.98538364049535, -21.215152738937093 ], [ -44.98511414591011, -21.215152738937093 ], [ -44.98511414591011, -21.214883244351853 ], [ -44.98538364049535, -21.21488324435186 ], [ -44.98538364049535, -21.215152738937093 ] ], [ [ -44.985653135080582, -21.214613749766613 ], [ -44.98538364049535, -21.214613749766613 ], [ -44.98538364049535, -21.214344255181381 ], [ -44.985653135080582, -21.214344255181388 ], [ -44.985653135080582, -21.214613749766613 ] ] ] } },
{ "type": "Feature", "properties": { "id_feicao": "fogo_2018_82", "ano": 2018.0, "mes": 9, "codigo_original": 15, "classe": "Pastagem", "cor": "#edde8e", "area_ha": 1.0845164618639409 }, "geometry": { "type": "Polygon", "coordinates": [ [ [ -45.011794109848466, -21.20437295552766 ], [ -45.011794109848466, -21.203564471771951 ], [ -45.011524615263227, -21.203564471771948 ], [ -45.011524615263227, -21.204911944698125 ], [ -45.012872088189404, -21.204911944698125 ], [ -45.012872088189404, -21.204372955527663 ], [ -45.011794109848466, -21.20437295552766 ] ] ] } },
{ "type": "Feature", "properties": { "id_feicao": "fogo_2018_83", "ano": 2018.0, "mes": 9, "codigo_original": 15, "classe": "Pastagem", "cor": "#edde8e", "area_ha": 0.16684945348609953 }, "geometry": { "type": "Polygon", "coordinates": [ [ [ -45.012063604433699, -21.203564471771948 ], [ -45.012063604433699, -21.203833966357184 ], [ -45.012602593604171, -21.203833966357188 ], [ -45.012602593604171, -21.203564471771955 ], [ -45.012063604433699, -21.203564471771948 ] ] ] } },
{ "type": "Feature", "properties": { "id_feicao": "fogo_2018_84", "ano": 2018.0, "mes": 9, "codigo_original": 15, "classe": "Pastagem", "cor": "#edde8e", "area_ha": 0.1668510961227119 }, "geometry": { "type": "Polygon", "coordinates": [ [ [ -44.982149705472516, -21.202486493431007 ], [ -44.982419200057755, -21.202486493431007 ], [ -44.982419200057755, -21.201947504260531 ], [ -44.982149705472516, -21.201947504260541 ], [ -44.982149705472516, -21.202486493431007 ] ] ] } },
{ "type": "Feature", "properties": { "id_feicao": "fogo_2018_85", "ano": 2018.0, "mes": 9, "codigo_original": 15, "classe": "Pastagem", "cor": "#edde8e", "area_ha": 0.16685183843141421 }, "geometry": { "type": "Polygon", "coordinates": [ [ [ -44.982688694642988, -21.201678009675295 ], [ -44.98322768381346, -21.201678009675298 ], [ -44.98322768381346, -21.201408515090062 ], [ -44.982688694642988, -21.201408515090062 ], [ -44.982688694642988, -21.201678009675295 ] ] ] } },
{ "type": "Feature", "properties": { "id_feicao": "fogo_2018_86", "ano": 2018.0, "mes": 9, "codigo_original": 21, "classe": "Mosaico de Usos", "cor": "#ffefc3", "area_ha": 0.083367772652767597 }, "geometry": { "type": "Polygon", "coordinates": [ [ [ -45.111776600970963, -21.307319887087758 ], [ -45.112046095556202, -21.30731988708775 ], [ -45.112046095556202, -21.307050392502518 ], [ -45.111776600970963, -21.307050392502514 ], [ -45.111776600970963, -21.307319887087758 ] ] ] } },
{ "type": "Feature", "properties": { "id_feicao": "fogo_2018_87", "ano": 2018.0, "mes": 9, "codigo_original": 21, "classe": "Mosaico de Usos", "cor": "#ffefc3", "area_ha": 0.083368222132972999 }, "geometry": { "type": "Polygon", "coordinates": [ [ [ -45.112315590141435, -21.306511403332049 ], [ -45.112315590141435, -21.306241908746813 ], [ -45.112046095556202, -21.306241908746809 ], [ -45.112046095556202, -21.306511403332046 ], [ -45.112315590141435, -21.306511403332049 ] ] ] } },
{ "type": "Feature", "properties": { "id_feicao": "fogo_2018_88", "ano": 2018.0, "mes": 9, "codigo_original": 21, "classe": "Mosaico de Usos", "cor": "#ffefc3", "area_ha": 0.083368671602166156 }, "geometry": { "type": "Polygon", "coordinates": [ [ [ -45.112585084726675, -21.305702919576344 ], [ -45.112585084726675, -21.305433424991108 ], [ -45.112315590141435, -21.305433424991108 ], [ -45.112315590141435, -21.305702919576337 ], [ -45.112585084726675, -21.305702919576344 ] ] ] } },
{ "type": "Feature", "properties": { "id_feicao": "fogo_2018_89", "ano": 2018.0, "mes": 9, "codigo_original": 24, "classe": "Área urbanizada", "cor": "#d4271e", "area_ha": 0.08335391450532216 }, "geometry": { "type": "Polygon", "coordinates": [ [ [ -44.969213965381201, -21.331574399758974 ], [ -44.969213965381201, -21.331843894344217 ], [ -44.969483459966433, -21.331843894344214 ], [ -44.969483459966433, -21.331574399758985 ], [ -44.969213965381201, -21.331574399758974 ] ] ] } },
{ "type": "Feature", "properties": { "id_feicao": "fogo_2018_90", "ano": 2018.0, "mes": 9, "codigo_original": 33, "classe": "Rio, Lago e Oceano", "cor": "#2532e4", "area_ha": 0.083367471208516508 }, "geometry": { "type": "Polygon", "coordinates": [ [ [ -45.111237611800497, -21.307858876258219 ], [ -45.11150710638573, -21.307858876258219 ], [ -45.11150710638573, -21.307589381672994 ], [ -45.111237611800497, -21.307589381672994 ], [ -45.111237611800497, -21.307858876258219 ] ] ] } },
{ "type": "Feature", "properties": { "id_feicao": "fogo_2018_91", "ano": 2018.0, "mes": 9, "codigo_original": 33, "classe": "Rio, Lago e Oceano", "cor": "#2532e4", "area_ha": 0.083369569148961459 }, "geometry": { "type": "Polygon", "coordinates": [ [ [ -45.112585084726675, -21.304085952064913 ], [ -45.112854579311907, -21.304085952064927 ], [ -45.112854579311907, -21.303816457479684 ], [ -45.112585084726675, -21.303816457479687 ], [ -45.112585084726675, -21.304085952064913 ] ] ] } },
{ "type": "Feature", "properties": { "id_feicao": "fogo_2018_92", "ano": 2018.0, "mes": 9, "codigo_original": 41, "classe": "Outras Lavouras Temporárias", "cor": "#f54ca9", "area_ha": 0.083355100804660465 }, "geometry": { "type": "Polygon", "coordinates": [ [ [ -45.143846456614035, -21.330496421418044 ], [ -45.144115951199268, -21.33049642141804 ], [ -45.144115951199268, -21.3302269268328 ], [ -45.143846456614035, -21.330226926832793 ], [ -45.143846456614035, -21.330496421418044 ] ] ] } },
{ "type": "Feature", "properties": { "id_feicao": "fogo_2018_93", "ano": 2018.0, "mes": 9, "codigo_original": 41, "classe": "Outras Lavouras Temporárias", "cor": "#f54ca9", "area_ha": 0.083355258984025571 }, "geometry": { "type": "Polygon", "coordinates": [ [ [ -45.145193929540213, -21.3302269268328 ], [ -45.145463424125445, -21.330226926832797 ], [ -45.145463424125445, -21.329957432247557 ], [ -45.145193929540213, -21.329957432247568 ], [ -45.145193929540213, -21.3302269268328 ] ] ] } },
{ "type": "Feature", "properties": { "id_feicao": "fogo_2018_94", "ano": 2018.0, "mes": 9, "codigo_original": 41, "classe": "Outras Lavouras Temporárias", "cor": "#f54ca9", "area_ha": 0.08335584505395964 }, "geometry": { "type": "Polygon", "coordinates": [ [ [ -45.143307467443563, -21.329148948491859 ], [ -45.143576962028796, -21.329148948491856 ], [ -45.143576962028796, -21.328879453906612 ], [ -45.143307467443563, -21.32887945390662 ], [ -45.143307467443563, -21.329148948491859 ] ] ] } },
{ "type": "Feature", "properties": { "id_feicao": "fogo_2018_95", "ano": 2018.0, "mes": 9, "codigo_original": 41, "classe": "Outras Lavouras Temporárias", "cor": "#f54ca9", "area_ha": 0.6669140010360628 }, "geometry": { "type": "Polygon", "coordinates": [ [ [ -45.123634362721347, -21.313787757133419 ], [ -45.122825878965635, -21.313787757133419 ], [ -45.122825878965635, -21.313518262548179 ], [ -45.12201739520993, -21.313518262548186 ], [ -45.12201739520993, -21.313787757133419 ], [ -45.122286889795163, -21.313787757133415 ], [ -45.122286889795163, -21.314057251718648 ], [ -45.123634362721347, -21.314057251718644 ], [ -45.123634362721347, -21.313787757133419 ] ] ] } },
{ "type": "Feature", "properties": { "id_feicao": "fogo_2018_96", "ano": 2018.0, "mes": 9, "codigo_original": 41, "classe": "Outras Lavouras Temporárias", "cor": "#f54ca9", "area_ha": 0.25009275997877123 }, "geometry": { "type": "Polygon", "coordinates": [ [ [ -45.124442846477052, -21.314057251718644 ], [ -45.124712341062292, -21.314057251718648 ], [ -45.124712341062292, -21.313248767962946 ], [ -45.124442846477052, -21.313248767962936 ], [ -45.124442846477052, -21.314057251718644 ] ] ] } },
{ "type": "Feature", "properties": { "id_feicao": "fogo_2018_97", "ano": 2018.0, "mes": 9, "codigo_original": 41, "classe": "Outras Lavouras Temporárias", "cor": "#f54ca9", "area_ha": 0.41682252644309775 }, "geometry": { "type": "Polygon", "coordinates": [ [ [ -45.12417335189182, -21.312709778792474 ], [ -45.123634362721347, -21.31270977879247 ], [ -45.123634362721347, -21.313787757133419 ], [ -45.12390385730658, -21.313787757133412 ], [ -45.12390385730658, -21.31297927337771 ], [ -45.12417335189182, -21.312979273377707 ], [ -45.12417335189182, -21.312709778792474 ] ] ] } },
{ "type": "Feature", "properties": { "id_feicao": "fogo_2018_98", "ano": 2018.0, "mes": 9, "codigo_original": 41, "classe": "Outras Lavouras Temporárias", "cor": "#f54ca9", "area_ha": 0.33345817595217375 }, "geometry": { "type": "Polygon", "coordinates": [ [ [ -45.123095373550875, -21.313518262548172 ], [ -45.123364868136107, -21.313518262548179 ], [ -45.123364868136107, -21.312709778792478 ], [ -45.123095373550875, -21.312709778792474 ], [ -45.123095373550875, -21.312979273377699 ], [ -45.122825878965635, -21.31297927337771 ], [ -45.122825878965635, -21.313248767962932 ], [ -45.123095373550875, -21.313248767962939 ], [ -45.123095373550875, -21.313518262548172 ] ] ] } },
{ "type": "Feature", "properties": { "id_feicao": "fogo_2018_99", "ano": 2018.0, "mes": 9, "codigo_original": 41, "classe": "Outras Lavouras Temporárias", "cor": "#f54ca9", "area_ha": 0.083365705697637627 }, "geometry": { "type": "Polygon", "coordinates": [ [ [ -45.116896998090446, -21.31109281128105 ], [ -45.116896998090446, -21.310823316695821 ], [ -45.116627503505214, -21.310823316695807 ], [ -45.116627503505214, -21.311092811281057 ], [ -45.116896998090446, -21.31109281128105 ] ] ] } },
{ "type": "Feature", "properties": { "id_feicao": "fogo_2018_100", "ano": 2018.0, "mes": 9, "codigo_original": 41, "classe": "Outras Lavouras Temporárias", "cor": "#f54ca9", "area_ha": 0.083366297760886304 }, "geometry": { "type": "Polygon", "coordinates": [ [ [ -45.115819019749502, -21.310014832940116 ], [ -45.115819019749502, -21.309745338354887 ], [ -45.115549525164269, -21.309745338354873 ], [ -45.115549525164269, -21.310014832940112 ], [ -45.115819019749502, -21.310014832940116 ] ] ] } },
{ "type": "Feature", "properties": { "id_feicao": "fogo_2018_101", "ano": 2018.0, "mes": 9, "codigo_original": 41, "classe": "Outras Lavouras Temporárias", "cor": "#f54ca9", "area_ha": 36.515039828005058 }, "geometry": { "type": "Polygon", "coordinates": [ [ [ -45.113124073897147, -21.304355446650153 ], [ -45.112854579311907, -21.304355446650153 ], [ -45.112854579311907, -21.304894435820632 ], [ -45.112585084726675, -21.304894435820636 ], [ -45.112585084726675, -21.305702919576344 ], [ -45.112315590141435, -21.305702919576337 ], [ -45.112315590141435, -21.306511403332049 ], [ -45.112046095556202, -21.306511403332046 ], [ -45.112046095556202, -21.30731988708775 ], [ -45.111776600970963, -21.307319887087758 ], [ -45.111776600970963, -21.307589381672994 ], [ -45.11150710638573, -21.307589381672994 ], [ -45.11150710638573, -21.307858876258219 ], [ -45.113124073897147, -21.307858876258219 ], [ -45.113124073897147, -21.310014832940105 ], [ -45.112854579311907, -21.310014832940112 ], [ -45.112854579311907, -21.311092811281053 ], [ -45.110698622630025, -21.31109281128105 ], [ -45.110698622630025, -21.311362305866286 ], [ -45.110968117215258, -21.31136230586629 ], [ -45.110968117215258, -21.311631800451533 ], [ -45.111237611800497, -21.311631800451522 ], [ -45.111237611800497, -21.311901295036765 ], [ -45.11150710638573, -21.311901295036762 ], [ -45.11150710638573, -21.314057251718651 ], [ -45.111776600970963, -21.314057251718641 ], [ -45.111776600970963, -21.313518262548179 ], [ -45.112046095556202, -21.313518262548175 ], [ -45.112046095556202, -21.31270977879247 ], [ -45.112315590141435, -21.31270977879247 ], [ -45.112315590141435, -21.312170789622005 ], [ -45.112585084726675, -21.312170789622002 ], [ -45.112585084726675, -21.311631800451519 ], [ -45.112854579311907, -21.311631800451526 ], [ -45.112854579311907, -21.311362305866293 ], [ -45.11339356848238, -21.3113623058663 ], [ -45.11339356848238, -21.311631800451526 ], [ -45.113663063067619, -21.311631800451526 ], [ -45.113663063067619, -21.311901295036758 ], [ -45.114471546823324, -21.311901295036758 ], [ -45.114471546823324, -21.31109281128106 ], [ -45.115010535993797, -21.311092811281046 ], [ -45.115010535993797, -21.310553822110581 ], [ -45.115280030579029, -21.310553822110581 ], [ -45.115280030579029, -21.309745338354876 ], [ -45.115549525164269, -21.309745338354873 ], [ -45.115549525164269, -21.309206349184404 ], [ -45.115819019749502, -21.309206349184404 ], [ -45.115819019749502, -21.308397865428702 ], [ -45.116088514334741, -21.308397865428688 ], [ -45.116088514334741, -21.307589381672987 ], [ -45.116358008919974, -21.307589381672987 ], [ -45.116358008919974, -21.306780897917289 ], [ -45.116627503505214, -21.306780897917285 ], [ -45.116627503505214, -21.306241908746813 ], [ -45.116896998090446, -21.306241908746806 ], [ -45.116896998090446, -21.305972414161577 ], [ -45.117166492675686, -21.305972414161566 ], [ -45.117166492675686, -21.305433424991104 ], [ -45.117435987260919, -21.305433424991104 ], [ -45.117435987260919, -21.304894435820632 ], [ -45.117705481846151, -21.304894435820636 ], [ -45.117705481846151, -21.30408595206492 ], [ -45.117974976431391, -21.30408595206492 ], [ -45.117974976431391, -21.303816457479691 ], [ -45.116088514334741, -21.303816457479687 ], [ -45.116088514334741, -21.303546962894458 ], [ -45.115819019749502, -21.303546962894458 ], [ -45.115819019749502, -21.303277468309219 ], [ -45.113663063067619, -21.303277468309219 ], [ -45.113663063067619, -21.303546962894451 ], [ -45.11339356848238, -21.303546962894455 ], [ -45.11339356848238, -21.30408595206492 ], [ -45.113124073897147, -21.304085952064916 ], [ -45.113124073897147, -21.304355446650153 ] ] ] } },
{ "type": "Feature", "properties": { "id_feicao": "fogo_2018_102", "ano": 2018.0, "mes": 9, "codigo_original": 41, "classe": "Outras Lavouras Temporárias", "cor": "#f54ca9", "area_ha": 0.50020415784530337 }, "geometry": { "type": "Polygon", "coordinates": [ [ [ -45.118513965601863, -21.308397865428692 ], [ -45.119052954772336, -21.308397865428702 ], [ -45.119052954772336, -21.307589381672997 ], [ -45.118513965601863, -21.307589381672983 ], [ -45.118513965601863, -21.308397865428692 ] ] ] } },
{ "type": "Feature", "properties": { "id_feicao": "fogo_2018_103", "ano": 2018.0, "mes": 9, "codigo_original": 41, "classe": "Outras Lavouras Temporárias", "cor": "#f54ca9", "area_ha": 0.50020571163520222 }, "geometry": { "type": "Polygon", "coordinates": [ [ [ -45.110698622630025, -21.307858876258233 ], [ -45.111237611800497, -21.307858876258219 ], [ -45.111237611800497, -21.307050392502514 ], [ -45.110698622630025, -21.307050392502518 ], [ -45.110698622630025, -21.307858876258233 ] ] ] } },
{ "type": "Feature", "properties": { "id_feicao": "fogo_2018_104", "ano": 2018.0, "mes": 9, "codigo_original": 41, "classe": "Outras Lavouras Temporárias", "cor": "#f54ca9", "area_ha": 0.083368516877386722 }, "geometry": { "type": "Polygon", "coordinates": [ [ [ -45.111237611800497, -21.30597241416158 ], [ -45.11150710638573, -21.30597241416158 ], [ -45.11150710638573, -21.305702919576333 ], [ -45.111237611800497, -21.305702919576333 ], [ -45.111237611800497, -21.30597241416158 ] ] ] } },
{ "type": "Feature", "properties": { "id_feicao": "fogo_2018_105", "ano": 2018.0, "mes": 9, "codigo_original": 41, "classe": "Outras Lavouras Temporárias", "cor": "#f54ca9", "area_ha": 0.083368667585030198 }, "geometry": { "type": "Polygon", "coordinates": [ [ [ -45.11150710638573, -21.305702919576333 ], [ -45.111776600970963, -21.305702919576337 ], [ -45.111776600970963, -21.305433424991108 ], [ -45.11150710638573, -21.305433424991097 ], [ -45.11150710638573, -21.305702919576333 ] ] ] } },
{ "type": "Feature", "properties": { "id_feicao": "fogo_2018_106", "ano": 2018.0, "mes": 9, "codigo_original": 41, "classe": "Outras Lavouras Temporárias", "cor": "#f54ca9", "area_ha": 0.083368818290717905 }, "geometry": { "type": "Polygon", "coordinates": [ [ [ -45.111776600970963, -21.305433424991108 ], [ -45.112046095556202, -21.305433424991101 ], [ -45.112046095556202, -21.305163930405872 ], [ -45.111776600970963, -21.305163930405868 ], [ -45.111776600970963, -21.305433424991108 ] ] ] } },
{ "type": "Feature", "properties": { "id_feicao": "fogo_2018_107", "ano": 2018.0, "mes": 9, "codigo_original": 41, "classe": "Outras Lavouras Temporárias", "cor": "#f54ca9", "area_ha": 0.83369453701525931 }, "geometry": { "type": "Polygon", "coordinates": [ [ [ -45.111776600970963, -21.304624941235392 ], [ -45.112046095556202, -21.304624941235396 ], [ -45.112046095556202, -21.304894435820636 ], [ -45.112315590141435, -21.304894435820636 ], [ -45.112315590141435, -21.303546962894455 ], [ -45.111776600970963, -21.303546962894455 ], [ -45.111776600970963, -21.303816457479684 ], [ -45.11150710638573, -21.303816457479687 ], [ -45.11150710638573, -21.304085952064916 ], [ -45.111776600970963, -21.304085952064924 ], [ -45.111776600970963, -21.304624941235392 ] ] ] } },
{ "type": "Feature", "properties": { "id_feicao": "fogo_2018_108", "ano": 2018.0, "mes": 9, "codigo_original": 41, "classe": "Outras Lavouras Temporárias", "cor": "#f54ca9", "area_ha": 17.174291398205298 }, "geometry": { "type": "Polygon", "coordinates": [ [ [ -45.119861438528041, -21.302738479138746 ], [ -45.119861438528041, -21.30246898455351 ], [ -45.119322449357568, -21.30246898455351 ], [ -45.119322449357568, -21.301929995383041 ], [ -45.119052954772336, -21.301929995383041 ], [ -45.119052954772336, -21.302199489968274 ], [ -45.118244471016624, -21.302199489968274 ], [ -45.118244471016624, -21.303816457479691 ], [ -45.118513965601863, -21.303816457479687 ], [ -45.118513965601863, -21.304624941235385 ], [ -45.119322449357568, -21.304624941235389 ], [ -45.119322449357568, -21.30435544665016 ], [ -45.122556384380403, -21.304355446650163 ], [ -45.122556384380403, -21.303816457479691 ], [ -45.123095373550875, -21.303816457479691 ], [ -45.123095373550875, -21.304085952064913 ], [ -45.123364868136107, -21.304085952064927 ], [ -45.123364868136107, -21.303816457479691 ], [ -45.123634362721347, -21.303816457479687 ], [ -45.123634362721347, -21.30246898455351 ], [ -45.123364868136107, -21.302468984553514 ], [ -45.123364868136107, -21.301929995383034 ], [ -45.123095373550875, -21.301929995383038 ], [ -45.123095373550875, -21.300313027871621 ], [ -45.12201739520993, -21.300313027871628 ], [ -45.12201739520993, -21.300852017042104 ], [ -45.121208911454218, -21.300852017042097 ], [ -45.121208911454218, -21.301391006212572 ], [ -45.12013093311328, -21.301391006212565 ], [ -45.12013093311328, -21.30273847913875 ], [ -45.119861438528041, -21.302738479138746 ] ] ] } },
{ "type": "Feature", "properties": { "id_feicao": "fogo_2018_109", "ano": 2018.0, "mes": 9, "codigo_original": 41, "classe": "Outras Lavouras Temporárias", "cor": "#f54ca9", "area_ha": 5.2526888309827475 }, "geometry": { "type": "Polygon", "coordinates": [ [ [ -45.138187070324079, -21.29384515782596 ], [ -45.138187070324079, -21.293036674070251 ], [ -45.138456564909319, -21.293036674070258 ], [ -45.138456564909319, -21.29195869572931 ], [ -45.137917575738847, -21.291958695729299 ], [ -45.137917575738847, -21.291689201144074 ], [ -45.137648081153607, -21.291689201144074 ], [ -45.137648081153607, -21.291419706558845 ], [ -45.13630060822743, -21.291419706558848 ], [ -45.13630060822743, -21.291689201144081 ], [ -45.13603111364219, -21.291689201144074 ], [ -45.13603111364219, -21.293036674070255 ], [ -45.136839597397902, -21.293036674070251 ], [ -45.136839597397902, -21.29384515782596 ], [ -45.138187070324079, -21.29384515782596 ] ] ] } },
{ "type": "Feature", "properties": { "id_feicao": "fogo_2018_110", "ano": 2018.0, "mes": 9, "codigo_original": 41, "classe": "Outras Lavouras Temporárias", "cor": "#f54ca9", "area_ha": 0.083349137107189747 }, "geometry": { "type": "Polygon", "coordinates": [ [ [ -45.036587611690159, -21.340467721071757 ], [ -45.036857106275399, -21.340467721071761 ], [ -45.036857106275399, -21.340198226486532 ], [ -45.036587611690159, -21.340198226486518 ], [ -45.036587611690159, -21.340467721071757 ] ] ] } },
{ "type": "Feature", "properties": { "id_feicao": "fogo_2018_111", "ano": 2018.0, "mes": 9, "codigo_original": 41, "classe": "Outras Lavouras Temporárias", "cor": "#f54ca9", "area_ha": 0.16669827118683606 }, "geometry": { "type": "Polygon", "coordinates": [ [ [ -45.035509633349221, -21.340467721071764 ], [ -45.036048622519687, -21.340467721071761 ], [ -45.036048622519687, -21.340198226486521 ], [ -45.035509633349221, -21.340198226486525 ], [ -45.035509633349221, -21.340467721071764 ] ] ] } },
{ "type": "Feature", "properties": { "id_feicao": "fogo_2018_112", "ano": 2018.0, "mes": 9, "codigo_original": 41, "classe": "Outras Lavouras Temporárias", "cor": "#f54ca9", "area_ha": 2.1670889485863967 }, "geometry": { "type": "Polygon", "coordinates": [ [ [ -45.034970644178749, -21.340198226486525 ], [ -45.035240138763982, -21.340198226486532 ], [ -45.035240138763982, -21.339928731901299 ], [ -45.036048622519687, -21.339928731901292 ], [ -45.036048622519687, -21.340198226486521 ], [ -45.036318117104926, -21.340198226486532 ], [ -45.036318117104926, -21.339928731901296 ], [ -45.036857106275399, -21.339928731901292 ], [ -45.036857106275399, -21.33885075356034 ], [ -45.035509633349221, -21.338850753560354 ], [ -45.035509633349221, -21.339120248145594 ], [ -45.035240138763982, -21.339120248145591 ], [ -45.035240138763982, -21.339659237316056 ], [ -45.034970644178749, -21.339659237316056 ], [ -45.034970644178749, -21.340198226486525 ] ] ] } },
{ "type": "Feature", "properties": { "id_feicao": "fogo_2018_113", "ano": 2018.0, "mes": 9, "codigo_original": 41, "classe": "Outras Lavouras Temporárias", "cor": "#f54ca9", "area_ha": 1.3338145570009947 }, "geometry": { "type": "Polygon", "coordinates": [ [ [ -45.087791582884975, -21.315404724644829 ], [ -45.08886956122592, -21.315404724644836 ], [ -45.08886956122592, -21.314326746303887 ], [ -45.087791582884975, -21.314326746303887 ], [ -45.087791582884975, -21.315404724644829 ] ] ] } },
{ "type": "Feature", "properties": { "id_feicao": "fogo_2018_114", "ano": 2018.0, "mes": 9, "codigo_original": 41, "classe": "Outras Lavouras Temporárias", "cor": "#f54ca9", "area_ha": 1.6673004588857294 }, "geometry": { "type": "Polygon", "coordinates": [ [ [ -44.900492846146051, -21.31270977879247 ], [ -44.901570824486996, -21.312709778792474 ], [ -44.901570824486996, -21.311362305866297 ], [ -44.900492846146051, -21.31136230586629 ], [ -44.900492846146051, -21.31270977879247 ] ] ] } },
{ "type": "Feature", "properties": { "id_feicao": "fogo_2018_115", "ano": 2018.0, "mes": 9, "codigo_original": 41, "classe": "Outras Lavouras Temporárias", "cor": "#f54ca9", "area_ha": 0.833654854916688 }, "geometry": { "type": "Polygon", "coordinates": [ [ [ -45.10962064428908, -21.311901295036762 ], [ -45.110968117215258, -21.311901295036769 ], [ -45.110968117215258, -21.311631800451533 ], [ -45.110429128044785, -21.311631800451533 ], [ -45.110429128044785, -21.311362305866293 ], [ -45.110159633459553, -21.311362305866293 ], [ -45.110159633459553, -21.311092811281057 ], [ -45.109890138874313, -21.31109281128106 ], [ -45.109890138874313, -21.310823316695817 ], [ -45.10962064428908, -21.310823316695824 ], [ -45.10962064428908, -21.311362305866293 ], [ -45.109890138874313, -21.311362305866297 ], [ -45.109890138874313, -21.311631800451533 ], [ -45.10962064428908, -21.311631800451529 ], [ -45.10962064428908, -21.311901295036762 ] ] ] } },
{ "type": "Feature", "properties": { "id_feicao": "fogo_2018_116", "ano": 2018.0, "mes": 9, "codigo_original": 41, "classe": "Outras Lavouras Temporárias", "cor": "#f54ca9", "area_ha": 8.5867254205632957 }, "geometry": { "type": "Polygon", "coordinates": [ [ [ -45.106386709266246, -21.310823316695824 ], [ -45.106656203851486, -21.310823316695817 ], [ -45.106656203851486, -21.312170789622002 ], [ -45.107464687607191, -21.312170789622005 ], [ -45.107464687607191, -21.312440284207241 ], [ -45.108003676777663, -21.312440284207238 ], [ -45.108003676777663, -21.311092811281053 ], [ -45.107734182192431, -21.311092811281053 ], [ -45.107734182192431, -21.309206349184404 ], [ -45.107464687607191, -21.309206349184404 ], [ -45.107464687607191, -21.308667360013931 ], [ -45.107195193021958, -21.308667360013928 ], [ -45.107195193021958, -21.307858876258223 ], [ -45.107464687607191, -21.307858876258219 ], [ -45.107464687607191, -21.30812837084347 ], [ -45.108273171362903, -21.308128370843459 ], [ -45.108273171362903, -21.307858876258233 ], [ -45.108542665948136, -21.30785887625823 ], [ -45.108542665948136, -21.30758938167299 ], [ -45.106656203851486, -21.307589381672987 ], [ -45.106656203851486, -21.307858876258226 ], [ -45.105847720095774, -21.307858876258216 ], [ -45.105847720095774, -21.310553822110577 ], [ -45.106386709266246, -21.310553822110581 ], [ -45.106386709266246, -21.310823316695824 ] ] ] } },
{ "type": "Feature", "properties": { "id_feicao": "fogo_2018_117", "ano": 2018.0, "mes": 9, "codigo_original": 41, "classe": "Outras Lavouras Temporárias", "cor": "#f54ca9", "area_ha": 1.5839968731937462 }, "geometry": { "type": "Polygon", "coordinates": [ [ [ -45.110159633459553, -21.306511403332046 ], [ -45.110159633459553, -21.306241908746802 ], [ -45.110698622630025, -21.306241908746806 ], [ -45.110698622630025, -21.306511403332042 ], [ -45.111237611800497, -21.306511403332049 ], [ -45.111237611800497, -21.30597241416158 ], [ -45.110429128044785, -21.30597241416158 ], [ -45.110429128044785, -21.305702919576341 ], [ -45.109351149703841, -21.305702919576341 ], [ -45.109351149703841, -21.307050392502518 ], [ -45.10962064428908, -21.307050392502521 ], [ -45.10962064428908, -21.306780897917282 ], [ -45.109890138874313, -21.306780897917282 ], [ -45.109890138874313, -21.306511403332046 ], [ -45.110159633459553, -21.306511403332046 ] ] ] } },
{ "type": "Feature", "properties": { "id_feicao": "fogo_2018_118", "ano": 2018.0, "mes": 9, "codigo_original": 41, "classe": "Outras Lavouras Temporárias", "cor": "#f54ca9", "area_ha": 0.083370449354798523 }, "geometry": { "type": "Polygon", "coordinates": [ [ [ -45.10962064428908, -21.302468984553514 ], [ -45.10962064428908, -21.302199489968274 ], [ -45.109351149703841, -21.302199489968274 ], [ -45.109351149703841, -21.30246898455351 ], [ -45.10962064428908, -21.302468984553514 ] ] ] } },
{ "type": "Feature", "properties": { "id_feicao": "fogo_2018_119", "ano": 2018.0, "mes": 9, "codigo_original": 41, "classe": "Outras Lavouras Temporárias", "cor": "#f54ca9", "area_ha": 0.75043865253198894 }, "geometry": { "type": "Polygon", "coordinates": [ [ [ -44.986731113421527, -21.281178912319877 ], [ -44.987000608006767, -21.281178912319866 ], [ -44.987000608006767, -21.280639923149405 ], [ -44.986731113421527, -21.280639923149405 ], [ -44.986731113421527, -21.280370428564158 ], [ -44.986192124251055, -21.280370428564169 ], [ -44.986192124251055, -21.28117891231987 ], [ -44.986461618836294, -21.281178912319881 ], [ -44.986461618836294, -21.281448406905117 ], [ -44.986731113421527, -21.281448406905117 ], [ -44.986731113421527, -21.281178912319877 ] ] ] } },
{ "type": "Feature", "properties": { "id_feicao": "fogo_2018_120", "ano": 2018.0, "mes": 9, "codigo_original": 41, "classe": "Outras Lavouras Temporárias", "cor": "#f54ca9", "area_ha": 1.2508160121704452 }, "geometry": { "type": "Polygon", "coordinates": [ [ [ -44.988887070103416, -21.270129634325205 ], [ -44.988078586347704, -21.270129634325208 ], [ -44.988078586347704, -21.271207612666149 ], [ -44.989156564688649, -21.271207612666146 ], [ -44.989156564688649, -21.270399128910444 ], [ -44.988887070103416, -21.270399128910451 ], [ -44.988887070103416, -21.270129634325205 ] ] ] } },
{ "type": "Feature", "properties": { "id_feicao": "fogo_2018_121", "ano": 2018.0, "mes": 9, "codigo_original": 41, "classe": "Outras Lavouras Temporárias", "cor": "#f54ca9", "area_ha": 3.5859471288334577 }, "geometry": { "type": "Polygon", "coordinates": [ [ [ -45.047636889684831, -21.258271872574831 ], [ -45.046558911343887, -21.258271872574831 ], [ -45.046558911343887, -21.260158334671473 ], [ -45.048445373440543, -21.260158334671484 ], [ -45.048445373440543, -21.258810861745296 ], [ -45.047636889684831, -21.2588108617453 ], [ -45.047636889684831, -21.258271872574831 ] ] ] } },
{ "type": "Feature", "properties": { "id_feicao": "fogo_2018_122", "ano": 2018.0, "mes": 9, "codigo_original": 41, "classe": "Outras Lavouras Temporárias", "cor": "#f54ca9", "area_ha": 2.1683958319006487 }, "geometry": { "type": "Polygon", "coordinates": [ [ [ -45.091025517907802, -21.249917540432513 ], [ -45.092103496248747, -21.249917540432516 ], [ -45.092103496248747, -21.248570067506336 ], [ -45.091834001663514, -21.248570067506336 ], [ -45.091834001663514, -21.248300572921099 ], [ -45.091025517907802, -21.248300572921103 ], [ -45.091025517907802, -21.248570067506343 ], [ -45.090756023322569, -21.248570067506336 ], [ -45.090756023322569, -21.249378551262041 ], [ -45.091025517907802, -21.249378551262044 ], [ -45.091025517907802, -21.249917540432513 ] ] ] } },
{ "type": "Feature", "properties": { "id_feicao": "fogo_2018_123", "ano": 2018.0, "mes": 9, "codigo_original": 41, "classe": "Outras Lavouras Temporárias", "cor": "#f54ca9", "area_ha": 1.4178594022154809 }, "geometry": { "type": "Polygon", "coordinates": [ [ [ -44.932562701789124, -21.243449670386866 ], [ -44.933101690959596, -21.243449670386862 ], [ -44.933101690959596, -21.242102197460675 ], [ -44.933371185544829, -21.242102197460675 ], [ -44.933371185544829, -21.24102421911973 ], [ -44.933101690959596, -21.241024219119737 ], [ -44.933101690959596, -21.241563208290202 ], [ -44.932832196374356, -21.241563208290206 ], [ -44.932832196374356, -21.241832702875431 ], [ -44.932562701789124, -21.241832702875438 ], [ -44.932562701789124, -21.243449670386866 ] ] ] } },
{ "type": "Feature", "properties": { "id_feicao": "fogo_2018_124", "ano": 2018.0, "mes": 9, "codigo_original": 41, "classe": "Outras Lavouras Temporárias", "cor": "#f54ca9", "area_ha": 0.083404285990446803 }, "geometry": { "type": "Polygon", "coordinates": [ [ [ -44.933371185544829, -21.24102421911973 ], [ -44.933640680130061, -21.24102421911973 ], [ -44.933640680130061, -21.240754724534494 ], [ -44.933371185544829, -21.240754724534487 ], [ -44.933371185544829, -21.24102421911973 ] ] ] } },
{ "type": "Feature", "properties": { "id_feicao": "fogo_2018_125", "ano": 2018.0, "mes": 9, "codigo_original": 41, "classe": "Outras Lavouras Temporárias", "cor": "#f54ca9", "area_ha": 0.083404732783045624 }, "geometry": { "type": "Polygon", "coordinates": [ [ [ -44.933371185544829, -21.240215735364028 ], [ -44.933640680130061, -21.240215735364018 ], [ -44.933640680130061, -21.239946240778785 ], [ -44.933371185544829, -21.239946240778796 ], [ -44.933371185544829, -21.240215735364028 ] ] ] } },
{ "type": "Feature", "properties": { "id_feicao": "fogo_2018_126", "ano": 2018.0, "mes": 9, "codigo_original": 41, "classe": "Outras Lavouras Temporárias", "cor": "#f54ca9", "area_ha": 0.16683681187560609 }, "geometry": { "type": "Polygon", "coordinates": [ [ [ -44.988078586347704, -21.215422233522329 ], [ -44.988078586347704, -21.21488324435186 ], [ -44.987809091762472, -21.214883244351856 ], [ -44.987809091762472, -21.215422233522336 ], [ -44.988078586347704, -21.215422233522329 ] ] ] } },
{ "type": "Feature", "properties": { "id_feicao": "fogo_2018_127", "ano": 2018.0, "mes": 9, "codigo_original": 41, "classe": "Outras Lavouras Temporárias", "cor": "#f54ca9", "area_ha": 1.9189164971092574 }, "geometry": { "type": "Polygon", "coordinates": [ [ [ -45.026616312036438, -21.192515193777272 ], [ -45.026616312036438, -21.191976204606814 ], [ -45.026346817451198, -21.191976204606803 ], [ -45.026346817451198, -21.191437215436334 ], [ -45.025268839110254, -21.191437215436345 ], [ -45.025268839110254, -21.191706710021563 ], [ -45.024999344525021, -21.191706710021574 ], [ -45.024999344525021, -21.192784688362508 ], [ -45.025538333695494, -21.192784688362508 ], [ -45.025538333695494, -21.192515193777272 ], [ -45.026616312036438, -21.192515193777272 ] ] ] } },
{ "type": "Feature", "properties": { "id_feicao": "fogo_2018_128", "ano": 2018.0, "mes": 11, "codigo_original": 15, "classe": "Pastagem", "cor": "#edde8e", "area_ha": 0.5005088575227008 }, "geometry": { "type": "Polygon", "coordinates": [ [ [ -45.147080391636862, -21.216230717278041 ], [ -45.147080391636862, -21.216500211863274 ], [ -45.147349886222102, -21.216500211863274 ], [ -45.147349886222102, -21.216769706448503 ], [ -45.148158369977807, -21.216769706448506 ], [ -45.148158369977807, -21.21650021186327 ], [ -45.147888875392567, -21.216500211863274 ], [ -45.147888875392567, -21.216230717278037 ], [ -45.147080391636862, -21.216230717278041 ] ] ] } },
{ "type": "Feature", "properties": { "id_feicao": "fogo_2018_129", "ano": 2018.0, "mes": 11, "codigo_original": 41, "classe": "Outras Lavouras Temporárias", "cor": "#f54ca9", "area_ha": 0.33346312999132699 }, "geometry": { "type": "Polygon", "coordinates": [ [ [ -45.116896998090446, -21.310553822110588 ], [ -45.116896998090446, -21.31109281128105 ], [ -45.117435987260919, -21.311092811281053 ], [ -45.117435987260919, -21.310553822110585 ], [ -45.116896998090446, -21.310553822110588 ] ] ] } },
{ "type": "Feature", "properties": { "id_feicao": "fogo_2018_130", "ano": 2018.0, "mes": 12, "codigo_original": 15, "classe": "Pastagem", "cor": "#edde8e", "area_ha": 4.0040470156984362 }, "geometry": { "type": "Polygon", "coordinates": [ [ [ -45.14654140246639, -21.216230717278037 ], [ -45.14654140246639, -21.21676970644851 ], [ -45.146271907881157, -21.216769706448499 ], [ -45.146271907881157, -21.217847684789451 ], [ -45.14654140246639, -21.217847684789447 ], [ -45.14654140246639, -21.21811717937468 ], [ -45.147349886222102, -21.218117179374687 ], [ -45.147349886222102, -21.218386673959923 ], [ -45.14842786456304, -21.218386673959923 ], [ -45.14842786456304, -21.216769706448495 ], [ -45.147349886222102, -21.216769706448503 ], [ -45.147349886222102, -21.216500211863274 ], [ -45.147080391636862, -21.216500211863274 ], [ -45.147080391636862, -21.216230717278041 ], [ -45.14654140246639, -21.216230717278037 ] ] ] } },
{ "type": "Feature", "properties": { "id_feicao": "fogo_2018_131", "ano": 2018.0, "mes": 12, "codigo_original": 41, "classe": "Outras Lavouras Temporárias", "cor": "#f54ca9", "area_ha": 0.083365228876934455 }, "geometry": { "type": "Polygon", "coordinates": [ [ [ -45.110968117215258, -21.311631800451533 ], [ -45.110968117215258, -21.311901295036769 ], [ -45.111237611800497, -21.311901295036765 ], [ -45.111237611800497, -21.311631800451522 ], [ -45.110968117215258, -21.311631800451533 ] ] ] } }
]
}
