{
"type": "FeatureCollection",
"name": "fogo_2012",
"crs": { "type": "name", "properties": { "name": "urn:ogc:def:crs:OGC:1.3:CRS84" } },
"features": [
{ "type": "Feature", "properties": { "id_feicao": "fogo_2012_1", "ano": 2012.0, "mes": 8, "codigo_original": 15, "classe": "Pastagem", "cor": "#edde8e", "area_ha": 1.2512385271116453 }, "geometry": { "type": "Polygon", "coordinates": [ [ [ -44.972178405818795, -21.219195157715632 ], [ -44.972178405818795, -21.220273136056569 ], [ -44.973256384159733, -21.220273136056573 ], [ -44.973256384159733, -21.219464652300861 ], [ -44.9729868895745, -21.219464652300868 ], [ -44.9729868895745, -21.219195157715632 ], [ -44.972178405818795, -21.219195157715632 ] ] ] } },
{ "type": "Feature", "properties": { "id_feicao": "fogo_2012_2", "ano": 2012.0, "mes": 8, "codigo_original": 41, "classe": "Outras Lavouras Temporárias", "cor": "#f54ca9", "area_ha": 0.083416112757887476 }, "geometry": { "type": "Polygon", "coordinates": [ [ [ -44.9729868895745, -21.219195157715632 ], [ -44.9729868895745, -21.219464652300868 ], [ -44.973256384159733, -21.219464652300861 ], [ -44.973256384159733, -21.219195157715625 ], [ -44.9729868895745, -21.219195157715632 ] ] ] } },
{ "type": "Feature", "properties": { "id_feicao": "fogo_2012_3", "ano": 2012.0, "mes": 9, "codigo_original": 15, "classe": "Pastagem", "cor": "#edde8e", "area_ha": 6.9254580470109603 }, "geometry": { "type": "Polygon", "coordinates": [ [ [ -45.012063604433699, -21.176076024077886 ], [ -45.012063604433699, -21.177692991589307 ], [ -45.011255120677994, -21.177692991589307 ], [ -45.011255120677994, -21.178501475345016 ], [ -45.012602593604171, -21.178501475345019 ], [ -45.012602593604171, -21.178231980759779 ], [ -45.015297539456526, -21.178231980759779 ], [ -45.015297539456526, -21.176884507833599 ], [ -45.013141582774644, -21.176884507833599 ], [ -45.013141582774644, -21.17607602407789 ], [ -45.012063604433699, -21.176076024077886 ] ] ] } },
{ "type": "Feature", "properties": { "id_feicao": "fogo_2012_4", "ano": 2012.0, "mes": 10, "codigo_original": 4, "classe": "Formação Savânica", "cor": "#7dc975", "area_ha": 0.25015107156389899 }, "geometry": { "type": "Polygon", "coordinates": [ [ [ -44.942534001442844, -21.277675482711814 ], [ -44.942534001442844, -21.278483966467519 ], [ -44.942803496028084, -21.278483966467519 ], [ -44.942803496028084, -21.277675482711814 ], [ -44.942534001442844, -21.277675482711814 ] ] ] } },
{ "type": "Feature", "properties": { "id_feicao": "fogo_2012_5", "ano": 2012.0, "mes": 10, "codigo_original": 12, "classe": "Formação Campestre", "cor": "#d6bc74", "area_ha": 1.08398878539767 }, "geometry": { "type": "Polygon", "coordinates": [ [ [ -44.941725517687139, -21.277405988126574 ], [ -44.941725517687139, -21.278483966467519 ], [ -44.942534001442844, -21.278483966467519 ], [ -44.942534001442844, -21.277675482711814 ], [ -44.942803496028084, -21.277675482711814 ], [ -44.942803496028084, -21.277405988126574 ], [ -44.941725517687139, -21.277405988126574 ] ] ] } },
{ "type": "Feature", "properties": { "id_feicao": "fogo_2012_6", "ano": 2012.0, "mes": 10, "codigo_original": 15, "classe": "Pastagem", "cor": "#edde8e", "area_ha": 0.083438101013918936 }, "geometry": { "type": "Polygon", "coordinates": [ [ [ -45.012872088189404, -21.179579453685953 ], [ -45.012872088189404, -21.179309959100724 ], [ -45.012602593604171, -21.179309959100724 ], [ -45.012602593604171, -21.17957945368596 ], [ -45.012872088189404, -21.179579453685953 ] ] ] } },
{ "type": "Feature", "properties": { "id_feicao": "fogo_2012_7", "ano": 2012.0, "mes": 10, "codigo_original": 15, "classe": "Pastagem", "cor": "#edde8e", "area_ha": 1.0012604503621823 }, "geometry": { "type": "Polygon", "coordinates": [ [ [ -45.011255120677994, -21.178501475345016 ], [ -45.011255120677994, -21.179040464515488 ], [ -45.011524615263227, -21.179040464515488 ], [ -45.011524615263227, -21.17957945368596 ], [ -45.011794109848466, -21.179579453685964 ], [ -45.011794109848466, -21.178770969930255 ], [ -45.012602593604171, -21.178770969930252 ], [ -45.012602593604171, -21.179040464515481 ], [ -45.012872088189404, -21.179040464515484 ], [ -45.012872088189404, -21.178231980759776 ], [ -45.012602593604171, -21.178231980759779 ], [ -45.012602593604171, -21.178501475345019 ], [ -45.011255120677994, -21.178501475345016 ] ] ] } },
{ "type": "Feature", "properties": { "id_feicao": "fogo_2012_8", "ano": 2012.0, "mes": 10, "codigo_original": 15, "classe": "Pastagem", "cor": "#edde8e", "area_ha": 0.33376012611350436 }, "geometry": { "type": "Polygon", "coordinates": [ [ [ -45.013141582774644, -21.17607602407789 ], [ -45.013141582774644, -21.175806529492661 ], [ -45.012063604433699, -21.175806529492657 ], [ -45.012063604433699, -21.176076024077886 ], [ -45.013141582774644, -21.17607602407789 ] ] ] } },
{ "type": "Feature", "properties": { "id_feicao": "fogo_2012_9", "ano": 2012.0, "mes": 10, "codigo_original": 15, "classe": "Pastagem", "cor": "#edde8e", "area_ha": 4.0893434975108915 }, "geometry": { "type": "Polygon", "coordinates": [ [ [ -44.993737972637661, -21.14616212511671 ], [ -44.993737972637661, -21.148048587213363 ], [ -44.99562443473431, -21.148048587213367 ], [ -44.99562443473431, -21.146701114287183 ], [ -44.995354940149078, -21.146701114287175 ], [ -44.995354940149078, -21.146431619701954 ], [ -44.995085445563838, -21.146431619701946 ], [ -44.995085445563838, -21.146162125116717 ], [ -44.994815950978605, -21.14616212511671 ], [ -44.994815950978605, -21.145892630531481 ], [ -44.994007467222893, -21.145892630531471 ], [ -44.994007467222893, -21.146162125116717 ], [ -44.993737972637661, -21.14616212511671 ] ] ] } },
{ "type": "Feature", "properties": { "id_feicao": "fogo_2012_10", "ano": 2012.0, "mes": 10, "codigo_original": 41, "classe": "Outras Lavouras Temporárias", "cor": "#f54ca9", "area_ha": 0.8343824928299568 }, "geometry": { "type": "Polygon", "coordinates": [ [ [ -45.011794109848466, -21.178770969930255 ], [ -45.011794109848466, -21.179579453685964 ], [ -45.012602593604171, -21.17957945368596 ], [ -45.012602593604171, -21.179309959100724 ], [ -45.012872088189404, -21.179309959100724 ], [ -45.012872088189404, -21.179040464515484 ], [ -45.012602593604171, -21.179040464515481 ], [ -45.012602593604171, -21.178770969930252 ], [ -45.011794109848466, -21.178770969930255 ] ] ] } }
]
}
