{
"type": "FeatureCollection",
"name": "fogo_2013",
"crs": { "type": "name", "properties": { "name": "urn:ogc:def:crs:OGC:1.3:CRS84" } },
"features": [
{ "type": "Feature", "properties": { "id_feicao": "fogo_2013_1", "ano": 2013.0, "mes": 4, "codigo_original": 3, "classe": "Formação Florestal", "cor": "#1f8d49", "area_ha": 0.083346440283395357 }, "geometry": { "type": "Polygon", "coordinates": [ [ [ -44.965441041187894, -21.345318623606012 ], [ -44.965710535773134, -21.345318623606012 ], [ -44.965710535773134, -21.345049129020779 ], [ -44.965441041187894, -21.345049129020776 ], [ -44.965441041187894, -21.345318623606012 ] ] ] } },
{ "type": "Feature", "properties": { "id_feicao": "fogo_2013_2", "ano": 2013.0, "mes": 4, "codigo_original": 3, "classe": "Formação Florestal", "cor": "#1f8d49", "area_ha": 0.58342718304917218 }, "geometry": { "type": "Polygon", "coordinates": [ [ [ -44.964632557432189, -21.345049129020776 ], [ -44.965171546602662, -21.345049129020776 ], [ -44.965171546602662, -21.34477963443554 ], [ -44.965441041187894, -21.34477963443554 ], [ -44.965441041187894, -21.344510139850311 ], [ -44.965171546602662, -21.344510139850303 ], [ -44.965171546602662, -21.34424064526506 ], [ -44.964632557432189, -21.344240645265074 ], [ -44.964632557432189, -21.345049129020776 ] ] ] } },
{ "type": "Feature", "properties": { "id_feicao": "fogo_2013_3", "ano": 2013.0, "mes": 4, "codigo_original": 12, "classe": "Formação Campestre", "cor": "#d6bc74", "area_ha": 0.083346741229388857 }, "geometry": { "type": "Polygon", "coordinates": [ [ [ -44.96436306284695, -21.344779634435543 ], [ -44.964632557432189, -21.344779634435536 ], [ -44.964632557432189, -21.3445101398503 ], [ -44.96436306284695, -21.3445101398503 ], [ -44.96436306284695, -21.344779634435543 ] ] ] } },
{ "type": "Feature", "properties": { "id_feicao": "fogo_2013_4", "ano": 2013.0, "mes": 4, "codigo_original": 12, "classe": "Formação Campestre", "cor": "#d6bc74", "area_ha": 0.16670191751923413 }, "geometry": { "type": "Polygon", "coordinates": [ [ [ -45.096145915027286, -21.33750328063417 ], [ -45.096684904197758, -21.33750328063417 ], [ -45.096684904197758, -21.337233786048927 ], [ -45.096145915027286, -21.337233786048934 ], [ -45.096145915027286, -21.33750328063417 ] ] ] } },
{ "type": "Feature", "properties": { "id_feicao": "fogo_2013_5", "ano": 2013.0, "mes": 5, "codigo_original": 21, "classe": "Mosaico de Usos", "cor": "#ffefc3", "area_ha": 0.16674146234951914 }, "geometry": { "type": "Polygon", "coordinates": [ [ [ -45.120669922283746, -21.302199489968274 ], [ -45.120939416868985, -21.30219948996827 ], [ -45.120939416868985, -21.301660500797801 ], [ -45.120669922283746, -21.301660500797801 ], [ -45.120669922283746, -21.302199489968274 ] ] ] } },
{ "type": "Feature", "properties": { "id_feicao": "fogo_2013_6", "ano": 2013.0, "mes": 5, "codigo_original": 21, "classe": "Mosaico de Usos", "cor": "#ffefc3", "area_ha": 0.083371101657122193 }, "geometry": { "type": "Polygon", "coordinates": [ [ [ -45.120400427698513, -21.301391006212569 ], [ -45.120400427698513, -21.301121511627329 ], [ -45.12013093311328, -21.301121511627329 ], [ -45.12013093311328, -21.301391006212565 ], [ -45.120400427698513, -21.301391006212569 ] ] ] } },
{ "type": "Feature", "properties": { "id_feicao": "fogo_2013_7", "ano": 2013.0, "mes": 5, "codigo_original": 21, "classe": "Mosaico de Usos", "cor": "#ffefc3", "area_ha": 0.083371246700907981 }, "geometry": { "type": "Polygon", "coordinates": [ [ [ -45.119591943942808, -21.301121511627333 ], [ -45.119591943942808, -21.300852017042093 ], [ -45.119322449357568, -21.300852017042107 ], [ -45.119322449357568, -21.301121511627329 ], [ -45.119591943942808, -21.301121511627333 ] ] ] } },
{ "type": "Feature", "properties": { "id_feicao": "fogo_2013_8", "ano": 2013.0, "mes": 5, "codigo_original": 41, "classe": "Outras Lavouras Temporárias", "cor": "#f54ca9", "area_ha": 22.00976313789511 }, "geometry": { "type": "Polygon", "coordinates": [ [ [ -45.115549525164269, -21.300582522456857 ], [ -45.115549525164269, -21.301660500797798 ], [ -45.116358008919974, -21.301660500797801 ], [ -45.116358008919974, -21.301929995383038 ], [ -45.116896998090446, -21.301929995383041 ], [ -45.116896998090446, -21.302199489968274 ], [ -45.117435987260919, -21.30219948996827 ], [ -45.117435987260919, -21.302468984553514 ], [ -45.117705481846151, -21.30246898455351 ], [ -45.117705481846151, -21.302738479138746 ], [ -45.117974976431391, -21.30273847913875 ], [ -45.117974976431391, -21.303007973723986 ], [ -45.118244471016624, -21.303007973723982 ], [ -45.118244471016624, -21.303816457479691 ], [ -45.118513965601863, -21.303816457479687 ], [ -45.118513965601863, -21.30408595206492 ], [ -45.119052954772336, -21.304085952064927 ], [ -45.119052954772336, -21.30435544665016 ], [ -45.119322449357568, -21.30435544665016 ], [ -45.119322449357568, -21.304624941235389 ], [ -45.120669922283746, -21.304624941235389 ], [ -45.120669922283746, -21.304355446650156 ], [ -45.122556384380403, -21.304355446650163 ], [ -45.122556384380403, -21.304085952064916 ], [ -45.12390385730658, -21.304085952064924 ], [ -45.12390385730658, -21.303007973723986 ], [ -45.123634362721347, -21.303007973723979 ], [ -45.123634362721347, -21.30246898455351 ], [ -45.123364868136107, -21.302468984553514 ], [ -45.123364868136107, -21.302199489968277 ], [ -45.123095373550875, -21.302199489968274 ], [ -45.123095373550875, -21.301929995383038 ], [ -45.122556384380403, -21.301929995383038 ], [ -45.122556384380403, -21.301660500797805 ], [ -45.120939416868985, -21.301660500797801 ], [ -45.120939416868985, -21.30219948996827 ], [ -45.120669922283746, -21.302199489968274 ], [ -45.120669922283746, -21.301391006212565 ], [ -45.12013093311328, -21.301391006212565 ], [ -45.12013093311328, -21.301121511627329 ], [ -45.119322449357568, -21.301121511627329 ], [ -45.119322449357568, -21.300852017042107 ], [ -45.116627503505214, -21.300852017042093 ], [ -45.116627503505214, -21.300582522456853 ], [ -45.115549525164269, -21.300582522456857 ] ] ] } },
{ "type": "Feature", "properties": { "id_feicao": "fogo_2013_9", "ano": 2013.0, "mes": 7, "codigo_original": 12, "classe": "Formação Campestre", "cor": "#d6bc74", "area_ha": 0.009204260228841122 }, "geometry": { "type": "Polygon", "coordinates": [ [ [ -44.92528634798775, -21.343701656094602 ], [ -44.925286347987871, -21.343747824330311 ], [ -44.925344, -21.343739 ], [ -44.925555842573033, -21.343717305356197 ], [ -44.92555584257299, -21.343701656094598 ], [ -44.92528634798775, -21.343701656094602 ] ] ] } },
{ "type": "Feature", "properties": { "id_feicao": "fogo_2013_10", "ano": 2013.0, "mes": 8, "codigo_original": 12, "classe": "Formação Campestre", "cor": "#d6bc74", "area_ha": 0.083352997760299696 }, "geometry": { "type": "Polygon", "coordinates": [ [ [ -45.082671185765491, -21.333730356440871 ], [ -45.082671185765491, -21.333460861855627 ], [ -45.082401691180259, -21.333460861855635 ], [ -45.082401691180259, -21.333730356440871 ], [ -45.082671185765491, -21.333730356440871 ] ] ] } },
{ "type": "Feature", "properties": { "id_feicao": "fogo_2013_11", "ano": 2013.0, "mes": 8, "codigo_original": 12, "classe": "Formação Campestre", "cor": "#d6bc74", "area_ha": 0.1667081480970688 }, "geometry": { "type": "Polygon", "coordinates": [ [ [ -45.09048652873733, -21.331843894344221 ], [ -45.09048652873733, -21.331574399758981 ], [ -45.089947539566865, -21.331574399758985 ], [ -45.089947539566865, -21.331843894344221 ], [ -45.09048652873733, -21.331843894344221 ] ] ] } },
{ "type": "Feature", "properties": { "id_feicao": "fogo_2013_12", "ano": 2013.0, "mes": 8, "codigo_original": 12, "classe": "Formação Campestre", "cor": "#d6bc74", "area_ha": 0.083354533069165196 }, "geometry": { "type": "Polygon", "coordinates": [ [ [ -45.092911980004459, -21.331035410588509 ], [ -45.092911980004459, -21.330765916003273 ], [ -45.092642485419219, -21.33076591600328 ], [ -45.092642485419219, -21.331035410588516 ], [ -45.092911980004459, -21.331035410588509 ] ] ] } },
{ "type": "Feature", "properties": { "id_feicao": "fogo_2013_13", "ano": 2013.0, "mes": 8, "codigo_original": 12, "classe": "Formação Campestre", "cor": "#d6bc74", "area_ha": 0.083365802683483842 }, "geometry": { "type": "Polygon", "coordinates": [ [ [ -44.932832196374356, -21.310553822110585 ], [ -44.932832196374356, -21.310284327525352 ], [ -44.932562701789124, -21.310284327525345 ], [ -44.932562701789124, -21.310553822110592 ], [ -44.932832196374356, -21.310553822110585 ] ] ] } },
{ "type": "Feature", "properties": { "id_feicao": "fogo_2013_14", "ano": 2013.0, "mes": 8, "codigo_original": 15, "classe": "Pastagem", "cor": "#edde8e", "area_ha": 0.083365955326706168 }, "geometry": { "type": "Polygon", "coordinates": [ [ [ -44.931754218033412, -21.310014832940105 ], [ -44.931484723448179, -21.310014832940119 ], [ -44.931484723448179, -21.310284327525345 ], [ -44.931754218033412, -21.310284327525338 ], [ -44.931754218033412, -21.310014832940105 ] ] ] } },
{ "type": "Feature", "properties": { "id_feicao": "fogo_2013_15", "ano": 2013.0, "mes": 8, "codigo_original": 15, "classe": "Pastagem", "cor": "#edde8e", "area_ha": 1.6676057687252759 }, "geometry": { "type": "Polygon", "coordinates": [ [ [ -44.965171546602662, -21.283604363586996 ], [ -44.963824073676477, -21.283604363587003 ], [ -44.963824073676477, -21.28468234192794 ], [ -44.965171546602662, -21.284682341927944 ], [ -44.965171546602662, -21.283604363586996 ] ] ] } },
{ "type": "Feature", "properties": { "id_feicao": "fogo_2013_16", "ano": 2013.0, "mes": 8, "codigo_original": 15, "classe": "Pastagem", "cor": "#edde8e", "area_ha": 0.16679989535510539 }, "geometry": { "type": "Polygon", "coordinates": [ [ [ -45.083479669521203, -21.248570067506336 ], [ -45.083210174935964, -21.248570067506336 ], [ -45.083210174935964, -21.249109056676811 ], [ -45.083479669521203, -21.249109056676804 ], [ -45.083479669521203, -21.248570067506336 ] ] ] } },
{ "type": "Feature", "properties": { "id_feicao": "fogo_2013_17", "ano": 2013.0, "mes": 8, "codigo_original": 15, "classe": "Pastagem", "cor": "#edde8e", "area_ha": 0.16680078727081418 }, "geometry": { "type": "Polygon", "coordinates": [ [ [ -45.083210174935964, -21.247761583750634 ], [ -45.082940680350731, -21.247761583750627 ], [ -45.082940680350731, -21.248300572921099 ], [ -45.083210174935964, -21.248300572921103 ], [ -45.083210174935964, -21.247761583750634 ] ] ] } },
{ "type": "Feature", "properties": { "id_feicao": "fogo_2013_18", "ano": 2013.0, "mes": 8, "codigo_original": 15, "classe": "Pastagem", "cor": "#edde8e", "area_ha": 0.083400616119988266 }, "geometry": { "type": "Polygon", "coordinates": [ [ [ -45.082940680350731, -21.247492089165387 ], [ -45.082671185765491, -21.247492089165394 ], [ -45.082671185765491, -21.247761583750627 ], [ -45.082940680350731, -21.247761583750627 ], [ -45.082940680350731, -21.247492089165387 ] ] ] } },
{ "type": "Feature", "properties": { "id_feicao": "fogo_2013_19", "ano": 2013.0, "mes": 8, "codigo_original": 15, "classe": "Pastagem", "cor": "#edde8e", "area_ha": 0.083401064041443165 }, "geometry": { "type": "Polygon", "coordinates": [ [ [ -45.083210174935964, -21.246683605409686 ], [ -45.082940680350731, -21.246683605409689 ], [ -45.082940680350731, -21.246953099994915 ], [ -45.083210174935964, -21.246953099994919 ], [ -45.083210174935964, -21.246683605409686 ] ] ] } },
{ "type": "Feature", "properties": { "id_feicao": "fogo_2013_20", "ano": 2013.0, "mes": 8, "codigo_original": 15, "classe": "Pastagem", "cor": "#edde8e", "area_ha": 0.083401361988484857 }, "geometry": { "type": "Polygon", "coordinates": [ [ [ -45.083210174935964, -21.24614461623921 ], [ -45.082940680350731, -21.246144616239214 ], [ -45.082940680350731, -21.246414110824446 ], [ -45.083210174935964, -21.246414110824453 ], [ -45.083210174935964, -21.24614461623921 ] ] ] } },
{ "type": "Feature", "properties": { "id_feicao": "fogo_2013_21", "ano": 2013.0, "mes": 8, "codigo_original": 15, "classe": "Pastagem", "cor": "#edde8e", "area_ha": 4.1708327561196592 }, "geometry": { "type": "Polygon", "coordinates": [ [ [ -44.895102954441334, -21.218386673959927 ], [ -44.895102954441334, -21.218925663130396 ], [ -44.895911438197047, -21.218925663130396 ], [ -44.895911438197047, -21.218656168545152 ], [ -44.896450427367519, -21.218656168545152 ], [ -44.896450427367519, -21.218925663130385 ], [ -44.896180932782279, -21.218925663130396 ], [ -44.896180932782279, -21.219195157715625 ], [ -44.895911438197047, -21.219195157715625 ], [ -44.895911438197047, -21.219464652300868 ], [ -44.895641943611807, -21.219464652300871 ], [ -44.895641943611807, -21.2197341468861 ], [ -44.896450427367519, -21.219734146886093 ], [ -44.896450427367519, -21.219464652300868 ], [ -44.896719921952752, -21.219464652300861 ], [ -44.896719921952752, -21.219195157715635 ], [ -44.897258911123224, -21.219195157715635 ], [ -44.897258911123224, -21.219464652300868 ], [ -44.897528405708456, -21.219464652300868 ], [ -44.897528405708456, -21.219195157715628 ], [ -44.897797900293696, -21.219195157715632 ], [ -44.897797900293696, -21.218925663130385 ], [ -44.898067394878929, -21.218925663130396 ], [ -44.898067394878929, -21.218117179374687 ], [ -44.897797900293696, -21.218117179374683 ], [ -44.897797900293696, -21.217847684789451 ], [ -44.895911438197047, -21.217847684789451 ], [ -44.895911438197047, -21.218117179374683 ], [ -44.895372449026574, -21.21811717937468 ], [ -44.895372449026574, -21.218386673959913 ], [ -44.895102954441334, -21.218386673959927 ] ] ] } },
{ "type": "Feature", "properties": { "id_feicao": "fogo_2013_22", "ano": 2013.0, "mes": 8, "codigo_original": 15, "classe": "Pastagem", "cor": "#edde8e", "area_ha": 3.2533566825390889 }, "geometry": { "type": "Polygon", "coordinates": [ [ [ -44.987809091762472, -21.212457793084731 ], [ -44.987809091762472, -21.213805266010912 ], [ -44.988078586347704, -21.213805266010912 ], [ -44.988078586347704, -21.213535771425679 ], [ -44.988617575518177, -21.213535771425672 ], [ -44.988617575518177, -21.213805266010905 ], [ -44.988348080932944, -21.213805266010912 ], [ -44.988348080932944, -21.214074760596151 ], [ -44.988078586347704, -21.214074760596148 ], [ -44.988078586347704, -21.214344255181377 ], [ -44.989156564688649, -21.214344255181384 ], [ -44.989156564688649, -21.214074760596148 ], [ -44.989695553859121, -21.214074760596144 ], [ -44.989695553859121, -21.212457793084727 ], [ -44.988887070103416, -21.212457793084727 ], [ -44.988887070103416, -21.212727287669967 ], [ -44.988078586347704, -21.212727287669964 ], [ -44.988078586347704, -21.212457793084734 ], [ -44.987809091762472, -21.212457793084731 ] ] ] } },
{ "type": "Feature", "properties": { "id_feicao": "fogo_2013_23", "ano": 2013.0, "mes": 8, "codigo_original": 41, "classe": "Outras Lavouras Temporárias", "cor": "#f54ca9", "area_ha": 0.33367659829705953 }, "geometry": { "type": "Polygon", "coordinates": [ [ [ -44.988078586347704, -21.213805266010912 ], [ -44.987809091762472, -21.213805266010912 ], [ -44.987809091762472, -21.214074760596144 ], [ -44.988348080932944, -21.214074760596151 ], [ -44.988348080932944, -21.213805266010912 ], [ -44.988617575518177, -21.213805266010905 ], [ -44.988617575518177, -21.213535771425672 ], [ -44.988078586347704, -21.213535771425679 ], [ -44.988078586347704, -21.213805266010912 ] ] ] } },
{ "type": "Feature", "properties": { "id_feicao": "fogo_2013_24", "ano": 2013.0, "mes": 8, "codigo_original": 41, "classe": "Outras Lavouras Temporárias", "cor": "#f54ca9", "area_ha": 0.25025945638883856 }, "geometry": { "type": "Polygon", "coordinates": [ [ [ -44.988078586347704, -21.212727287669964 ], [ -44.988887070103416, -21.212727287669967 ], [ -44.988887070103416, -21.212457793084727 ], [ -44.988078586347704, -21.212457793084734 ], [ -44.988078586347704, -21.212727287669964 ] ] ] } },
{ "type": "Feature", "properties": { "id_feicao": "fogo_2013_25", "ano": 2013.0, "mes": 9, "codigo_original": 3, "classe": "Formação Florestal", "cor": "#1f8d49", "area_ha": 0.083330171329062439 }, "geometry": { "type": "Polygon", "coordinates": [ [ [ -45.059494651435209, -21.374693533396723 ], [ -45.059764146020449, -21.374693533396719 ], [ -45.059764146020449, -21.374424038811483 ], [ -45.059494651435209, -21.374424038811487 ], [ -45.059494651435209, -21.374693533396723 ] ] ] } },
{ "type": "Feature", "properties": { "id_feicao": "fogo_2013_26", "ano": 2013.0, "mes": 9, "codigo_original": 3, "classe": "Formação Florestal", "cor": "#1f8d49", "area_ha": 0.33354012261582539 }, "geometry": { "type": "Polygon", "coordinates": [ [ [ -44.922860896720628, -21.275789020615164 ], [ -44.922321907550156, -21.275789020615157 ], [ -44.922321907550156, -21.276058515200397 ], [ -44.923130391305868, -21.276058515200393 ], [ -44.923130391305868, -21.275519526029925 ], [ -44.922860896720628, -21.275519526029921 ], [ -44.922860896720628, -21.275789020615164 ] ] ] } },
{ "type": "Feature", "properties": { "id_feicao": "fogo_2013_27", "ano": 2013.0, "mes": 9, "codigo_original": 4, "classe": "Formação Savânica", "cor": "#7dc975", "area_ha": 0.083380713460501285 }, "geometry": { "type": "Polygon", "coordinates": [ [ [ -44.93983905559049, -21.283604363586999 ], [ -44.940108550175722, -21.283604363586996 ], [ -44.940108550175722, -21.283334869001756 ], [ -44.93983905559049, -21.283334869001756 ], [ -44.93983905559049, -21.283604363586999 ] ] ] } },
{ "type": "Feature", "properties": { "id_feicao": "fogo_2013_28", "ano": 2013.0, "mes": 9, "codigo_original": 4, "classe": "Formação Savânica", "cor": "#7dc975", "area_ha": 0.083382062233891344 }, "geometry": { "type": "Polygon", "coordinates": [ [ [ -44.9376830989086, -21.281178912319881 ], [ -44.93795259349384, -21.281178912319881 ], [ -44.93795259349384, -21.280909417734637 ], [ -44.9376830989086, -21.280909417734637 ], [ -44.9376830989086, -21.281178912319881 ] ] ] } },
{ "type": "Feature", "properties": { "id_feicao": "fogo_2013_29", "ano": 2013.0, "mes": 9, "codigo_original": 12, "classe": "Formação Campestre", "cor": "#d6bc74", "area_ha": 0.08335284819575027 }, "geometry": { "type": "Polygon", "coordinates": [ [ [ -45.082671185765491, -21.333730356440871 ], [ -45.082401691180259, -21.333730356440871 ], [ -45.082401691180259, -21.333999851026107 ], [ -45.082671185765491, -21.333999851026107 ], [ -45.082671185765491, -21.333730356440871 ] ] ] } },
{ "type": "Feature", "properties": { "id_feicao": "fogo_2013_30", "ano": 2013.0, "mes": 9, "codigo_original": 12, "classe": "Formação Campestre", "cor": "#d6bc74", "area_ha": 0.083354072438273585 }, "geometry": { "type": "Polygon", "coordinates": [ [ [ -45.089947539566865, -21.331574399758985 ], [ -45.089678044981625, -21.331574399758981 ], [ -45.089678044981625, -21.331843894344217 ], [ -45.089947539566865, -21.331843894344221 ], [ -45.089947539566865, -21.331574399758985 ] ] ] } },
{ "type": "Feature", "properties": { "id_feicao": "fogo_2013_31", "ano": 2013.0, "mes": 9, "codigo_original": 12, "classe": "Formação Campestre", "cor": "#d6bc74", "area_ha": 0.25006211926778776 }, "geometry": { "type": "Polygon", "coordinates": [ [ [ -45.081593207424547, -21.331574399758981 ], [ -45.080784723668842, -21.331574399758981 ], [ -45.080784723668842, -21.331843894344217 ], [ -45.081593207424547, -21.33184389434421 ], [ -45.081593207424547, -21.331574399758981 ] ] ] } },
{ "type": "Feature", "properties": { "id_feicao": "fogo_2013_32", "ano": 2013.0, "mes": 9, "codigo_original": 12, "classe": "Formação Campestre", "cor": "#d6bc74", "area_ha": 0.083354487426079094 }, "geometry": { "type": "Polygon", "coordinates": [ [ [ -45.080784723668842, -21.330765916003273 ], [ -45.080784723668842, -21.331035410588509 ], [ -45.081054218254089, -21.331035410588509 ], [ -45.081054218254089, -21.330765916003276 ], [ -45.080784723668842, -21.330765916003273 ] ] ] } },
{ "type": "Feature", "properties": { "id_feicao": "fogo_2013_33", "ano": 2013.0, "mes": 9, "codigo_original": 12, "classe": "Formação Campestre", "cor": "#d6bc74", "area_ha": 0.25006499956853601 }, "geometry": { "type": "Polygon", "coordinates": [ [ [ -45.077281294060782, -21.3302269268328 ], [ -45.077281294060782, -21.329687937662328 ], [ -45.07674230489031, -21.329687937662335 ], [ -45.07674230489031, -21.329957432247561 ], [ -45.077011799475542, -21.329957432247561 ], [ -45.077011799475542, -21.3302269268328 ], [ -45.077281294060782, -21.3302269268328 ] ] ] } },
{ "type": "Feature", "properties": { "id_feicao": "fogo_2013_34", "ano": 2013.0, "mes": 9, "codigo_original": 12, "classe": "Formação Campestre", "cor": "#d6bc74", "area_ha": 0.083356632078252738 }, "geometry": { "type": "Polygon", "coordinates": [ [ [ -45.094259452930636, -21.326992991809977 ], [ -45.093989958345396, -21.32699299180997 ], [ -45.093989958345396, -21.32726248639521 ], [ -45.094259452930636, -21.327262486395213 ], [ -45.094259452930636, -21.326992991809977 ] ] ] } },
{ "type": "Feature", "properties": { "id_feicao": "fogo_2013_35", "ano": 2013.0, "mes": 9, "codigo_original": 12, "classe": "Formação Campestre", "cor": "#d6bc74", "area_ha": 0.42592525640241802 }, "geometry": { "type": "Polygon", "coordinates": [ [ [ -44.958164687386528, -21.345049129020769 ], [ -44.957011582282021, -21.345049129687727 ], [ -44.957053, -21.345091 ], [ -44.957262, -21.345229 ], [ -44.957532, -21.345345 ], [ -44.957814, -21.345483 ], [ -44.958035, -21.345587 ], [ -44.958164687387359, -21.345631076845144 ], [ -44.958164687386528, -21.345049129020769 ] ] ] } },
{ "type": "Feature", "properties": { "id_feicao": "fogo_2013_36", "ano": 2013.0, "mes": 9, "codigo_original": 12, "classe": "Formação Campestre", "cor": "#d6bc74", "area_ha": 0.0036317722025811633 }, "geometry": { "type": "Polygon", "coordinates": [ [ [ -44.96059013865365, -21.344779634435536 ], [ -44.960590138653743, -21.344872209803235 ], [ -44.960658508557202, -21.344779634476456 ], [ -44.96059013865365, -21.344779634435536 ] ] ] } },
{ "type": "Feature", "properties": { "id_feicao": "fogo_2013_37", "ano": 2013.0, "mes": 9, "codigo_original": 12, "classe": "Formação Campestre", "cor": "#d6bc74", "area_ha": 29.391074437100162 }, "geometry": { "type": "Polygon", "coordinates": [ [ [ -44.9624766007503, -21.340467721071761 ], [ -44.96059013865365, -21.340467721071757 ], [ -44.96059013865365, -21.340737215656997 ], [ -44.960320644068418, -21.340737215657001 ], [ -44.960320644068418, -21.341815193997942 ], [ -44.96059013865365, -21.341815193997935 ], [ -44.96059013865365, -21.342084688583178 ], [ -44.960859633238883, -21.342084688583181 ], [ -44.960859633238883, -21.342893172338883 ], [ -44.961668116994595, -21.342893172338879 ], [ -44.961668116994595, -21.343162666924119 ], [ -44.960859633238883, -21.343162666924119 ], [ -44.960859633239309, -21.34445486218323 ], [ -44.960873, -21.344430999999897 ], [ -44.961033, -21.344236 ], [ -44.961267, -21.344121 ], [ -44.961512, -21.344086999999895 ], [ -44.961745, -21.344110999999891 ], [ -44.962053, -21.344054 ], [ -44.962298, -21.344065999999891 ], [ -44.962531, -21.34417 ], [ -44.962727, -21.344377 ], [ -44.962886, -21.344538 ], [ -44.963033, -21.344711 ], [ -44.963217, -21.344963999999894 ], [ -44.963425, -21.345206 ], [ -44.963609, -21.345345 ], [ -44.96383, -21.345541 ], [ -44.964038, -21.345736999999897 ], [ -44.964246, -21.345875 ], [ -44.964467, -21.346002 ], [ -44.964761, -21.346186999999894 ], [ -44.965019, -21.346325 ], [ -44.965148944141774, -21.346396601981688 ], [ -44.965171546602662, -21.34639660194695 ], [ -44.965171546602683, -21.34640905640023 ], [ -44.965313, -21.346487 ], [ -44.965522, -21.346602 ], [ -44.965778999999898, -21.346718 ], [ -44.966061, -21.346799 ], [ -44.96638, -21.346834 ], [ -44.966675, -21.346834 ], [ -44.967007, -21.346812 ], [ -44.967644999999898, -21.346812999999898 ], [ -44.967903, -21.346802 ], [ -44.968135987040341, -21.346802000009031 ], [ -44.968135987040256, -21.346666096532182 ], [ -44.968405481625489, -21.346666096532186 ], [ -44.968405481625489, -21.345588118191248 ], [ -44.967596997869784, -21.345588118191241 ], [ -44.967596997869784, -21.345318623606005 ], [ -44.967327503284544, -21.345318623606005 ], [ -44.967327503284544, -21.345049129020776 ], [ -44.965710535773134, -21.345049129020779 ], [ -44.965710535773134, -21.345318623606012 ], [ -44.965171546602662, -21.345318623606008 ], [ -44.965171546602662, -21.345049129020776 ], [ -44.964632557432189, -21.345049129020776 ], [ -44.964632557432189, -21.344779634435536 ], [ -44.96436306284695, -21.344779634435543 ], [ -44.96436306284695, -21.3445101398503 ], [ -44.964632557432189, -21.3445101398503 ], [ -44.964632557432189, -21.344240645265074 ], [ -44.965171546602662, -21.34424064526506 ], [ -44.965171546602662, -21.343971150679831 ], [ -44.965441041187894, -21.343971150679831 ], [ -44.965441041187894, -21.341815193997945 ], [ -44.966249524943606, -21.341815193997938 ], [ -44.966249524943606, -21.340467721071757 ], [ -44.964632557432189, -21.340467721071764 ], [ -44.964632557432189, -21.340737215657004 ], [ -44.9624766007503, -21.340737215656997 ], [ -44.9624766007503, -21.340467721071761 ] ] ] } },
{ "type": "Feature", "properties": { "id_feicao": "fogo_2013_38", "ano": 2013.0, "mes": 9, "codigo_original": 12, "classe": "Formação Campestre", "cor": "#d6bc74", "area_ha": 13.674542803653402 }, "geometry": { "type": "Polygon", "coordinates": [ [ [ -44.93795259349384, -21.282526385246054 ], [ -44.93795259349384, -21.282795879831287 ], [ -44.93956956100525, -21.282795879831287 ], [ -44.93956956100525, -21.283065374416527 ], [ -44.93983905559049, -21.28306537441653 ], [ -44.93983905559049, -21.283334869001756 ], [ -44.940108550175722, -21.283334869001756 ], [ -44.940108550175722, -21.283873858172235 ], [ -44.942264506857612, -21.283873858172239 ], [ -44.942264506857612, -21.283604363587003 ], [ -44.942534001442844, -21.283604363586999 ], [ -44.942534001442844, -21.283334869001763 ], [ -44.943072990613317, -21.283334869001767 ], [ -44.943072990613317, -21.282256890660818 ], [ -44.942803496028084, -21.282256890660822 ], [ -44.942803496028084, -21.281987396075582 ], [ -44.942534001442844, -21.281987396075579 ], [ -44.942534001442844, -21.281717901490342 ], [ -44.942264506857612, -21.281717901490339 ], [ -44.942264506857612, -21.281448406905117 ], [ -44.941995012272379, -21.281448406905117 ], [ -44.941995012272379, -21.281178912319881 ], [ -44.940108550175722, -21.28117891231987 ], [ -44.940108550175722, -21.280909417734637 ], [ -44.93795259349384, -21.280909417734637 ], [ -44.93795259349384, -21.281178912319881 ], [ -44.937413604323368, -21.281178912319874 ], [ -44.937413604323368, -21.282526385246058 ], [ -44.93795259349384, -21.282526385246054 ] ] ] } },
{ "type": "Feature", "properties": { "id_feicao": "fogo_2013_39", "ano": 2013.0, "mes": 9, "codigo_original": 12, "classe": "Formação Campestre", "cor": "#d6bc74", "area_ha": 2.0012500443472829 }, "geometry": { "type": "Polygon", "coordinates": [ [ [ -44.923130391305868, -21.274711042274216 ], [ -44.923130391305868, -21.276058515200393 ], [ -44.923938875061573, -21.276058515200393 ], [ -44.923938875061573, -21.27417205310374 ], [ -44.922860896720628, -21.274172053103751 ], [ -44.922860896720628, -21.274441547688976 ], [ -44.922591402135396, -21.274441547688987 ], [ -44.922591402135396, -21.274711042274213 ], [ -44.923130391305868, -21.274711042274216 ] ] ] } },
{ "type": "Feature", "properties": { "id_feicao": "fogo_2013_40", "ano": 2013.0, "mes": 9, "codigo_original": 15, "classe": "Pastagem", "cor": "#edde8e", "area_ha": 4.083213153110445 }, "geometry": { "type": "Polygon", "coordinates": [ [ [ -45.058686167679504, -21.374693533396719 ], [ -45.059494651435209, -21.374693533396723 ], [ -45.059494651435209, -21.374424038811487 ], [ -45.059764146020449, -21.374424038811483 ], [ -45.059764146020449, -21.373885049641011 ], [ -45.060033640605681, -21.373885049641011 ], [ -45.060033640605681, -21.37253757671483 ], [ -45.059764146020449, -21.37253757671483 ], [ -45.059764146020449, -21.372268082129594 ], [ -45.059494651435209, -21.372268082129594 ], [ -45.059494651435209, -21.371998587544361 ], [ -45.058416673094264, -21.371998587544361 ], [ -45.058416673094264, -21.373615555055775 ], [ -45.058686167679504, -21.373615555055775 ], [ -45.058686167679504, -21.374693533396719 ] ] ] } },
{ "type": "Feature", "properties": { "id_feicao": "fogo_2013_41", "ano": 2013.0, "mes": 9, "codigo_original": 15, "classe": "Pastagem", "cor": "#edde8e", "area_ha": 1.8340539465829981 }, "geometry": { "type": "Polygon", "coordinates": [ [ [ -44.932562701789124, -21.310553822110592 ], [ -44.932562701789124, -21.310284327525345 ], [ -44.932832196374356, -21.310284327525352 ], [ -44.932832196374356, -21.3092063491844 ], [ -44.931484723448179, -21.309206349184404 ], [ -44.931484723448179, -21.310014832940119 ], [ -44.931754218033412, -21.310014832940105 ], [ -44.931754218033412, -21.310553822110592 ], [ -44.932562701789124, -21.310553822110592 ] ] ] } },
{ "type": "Feature", "properties": { "id_feicao": "fogo_2013_42", "ano": 2013.0, "mes": 9, "codigo_original": 15, "classe": "Pastagem", "cor": "#edde8e", "area_ha": 1.3342940360926097 }, "geometry": { "type": "Polygon", "coordinates": [ [ [ -45.079167756157425, -21.260158334671477 ], [ -45.079167756157425, -21.261236313012425 ], [ -45.080245734498369, -21.261236313012429 ], [ -45.080245734498369, -21.260158334671473 ], [ -45.079167756157425, -21.260158334671477 ] ] ] } },
{ "type": "Feature", "properties": { "id_feicao": "fogo_2013_43", "ano": 2013.0, "mes": 9, "codigo_original": 15, "classe": "Pastagem", "cor": "#edde8e", "area_ha": 2.9190213143322792 }, "geometry": { "type": "Polygon", "coordinates": [ [ [ -45.082671185765491, -21.248570067506339 ], [ -45.082940680350731, -21.248570067506339 ], [ -45.082940680350731, -21.249378551262051 ], [ -45.083210174935964, -21.249378551262044 ], [ -45.083210174935964, -21.248570067506336 ], [ -45.083479669521203, -21.248570067506336 ], [ -45.083479669521203, -21.247761583750627 ], [ -45.083210174935964, -21.247761583750634 ], [ -45.083210174935964, -21.246953099994919 ], [ -45.082940680350731, -21.246953099994915 ], [ -45.082940680350731, -21.246683605409689 ], [ -45.083210174935964, -21.246683605409686 ], [ -45.083210174935964, -21.246414110824453 ], [ -45.082940680350731, -21.246414110824446 ], [ -45.082940680350731, -21.246144616239214 ], [ -45.082132196595019, -21.24614461623921 ], [ -45.082132196595019, -21.247222594580158 ], [ -45.082401691180259, -21.247222594580155 ], [ -45.082401691180259, -21.249378551262051 ], [ -45.082671185765491, -21.249378551262041 ], [ -45.082671185765491, -21.248570067506339 ] ], [ [ -45.083210174935964, -21.248300572921103 ], [ -45.082940680350731, -21.248300572921099 ], [ -45.082940680350731, -21.247761583750627 ], [ -45.083210174935964, -21.247761583750634 ], [ -45.083210174935964, -21.248300572921103 ] ], [ [ -45.082671185765491, -21.247761583750627 ], [ -45.082671185765491, -21.247492089165394 ], [ -45.082940680350731, -21.247492089165387 ], [ -45.082940680350731, -21.247761583750627 ], [ -45.082671185765491, -21.247761583750627 ] ] ] } },
{ "type": "Feature", "properties": { "id_feicao": "fogo_2013_44", "ano": 2013.0, "mes": 9, "codigo_original": 15, "classe": "Pastagem", "cor": "#edde8e", "area_ha": 2.2520542557456498 }, "geometry": { "type": "Polygon", "coordinates": [ [ [ -44.96436306284695, -21.23213089780695 ], [ -44.96436306284695, -21.231861403221714 ], [ -44.964902052017422, -21.231861403221711 ], [ -44.964902052017422, -21.230783424880777 ], [ -44.963554579091245, -21.230783424880777 ], [ -44.963554579091245, -21.231052919466006 ], [ -44.963285084506012, -21.231052919466009 ], [ -44.963285084506012, -21.23213089780695 ], [ -44.96436306284695, -21.23213089780695 ] ] ] } },
{ "type": "Feature", "properties": { "id_feicao": "fogo_2013_45", "ano": 2013.0, "mes": 9, "codigo_original": 15, "classe": "Pastagem", "cor": "#edde8e", "area_ha": 7.5079708376051055 }, "geometry": { "type": "Polygon", "coordinates": [ [ [ -45.09048652873733, -21.210301836402842 ], [ -45.09048652873733, -21.210571330988078 ], [ -45.091564507078274, -21.210571330988074 ], [ -45.091564507078274, -21.20949335264714 ], [ -45.089947539566865, -21.209493352647144 ], [ -45.089947539566865, -21.207606890550487 ], [ -45.088330572055447, -21.207606890550487 ], [ -45.088330572055447, -21.209223858061904 ], [ -45.087791582884975, -21.209223858061907 ], [ -45.087791582884975, -21.210301836402852 ], [ -45.09048652873733, -21.210301836402842 ] ] ] } },
{ "type": "Feature", "properties": { "id_feicao": "fogo_2013_46", "ano": 2013.0, "mes": 9, "codigo_original": 15, "classe": "Pastagem", "cor": "#edde8e", "area_ha": 6.2567650639154291 }, "geometry": { "type": "Polygon", "coordinates": [ [ [ -45.093450969174924, -21.206528912209542 ], [ -45.093450969174924, -21.205181439283365 ], [ -45.09048652873733, -21.205181439283365 ], [ -45.09048652873733, -21.207067901380022 ], [ -45.093181474589692, -21.207067901380022 ], [ -45.093181474589692, -21.206528912209549 ], [ -45.093450969174924, -21.206528912209542 ] ] ] } },
{ "type": "Feature", "properties": { "id_feicao": "fogo_2013_47", "ano": 2013.0, "mes": 9, "codigo_original": 15, "classe": "Pastagem", "cor": "#edde8e", "area_ha": 1.3339597684808076 }, "geometry": { "type": "Polygon", "coordinates": [ [ [ -44.922052412964923, -21.297887576604499 ], [ -44.920974434623979, -21.297887576604499 ], [ -44.920974434623979, -21.29896555494544 ], [ -44.922052412964923, -21.29896555494544 ], [ -44.922052412964923, -21.297887576604499 ] ] ] } },
{ "type": "Feature", "properties": { "id_feicao": "fogo_2013_48", "ano": 2013.0, "mes": 9, "codigo_original": 15, "classe": "Pastagem", "cor": "#edde8e", "area_ha": 2.9184700059096262 }, "geometry": { "type": "Polygon", "coordinates": [ [ [ -44.920435445453506, -21.275789020615161 ], [ -44.920435445453506, -21.276866998956102 ], [ -44.921513423794451, -21.276866998956102 ], [ -44.921513423794451, -21.276597504370869 ], [ -44.921782918379684, -21.276597504370869 ], [ -44.921782918379684, -21.276058515200393 ], [ -44.922321907550156, -21.276058515200397 ], [ -44.922321907550156, -21.275789020615157 ], [ -44.922860896720628, -21.275789020615164 ], [ -44.922860896720628, -21.275519526029921 ], [ -44.923130391305868, -21.275519526029925 ], [ -44.923130391305868, -21.274711042274216 ], [ -44.922591402135396, -21.274711042274213 ], [ -44.922591402135396, -21.275519526029928 ], [ -44.920704940038746, -21.275519526029925 ], [ -44.920704940038746, -21.275789020615164 ], [ -44.920435445453506, -21.275789020615161 ] ] ] } },
{ "type": "Feature", "properties": { "id_feicao": "fogo_2013_49", "ano": 2013.0, "mes": 9, "codigo_original": 15, "classe": "Pastagem", "cor": "#edde8e", "area_ha": 0.41708141752775973 }, "geometry": { "type": "Polygon", "coordinates": [ [ [ -44.897258911123224, -21.219734146886104 ], [ -44.897258911123224, -21.219195157715635 ], [ -44.896719921952752, -21.219195157715635 ], [ -44.896719921952752, -21.219464652300861 ], [ -44.896450427367519, -21.219464652300868 ], [ -44.896450427367519, -21.219734146886093 ], [ -44.897258911123224, -21.219734146886104 ] ] ] } },
{ "type": "Feature", "properties": { "id_feicao": "fogo_2013_50", "ano": 2013.0, "mes": 9, "codigo_original": 15, "classe": "Pastagem", "cor": "#edde8e", "area_ha": 0.083416329320520982 }, "geometry": { "type": "Polygon", "coordinates": [ [ [ -44.897528405708456, -21.219195157715628 ], [ -44.897528405708456, -21.219464652300868 ], [ -44.897797900293696, -21.219464652300864 ], [ -44.897797900293696, -21.219195157715632 ], [ -44.897528405708456, -21.219195157715628 ] ] ] } },
{ "type": "Feature", "properties": { "id_feicao": "fogo_2013_51", "ano": 2013.0, "mes": 9, "codigo_original": 15, "classe": "Pastagem", "cor": "#edde8e", "area_ha": 0.50049893247995247 }, "geometry": { "type": "Polygon", "coordinates": [ [ [ -44.895641943611807, -21.219195157715625 ], [ -44.895641943611807, -21.219464652300871 ], [ -44.895911438197047, -21.219464652300868 ], [ -44.895911438197047, -21.219195157715625 ], [ -44.896180932782279, -21.219195157715625 ], [ -44.896180932782279, -21.218925663130396 ], [ -44.896450427367519, -21.218925663130385 ], [ -44.896450427367519, -21.218656168545152 ], [ -44.895911438197047, -21.218656168545152 ], [ -44.895911438197047, -21.218925663130396 ], [ -44.895372449026574, -21.218925663130392 ], [ -44.895372449026574, -21.219195157715628 ], [ -44.895641943611807, -21.219195157715625 ] ] ] } },
{ "type": "Feature", "properties": { "id_feicao": "fogo_2013_52", "ano": 2013.0, "mes": 9, "codigo_original": 15, "classe": "Pastagem", "cor": "#edde8e", "area_ha": 0.083416476886682633 }, "geometry": { "type": "Polygon", "coordinates": [ [ [ -44.897797900293696, -21.218925663130385 ], [ -44.897797900293696, -21.219195157715632 ], [ -44.898067394878929, -21.219195157715632 ], [ -44.898067394878929, -21.218925663130396 ], [ -44.897797900293696, -21.218925663130385 ] ] ] } },
{ "type": "Feature", "properties": { "id_feicao": "fogo_2013_53", "ano": 2013.0, "mes": 9, "codigo_original": 15, "classe": "Pastagem", "cor": "#edde8e", "area_ha": 0.6673365723623117 }, "geometry": { "type": "Polygon", "coordinates": [ [ [ -44.895372449026574, -21.218386673959913 ], [ -44.895372449026574, -21.21811717937468 ], [ -44.895911438197047, -21.218117179374683 ], [ -44.895911438197047, -21.217847684789451 ], [ -44.896450427367519, -21.217847684789444 ], [ -44.896450427367519, -21.217578190204204 ], [ -44.895372449026574, -21.217578190204211 ], [ -44.895372449026574, -21.217847684789447 ], [ -44.895102954441334, -21.217847684789454 ], [ -44.895102954441334, -21.218386673959927 ], [ -44.895372449026574, -21.218386673959913 ] ] ] } },
{ "type": "Feature", "properties": { "id_feicao": "fogo_2013_54", "ano": 2013.0, "mes": 9, "codigo_original": 21, "classe": "Mosaico de Usos", "cor": "#ffefc3", "area_ha": 0.083417233184197997 }, "geometry": { "type": "Polygon", "coordinates": [ [ [ -44.895102954441334, -21.217578190204215 ], [ -44.895102954441334, -21.217847684789454 ], [ -44.895372449026574, -21.217847684789447 ], [ -44.895372449026574, -21.217578190204211 ], [ -44.895102954441334, -21.217578190204215 ] ] ] } },
{ "type": "Feature", "properties": { "id_feicao": "fogo_2013_55", "ano": 2013.0, "mes": 9, "codigo_original": 41, "classe": "Outras Lavouras Temporárias", "cor": "#f54ca9", "area_ha": 5.3401606165183209 }, "geometry": { "type": "Polygon", "coordinates": [ [ [ -44.999666853512849, -21.174998045736952 ], [ -44.999666853512849, -21.175267540322192 ], [ -44.9977803914162, -21.175267540322189 ], [ -44.9977803914162, -21.176884507833595 ], [ -44.999127864342377, -21.176884507833602 ], [ -44.999127864342377, -21.176615013248362 ], [ -45.000744831853794, -21.176615013248366 ], [ -45.000744831853794, -21.174998045736949 ], [ -44.999666853512849, -21.174998045736952 ] ] ] } },
{ "type": "Feature", "properties": { "id_feicao": "fogo_2013_56", "ano": 2013.0, "mes": 10, "codigo_original": 3, "classe": "Formação Florestal", "cor": "#1f8d49", "area_ha": 0.1666930310223782 }, "geometry": { "type": "Polygon", "coordinates": [ [ [ -44.965441041187894, -21.345318623606012 ], [ -44.965441041187894, -21.34477963443554 ], [ -44.965171546602662, -21.34477963443554 ], [ -44.965171546602662, -21.345318623606008 ], [ -44.965441041187894, -21.345318623606012 ] ] ] } },
{ "type": "Feature", "properties": { "id_feicao": "fogo_2013_57", "ano": 2013.0, "mes": 10, "codigo_original": 3, "classe": "Formação Florestal", "cor": "#1f8d49", "area_ha": 0.083346889603464189 }, "geometry": { "type": "Polygon", "coordinates": [ [ [ -44.965441041187894, -21.344510139850311 ], [ -44.965441041187894, -21.344240645265064 ], [ -44.965171546602662, -21.34424064526506 ], [ -44.965171546602662, -21.344510139850303 ], [ -44.965441041187894, -21.344510139850311 ] ] ] } },
{ "type": "Feature", "properties": { "id_feicao": "fogo_2013_58", "ano": 2013.0, "mes": 10, "codigo_original": 3, "classe": "Formação Florestal", "cor": "#1f8d49", "area_ha": 0.25005989658314537 }, "geometry": { "type": "Polygon", "coordinates": [ [ [ -45.083479669521203, -21.333191367270402 ], [ -45.083479669521203, -21.332921872685162 ], [ -45.082671185765491, -21.332921872685166 ], [ -45.082671185765491, -21.333191367270395 ], [ -45.083479669521203, -21.333191367270402 ] ] ] } },
{ "type": "Feature", "properties": { "id_feicao": "fogo_2013_59", "ano": 2013.0, "mes": 10, "codigo_original": 3, "classe": "Formação Florestal", "cor": "#1f8d49", "area_ha": 0.083353595990163509 }, "geometry": { "type": "Polygon", "coordinates": [ [ [ -45.082671185765491, -21.332652378099926 ], [ -45.082671185765491, -21.332382883514683 ], [ -45.082401691180259, -21.332382883514686 ], [ -45.082401691180259, -21.332652378099922 ], [ -45.082671185765491, -21.332652378099926 ] ] ] } },
{ "type": "Feature", "properties": { "id_feicao": "fogo_2013_60", "ano": 2013.0, "mes": 10, "codigo_original": 12, "classe": "Formação Campestre", "cor": "#d6bc74", "area_ha": 1.1668540088038892 }, "geometry": { "type": "Polygon", "coordinates": [ [ [ -45.102344290487714, -21.345588118191248 ], [ -45.103152774243419, -21.345588118191245 ], [ -45.103152774243419, -21.344510139850311 ], [ -45.102074795902475, -21.344510139850303 ], [ -45.102074795902475, -21.345049129020769 ], [ -45.102344290487714, -21.345049129020776 ], [ -45.102344290487714, -21.345588118191248 ] ] ] } },
{ "type": "Feature", "properties": { "id_feicao": "fogo_2013_61", "ano": 2013.0, "mes": 10, "codigo_original": 12, "classe": "Formação Campestre", "cor": "#d6bc74", "area_ha": 0.08334703923184425 }, "geometry": { "type": "Polygon", "coordinates": [ [ [ -44.965441041187894, -21.343971150679831 ], [ -44.965171546602662, -21.343971150679831 ], [ -44.965171546602662, -21.34424064526506 ], [ -44.965441041187894, -21.344240645265064 ], [ -44.965441041187894, -21.343971150679831 ] ] ] } },
{ "type": "Feature", "properties": { "id_feicao": "fogo_2013_62", "ano": 2013.0, "mes": 10, "codigo_original": 12, "classe": "Formação Campestre", "cor": "#d6bc74", "area_ha": 0.25004293297817931 }, "geometry": { "type": "Polygon", "coordinates": [ [ [ -44.961668116994595, -21.342893172338879 ], [ -44.960859633238883, -21.342893172338883 ], [ -44.960859633238883, -21.343162666924119 ], [ -44.961668116994595, -21.343162666924119 ], [ -44.961668116994595, -21.342893172338879 ] ] ] } },
{ "type": "Feature", "properties": { "id_feicao": "fogo_2013_63", "ano": 2013.0, "mes": 10, "codigo_original": 12, "classe": "Formação Campestre", "cor": "#d6bc74", "area_ha": 251.55490877173091 }, "geometry": { "type": "Polygon", "coordinates": [ [ [ -45.093989958345396, -21.32726248639521 ], [ -45.093989958345396, -21.327531980980446 ], [ -45.093720463760164, -21.327531980980442 ], [ -45.093720463760164, -21.327801475565682 ], [ -45.093450969174924, -21.327801475565686 ], [ -45.093450969174924, -21.328609959321387 ], [ -45.092642485419219, -21.328609959321387 ], [ -45.092642485419219, -21.33076591600328 ], [ -45.090756023322569, -21.330765916003269 ], [ -45.090756023322569, -21.331574399758978 ], [ -45.09048652873733, -21.331574399758981 ], [ -45.09048652873733, -21.331843894344221 ], [ -45.089678044981625, -21.331843894344217 ], [ -45.089678044981625, -21.331574399758981 ], [ -45.087522088299735, -21.331574399758981 ], [ -45.087522088299735, -21.332652378099922 ], [ -45.087252593714503, -21.332652378099922 ], [ -45.087252593714503, -21.333191367270405 ], [ -45.086444109958798, -21.333191367270398 ], [ -45.086444109958798, -21.333730356440867 ], [ -45.084827142447381, -21.333730356440867 ], [ -45.084827142447381, -21.333999851026114 ], [ -45.084557647862141, -21.333999851026103 ], [ -45.084557647862141, -21.333730356440871 ], [ -45.084288153276908, -21.333730356440871 ], [ -45.084288153276908, -21.33399985102611 ], [ -45.084018658691676, -21.333999851026107 ], [ -45.084018658691676, -21.334269345611339 ], [ -45.083479669521203, -21.334269345611343 ], [ -45.083479669521203, -21.333999851026103 ], [ -45.083210174935964, -21.333999851026107 ], [ -45.083210174935964, -21.333730356440874 ], [ -45.082671185765491, -21.333730356440871 ], [ -45.082671185765491, -21.333999851026107 ], [ -45.081323712839314, -21.33399985102611 ], [ -45.081323712839314, -21.334269345611339 ], [ -45.081054218254089, -21.334269345611332 ], [ -45.081054218254089, -21.334808334781808 ], [ -45.079706745327897, -21.334808334781808 ], [ -45.079706745327897, -21.336155807707982 ], [ -45.079976239913144, -21.336155807707989 ], [ -45.079976239913144, -21.336425302293225 ], [ -45.080515229083616, -21.336425302293222 ], [ -45.080515229083616, -21.336694796878465 ], [ -45.081862702009786, -21.336694796878469 ], [ -45.081862702009786, -21.337233786048927 ], [ -45.082671185765491, -21.33723378604893 ], [ -45.082671185765491, -21.337772775219406 ], [ -45.083210174935964, -21.337772775219403 ], [ -45.083210174935964, -21.338850753560351 ], [ -45.083479669521203, -21.338850753560347 ], [ -45.083479669521203, -21.339120248145584 ], [ -45.084557647862141, -21.339120248145591 ], [ -45.084557647862141, -21.338581258975111 ], [ -45.085096637032613, -21.338581258975111 ], [ -45.085096637032613, -21.339120248145591 ], [ -45.085366131617853, -21.339120248145587 ], [ -45.085366131617853, -21.340198226486532 ], [ -45.08671360454403, -21.340198226486518 ], [ -45.08671360454403, -21.340467721071757 ], [ -45.087252593714503, -21.340467721071761 ], [ -45.087252593714503, -21.341545699412709 ], [ -45.087522088299735, -21.341545699412709 ], [ -45.087522088299735, -21.341815193997945 ], [ -45.087791582884975, -21.341815193997952 ], [ -45.087791582884975, -21.342354183168421 ], [ -45.088330572055447, -21.342354183168418 ], [ -45.088330572055447, -21.343162666924123 ], [ -45.09048652873733, -21.343162666924115 ], [ -45.09048652873733, -21.342084688583178 ], [ -45.092103496248747, -21.342084688583171 ], [ -45.092103496248747, -21.341276204827473 ], [ -45.092372990833987, -21.341276204827473 ], [ -45.092372990833987, -21.341815193997942 ], [ -45.092642485419219, -21.341815193997938 ], [ -45.092642485419219, -21.342084688583174 ], [ -45.093450969174924, -21.342084688583178 ], [ -45.093450969174924, -21.342893172338883 ], [ -45.093989958345396, -21.342893172338883 ], [ -45.093989958345396, -21.343432161509352 ], [ -45.094259452930636, -21.343432161509355 ], [ -45.094259452930636, -21.344240645265071 ], [ -45.095606925856814, -21.344240645265067 ], [ -45.095606925856814, -21.343162666924126 ], [ -45.095337431271581, -21.343162666924123 ], [ -45.095337431271581, -21.342623677753654 ], [ -45.095876420442053, -21.34262367775365 ], [ -45.095876420442053, -21.342354183168418 ], [ -45.096415409612518, -21.342354183168418 ], [ -45.096415409612518, -21.341815193997942 ], [ -45.096684904197758, -21.341815193997938 ], [ -45.096684904197758, -21.341545699412706 ], [ -45.097223893368231, -21.341545699412702 ], [ -45.097223893368231, -21.341006710242233 ], [ -45.097493387953463, -21.341006710242237 ], [ -45.097493387953463, -21.340198226486528 ], [ -45.097762882538703, -21.340198226486525 ], [ -45.097762882538703, -21.337772775219406 ], [ -45.097493387953463, -21.337772775219406 ], [ -45.097493387953463, -21.337233786048934 ], [ -45.09911035546488, -21.33723378604893 ], [ -45.09911035546488, -21.336694796878465 ], [ -45.098571366294408, -21.336694796878465 ], [ -45.098571366294408, -21.336425302293225 ], [ -45.09911035546488, -21.336425302293218 ], [ -45.09911035546488, -21.335886313122753 ], [ -45.099379850050113, -21.335886313122749 ], [ -45.099379850050113, -21.33561681853751 ], [ -45.099918839220585, -21.335616818537517 ], [ -45.099918839220585, -21.336425302293232 ], [ -45.099379850050113, -21.336425302293222 ], [ -45.099379850050113, -21.337233786048927 ], [ -45.100188333805825, -21.337233786048937 ], [ -45.100188333805825, -21.338850753560347 ], [ -45.102344290487714, -21.338850753560351 ], [ -45.102344290487714, -21.339120248145584 ], [ -45.104500247169597, -21.339120248145587 ], [ -45.104500247169597, -21.338042269804642 ], [ -45.104769741754836, -21.338042269804639 ], [ -45.104769741754836, -21.339120248145587 ], [ -45.105039236340069, -21.33912024814558 ], [ -45.105039236340069, -21.339389742730816 ], [ -45.105308730925309, -21.339389742730823 ], [ -45.105308730925309, -21.339928731901299 ], [ -45.106925698436719, -21.339928731901292 ], [ -45.106925698436719, -21.340737215657001 ], [ -45.108003676777663, -21.340737215656997 ], [ -45.108003676777663, -21.338850753560347 ], [ -45.108273171362903, -21.338850753560347 ], [ -45.108273171362903, -21.339120248145591 ], [ -45.10962064428908, -21.33912024814558 ], [ -45.10962064428908, -21.338042269804642 ], [ -45.109351149703841, -21.338042269804639 ], [ -45.109351149703841, -21.337772775219406 ], [ -45.111237611800497, -21.337772775219406 ], [ -45.111237611800497, -21.336694796878469 ], [ -45.110968117215258, -21.336694796878469 ], [ -45.110968117215258, -21.335347323952284 ], [ -45.109890138874313, -21.335347323952277 ], [ -45.109890138874313, -21.335616818537517 ], [ -45.109081655118608, -21.335616818537524 ], [ -45.109081655118608, -21.335347323952277 ], [ -45.108812160533368, -21.335347323952281 ], [ -45.108812160533368, -21.335077829367044 ], [ -45.108273171362903, -21.335077829367048 ], [ -45.108273171362903, -21.334808334781808 ], [ -45.106386709266246, -21.334808334781812 ], [ -45.106386709266246, -21.334269345611339 ], [ -45.106117214681014, -21.334269345611332 ], [ -45.106117214681014, -21.333730356440864 ], [ -45.101805301317242, -21.333730356440878 ], [ -45.101805301317242, -21.332921872685162 ], [ -45.100188333805825, -21.332921872685159 ], [ -45.100188333805825, -21.332652378099922 ], [ -45.099649344635353, -21.332652378099926 ], [ -45.099649344635353, -21.332382883514683 ], [ -45.098301871709175, -21.332382883514679 ], [ -45.098301871709175, -21.332113388929457 ], [ -45.096415409612518, -21.33211338892945 ], [ -45.096415409612518, -21.331304905173749 ], [ -45.095606925856814, -21.331304905173742 ], [ -45.095606925856814, -21.330765916003273 ], [ -45.095337431271581, -21.330765916003269 ], [ -45.095337431271581, -21.328070970150907 ], [ -45.095606925856814, -21.328070970150918 ], [ -45.095606925856814, -21.326992991809973 ], [ -45.095337431271581, -21.326992991809973 ], [ -45.095337431271581, -21.326184508054261 ], [ -45.095067936686341, -21.326184508054268 ], [ -45.095067936686341, -21.325645518883789 ], [ -45.093989958345396, -21.325645518883793 ], [ -45.093989958345396, -21.32699299180997 ], [ -45.094259452930636, -21.326992991809977 ], [ -45.094259452930636, -21.327262486395213 ], [ -45.093989958345396, -21.32726248639521 ] ], [ [ -45.092911980004459, -21.330765916003273 ], [ -45.092911980004459, -21.331035410588509 ], [ -45.092642485419219, -21.331035410588516 ], [ -45.092642485419219, -21.33076591600328 ], [ -45.092911980004459, -21.330765916003273 ] ], [ [ -45.096954398782991, -21.337233786048927 ], [ -45.096954398782991, -21.337772775219406 ], [ -45.095876420442053, -21.337772775219403 ], [ -45.095876420442053, -21.337503280634174 ], [ -45.095606925856814, -21.337503280634177 ], [ -45.095606925856814, -21.337233786048941 ], [ -45.095337431271581, -21.337233786048927 ], [ -45.095337431271581, -21.336964291463701 ], [ -45.096684904197758, -21.336964291463708 ], [ -45.096684904197758, -21.336425302293229 ], [ -45.096954398782991, -21.336425302293229 ], [ -45.096954398782991, -21.336694796878458 ], [ -45.097223893368231, -21.336694796878472 ], [ -45.097223893368231, -21.336964291463698 ], [ -45.097493387953463, -21.336964291463705 ], [ -45.097493387953463, -21.337233786048934 ], [ -45.096954398782991, -21.337233786048927 ] ], [ [ -45.096415409612518, -21.336425302293225 ], [ -45.096415409612518, -21.336155807707989 ], [ -45.096684904197758, -21.336155807707993 ], [ -45.096684904197758, -21.336425302293229 ], [ -45.096415409612518, -21.336425302293225 ] ], [ [ -45.099918839220585, -21.334808334781812 ], [ -45.099649344635353, -21.334808334781812 ], [ -45.099649344635353, -21.334538840196579 ], [ -45.100457828391058, -21.334538840196569 ], [ -45.100457828391058, -21.334269345611339 ], [ -45.10099681756153, -21.334269345611343 ], [ -45.10099681756153, -21.334538840196579 ], [ -45.100727322976297, -21.334538840196579 ], [ -45.100727322976297, -21.335077829367048 ], [ -45.100188333805825, -21.335077829367052 ], [ -45.100188333805825, -21.33561681853752 ], [ -45.099918839220585, -21.335616818537517 ], [ -45.099918839220585, -21.334808334781812 ] ], [ [ -45.099649344635353, -21.335077829367041 ], [ -45.099379850050113, -21.335077829367044 ], [ -45.099379850050113, -21.334808334781819 ], [ -45.099649344635353, -21.334808334781812 ], [ -45.099649344635353, -21.335077829367041 ] ], [ [ -45.10099681756153, -21.333999851026103 ], [ -45.10126631214677, -21.33399985102611 ], [ -45.10126631214677, -21.334269345611339 ], [ -45.10099681756153, -21.334269345611343 ], [ -45.10099681756153, -21.333999851026103 ] ], [ [ -45.104769741754836, -21.337772775219406 ], [ -45.105039236340069, -21.337772775219403 ], [ -45.105039236340069, -21.338042269804639 ], [ -45.104769741754836, -21.338042269804639 ], [ -45.104769741754836, -21.337772775219406 ] ], [ [ -45.107734182192431, -21.33885075356034 ], [ -45.107734182192431, -21.338581258975118 ], [ -45.107464687607191, -21.338581258975115 ], [ -45.107464687607191, -21.337772775219403 ], [ -45.107734182192431, -21.33777277521941 ], [ -45.107734182192431, -21.338311764389871 ], [ -45.108003676777663, -21.338311764389875 ], [ -45.108003676777663, -21.338850753560347 ], [ -45.107734182192431, -21.33885075356034 ] ], [ [ -45.107195193021958, -21.338042269804646 ], [ -45.106925698436719, -21.338042269804639 ], [ -45.106925698436719, -21.337772775219406 ], [ -45.107195193021958, -21.337772775219396 ], [ -45.107195193021958, -21.338042269804646 ] ], [ [ -45.10099681756153, -21.335886313122757 ], [ -45.100727322976297, -21.335886313122753 ], [ -45.100727322976297, -21.33561681853752 ], [ -45.10099681756153, -21.335616818537524 ], [ -45.10099681756153, -21.335886313122757 ] ], [ [ -45.09911035546488, -21.335347323952281 ], [ -45.098301871709175, -21.335347323952274 ], [ -45.098301871709175, -21.335077829367037 ], [ -45.09911035546488, -21.335077829367048 ], [ -45.09911035546488, -21.335347323952281 ] ], [ [ -45.097762882538703, -21.334538840196569 ], [ -45.097762882538703, -21.335077829367041 ], [ -45.097493387953463, -21.335077829367044 ], [ -45.097493387953463, -21.334538840196572 ], [ -45.097762882538703, -21.334538840196569 ] ], [ [ -45.096684904197758, -21.332921872685159 ], [ -45.096954398782991, -21.332921872685166 ], [ -45.096954398782991, -21.333460861855638 ], [ -45.097223893368231, -21.333460861855635 ], [ -45.097223893368231, -21.333999851026103 ], [ -45.097493387953463, -21.333999851026103 ], [ -45.097493387953463, -21.334269345611339 ], [ -45.096954398782991, -21.334269345611336 ], [ -45.096954398782991, -21.333730356440871 ], [ -45.096684904197758, -21.333730356440867 ], [ -45.096684904197758, -21.333191367270391 ], [ -45.096415409612518, -21.333191367270391 ], [ -45.096415409612518, -21.332652378099922 ], [ -45.096684904197758, -21.332652378099926 ], [ -45.096684904197758, -21.332921872685159 ] ], [ [ -45.086444109958798, -21.337233786048937 ], [ -45.085905120788325, -21.337233786048934 ], [ -45.085905120788325, -21.338042269804649 ], [ -45.085635626203086, -21.338042269804632 ], [ -45.085635626203086, -21.338311764389875 ], [ -45.085366131617853, -21.338311764389875 ], [ -45.085366131617853, -21.33723378604893 ], [ -45.085635626203086, -21.33723378604893 ], [ -45.085635626203086, -21.336964291463701 ], [ -45.085905120788325, -21.336964291463701 ], [ -45.085905120788325, -21.336694796878465 ], [ -45.086444109958798, -21.336694796878461 ], [ -45.086444109958798, -21.337233786048937 ] ], [ [ -45.092911980004459, -21.336964291463705 ], [ -45.092911980004459, -21.337233786048927 ], [ -45.092642485419219, -21.337233786048923 ], [ -45.092642485419219, -21.336964291463701 ], [ -45.092911980004459, -21.336964291463705 ] ], [ [ -45.092911980004459, -21.336425302293229 ], [ -45.092911980004459, -21.336694796878465 ], [ -45.092642485419219, -21.336694796878461 ], [ -45.092642485419219, -21.336425302293225 ], [ -45.092911980004459, -21.336425302293229 ] ], [ [ -45.093450969174924, -21.336155807708 ], [ -45.092642485419219, -21.336155807707986 ], [ -45.092642485419219, -21.335886313122753 ], [ -45.093450969174924, -21.335886313122757 ], [ -45.093450969174924, -21.336155807708 ] ], [ [ -45.093989958345396, -21.335886313122753 ], [ -45.093720463760164, -21.335886313122753 ], [ -45.093720463760164, -21.335616818537513 ], [ -45.092911980004459, -21.33561681853752 ], [ -45.092911980004459, -21.335347323952288 ], [ -45.093989958345396, -21.335347323952277 ], [ -45.093989958345396, -21.335886313122753 ] ], [ [ -45.094528947515869, -21.334538840196579 ], [ -45.094528947515869, -21.335077829367048 ], [ -45.093989958345396, -21.335077829367052 ], [ -45.093989958345396, -21.334808334781801 ], [ -45.094259452930636, -21.334808334781812 ], [ -45.094259452930636, -21.334538840196572 ], [ -45.094528947515869, -21.334538840196579 ] ] ] } },
{ "type": "Feature", "properties": { "id_feicao": "fogo_2013_64", "ano": 2013.0, "mes": 10, "codigo_original": 12, "classe": "Formação Campestre", "cor": "#d6bc74", "area_ha": 0.083353152294922614 }, "geometry": { "type": "Polygon", "coordinates": [ [ [ -45.084018658691676, -21.333191367270398 ], [ -45.083749164106436, -21.333191367270395 ], [ -45.083749164106436, -21.333460861855631 ], [ -45.084018658691676, -21.333460861855638 ], [ -45.084018658691676, -21.333191367270398 ] ] ] } },
{ "type": "Feature", "properties": { "id_feicao": "fogo_2013_65", "ano": 2013.0, "mes": 10, "codigo_original": 12, "classe": "Formação Campestre", "cor": "#d6bc74", "area_ha": 0.2500594479086809 }, "geometry": { "type": "Polygon", "coordinates": [ [ [ -45.083479669521203, -21.333191367270402 ], [ -45.082671185765491, -21.333191367270395 ], [ -45.082671185765491, -21.333460861855627 ], [ -45.083479669521203, -21.333460861855638 ], [ -45.083479669521203, -21.333191367270402 ] ] ] } },
{ "type": "Feature", "properties": { "id_feicao": "fogo_2013_66", "ano": 2013.0, "mes": 10, "codigo_original": 12, "classe": "Formação Campestre", "cor": "#d6bc74", "area_ha": 13.503422004476935 }, "geometry": { "type": "Polygon", "coordinates": [ [ [ -45.081862702009786, -21.330765916003273 ], [ -45.081054218254089, -21.330765916003276 ], [ -45.081054218254089, -21.331035410588509 ], [ -45.080784723668842, -21.331035410588509 ], [ -45.080784723668842, -21.330765916003273 ], [ -45.079706745327897, -21.330765916003276 ], [ -45.079706745327897, -21.329957432247568 ], [ -45.079437250742671, -21.329957432247564 ], [ -45.079437250742671, -21.329687937662328 ], [ -45.077820283231254, -21.329687937662332 ], [ -45.077820283231254, -21.329957432247561 ], [ -45.077550788646015, -21.329957432247564 ], [ -45.077550788646015, -21.3302269268328 ], [ -45.078089777816487, -21.330226926832797 ], [ -45.078089777816487, -21.331035410588505 ], [ -45.079437250742671, -21.331035410588505 ], [ -45.079437250742671, -21.331843894344221 ], [ -45.080784723668842, -21.331843894344217 ], [ -45.080784723668842, -21.331574399758981 ], [ -45.081593207424547, -21.331574399758981 ], [ -45.081593207424547, -21.33184389434421 ], [ -45.082401691180259, -21.331843894344214 ], [ -45.082401691180259, -21.332113388929443 ], [ -45.082671185765491, -21.332113388929447 ], [ -45.082671185765491, -21.332382883514683 ], [ -45.083210174935964, -21.332382883514683 ], [ -45.083210174935964, -21.332652378099915 ], [ -45.083479669521203, -21.332652378099919 ], [ -45.083479669521203, -21.333191367270402 ], [ -45.083749164106436, -21.333191367270395 ], [ -45.083749164106436, -21.332921872685166 ], [ -45.084018658691676, -21.332921872685162 ], [ -45.084018658691676, -21.331574399758985 ], [ -45.085096637032613, -21.331574399758978 ], [ -45.085096637032613, -21.330496421418037 ], [ -45.084557647862141, -21.330496421418044 ], [ -45.084557647862141, -21.329957432247571 ], [ -45.084018658691676, -21.329957432247557 ], [ -45.084018658691676, -21.329687937662325 ], [ -45.083749164106436, -21.329687937662332 ], [ -45.083749164106436, -21.329418443077088 ], [ -45.082671185765491, -21.329418443077092 ], [ -45.082671185765491, -21.330226926832804 ], [ -45.081862702009786, -21.330226926832797 ], [ -45.081862702009786, -21.330765916003273 ] ] ] } },
{ "type": "Feature", "properties": { "id_feicao": "fogo_2013_67", "ano": 2013.0, "mes": 10, "codigo_original": 12, "classe": "Formação Campestre", "cor": "#d6bc74", "area_ha": 12.086622729332746 }, "geometry": { "type": "Polygon", "coordinates": [ [ [ -45.073777864452708, -21.327262486395213 ], [ -45.074316853623181, -21.327262486395206 ], [ -45.074316853623181, -21.327801475565682 ], [ -45.07458634820842, -21.327801475565682 ], [ -45.07458634820842, -21.328070970150922 ], [ -45.074855842793653, -21.328070970150922 ], [ -45.074855842793653, -21.3302269268328 ], [ -45.077011799475542, -21.3302269268328 ], [ -45.077011799475542, -21.329957432247561 ], [ -45.07674230489031, -21.329957432247561 ], [ -45.07674230489031, -21.329687937662335 ], [ -45.077550788646015, -21.329687937662321 ], [ -45.077550788646015, -21.327531980980439 ], [ -45.07674230489031, -21.327531980980446 ], [ -45.07674230489031, -21.326723497224737 ], [ -45.075664326549365, -21.326723497224741 ], [ -45.075664326549365, -21.326454002639498 ], [ -45.075394831964125, -21.326454002639501 ], [ -45.075394831964125, -21.326184508054265 ], [ -45.074855842793653, -21.326184508054265 ], [ -45.074855842793653, -21.325915013469029 ], [ -45.074047359037948, -21.325915013469029 ], [ -45.074047359037948, -21.326184508054272 ], [ -45.073777864452708, -21.326184508054265 ], [ -45.073777864452708, -21.327262486395213 ] ] ] } },
{ "type": "Feature", "properties": { "id_feicao": "fogo_2013_68", "ano": 2013.0, "mes": 10, "codigo_original": 15, "classe": "Pastagem", "cor": "#edde8e", "area_ha": 0.16669314129606383 }, "geometry": { "type": "Polygon", "coordinates": [ [ [ -45.102344290487714, -21.345588118191248 ], [ -45.102344290487714, -21.345049129020776 ], [ -45.102074795902475, -21.345049129020769 ], [ -45.102074795902475, -21.345588118191248 ], [ -45.102344290487714, -21.345588118191248 ] ] ] } },
{ "type": "Feature", "properties": { "id_feicao": "fogo_2013_69", "ano": 2013.0, "mes": 10, "codigo_original": 15, "classe": "Pastagem", "cor": "#edde8e", "area_ha": 0.083355961379129442 }, "geometry": { "type": "Polygon", "coordinates": [ [ [ -45.074855842793653, -21.328070970150922 ], [ -45.07458634820842, -21.328070970150922 ], [ -45.07458634820842, -21.328340464736154 ], [ -45.074855842793653, -21.328340464736147 ], [ -45.074855842793653, -21.328070970150922 ] ] ] } },
{ "type": "Feature", "properties": { "id_feicao": "fogo_2013_70", "ano": 2013.0, "mes": 10, "codigo_original": 15, "classe": "Pastagem", "cor": "#edde8e", "area_ha": 0.083356862094346437 }, "geometry": { "type": "Polygon", "coordinates": [ [ [ -45.075933821134598, -21.326454002639508 ], [ -45.075664326549365, -21.326454002639498 ], [ -45.075664326549365, -21.326723497224741 ], [ -45.075933821134598, -21.326723497224737 ], [ -45.075933821134598, -21.326454002639508 ] ] ] } },
{ "type": "Feature", "properties": { "id_feicao": "fogo_2013_71", "ano": 2013.0, "mes": 10, "codigo_original": 15, "classe": "Pastagem", "cor": "#edde8e", "area_ha": 0.083357010703347625 }, "geometry": { "type": "Polygon", "coordinates": [ [ [ -45.075664326549365, -21.326184508054265 ], [ -45.075394831964125, -21.326184508054265 ], [ -45.075394831964125, -21.326454002639501 ], [ -45.075664326549365, -21.326454002639498 ], [ -45.075664326549365, -21.326184508054265 ] ] ] } },
{ "type": "Feature", "properties": { "id_feicao": "fogo_2013_72", "ano": 2013.0, "mes": 10, "codigo_original": 15, "classe": "Pastagem", "cor": "#edde8e", "area_ha": 0.16671431773006917 }, "geometry": { "type": "Polygon", "coordinates": [ [ [ -45.075394831964125, -21.325915013469032 ], [ -45.074855842793653, -21.325915013469029 ], [ -45.074855842793653, -21.326184508054265 ], [ -45.075394831964125, -21.326184508054265 ], [ -45.075394831964125, -21.325915013469032 ] ] ] } },
{ "type": "Feature", "properties": { "id_feicao": "fogo_2013_73", "ano": 2013.0, "mes": 10, "codigo_original": 15, "classe": "Pastagem", "cor": "#edde8e", "area_ha": 0.083399724193289879 }, "geometry": { "type": "Polygon", "coordinates": [ [ [ -45.083479669521203, -21.249109056676804 ], [ -45.083210174935964, -21.249109056676811 ], [ -45.083210174935964, -21.249378551262044 ], [ -45.083479669521203, -21.249378551262044 ], [ -45.083479669521203, -21.249109056676804 ] ] ] } },
{ "type": "Feature", "properties": { "id_feicao": "fogo_2013_74", "ano": 2013.0, "mes": 10, "codigo_original": 15, "classe": "Pastagem", "cor": "#edde8e", "area_ha": 0.25019961358197035 }, "geometry": { "type": "Polygon", "coordinates": [ [ [ -45.082940680350731, -21.248570067506339 ], [ -45.082671185765491, -21.248570067506339 ], [ -45.082671185765491, -21.249378551262041 ], [ -45.082940680350731, -21.249378551262051 ], [ -45.082940680350731, -21.248570067506339 ] ] ] } },
{ "type": "Feature", "properties": { "id_feicao": "fogo_2013_75", "ano": 2013.0, "mes": 11, "codigo_original": 3, "classe": "Formação Florestal", "cor": "#1f8d49", "area_ha": 0.16669694572947918 }, "geometry": { "type": "Polygon", "coordinates": [ [ [ -45.092103496248747, -21.342084688583171 ], [ -45.092372990833987, -21.342084688583171 ], [ -45.092372990833987, -21.341545699412713 ], [ -45.092103496248747, -21.341545699412706 ], [ -45.092103496248747, -21.342084688583171 ] ] ] } },
{ "type": "Feature", "properties": { "id_feicao": "fogo_2013_76", "ano": 2013.0, "mes": 11, "codigo_original": 3, "classe": "Formação Florestal", "cor": "#1f8d49", "area_ha": 0.3334134389927611 }, "geometry": { "type": "Polygon", "coordinates": [ [ [ -45.082401691180259, -21.333191367270398 ], [ -45.082671185765491, -21.333191367270395 ], [ -45.082671185765491, -21.332921872685166 ], [ -45.083210174935964, -21.332921872685162 ], [ -45.083210174935964, -21.332652378099915 ], [ -45.082401691180259, -21.332652378099922 ], [ -45.082401691180259, -21.333191367270398 ] ] ] } },
{ "type": "Feature", "properties": { "id_feicao": "fogo_2013_77", "ano": 2013.0, "mes": 11, "codigo_original": 12, "classe": "Formação Campestre", "cor": "#d6bc74", "area_ha": 0.083350114336144185 }, "geometry": { "type": "Polygon", "coordinates": [ [ [ -45.108003676777663, -21.339120248145584 ], [ -45.108273171362903, -21.339120248145591 ], [ -45.108273171362903, -21.338850753560347 ], [ -45.108003676777663, -21.338850753560347 ], [ -45.108003676777663, -21.339120248145584 ] ] ] } },
{ "type": "Feature", "properties": { "id_feicao": "fogo_2013_78", "ano": 2013.0, "mes": 11, "codigo_original": 12, "classe": "Formação Campestre", "cor": "#d6bc74", "area_ha": 0.33340128885023296 }, "geometry": { "type": "Polygon", "coordinates": [ [ [ -45.104500247169597, -21.339120248145587 ], [ -45.104769741754836, -21.339120248145587 ], [ -45.104769741754836, -21.338042269804639 ], [ -45.104500247169597, -21.338042269804642 ], [ -45.104500247169597, -21.339120248145587 ] ] ] } },
{ "type": "Feature", "properties": { "id_feicao": "fogo_2013_79", "ano": 2013.0, "mes": 11, "codigo_original": 12, "classe": "Formação Campestre", "cor": "#d6bc74", "area_ha": 0.41675235724374654 }, "geometry": { "type": "Polygon", "coordinates": [ [ [ -45.108003676777663, -21.338311764389875 ], [ -45.107734182192431, -21.338311764389871 ], [ -45.107734182192431, -21.33777277521941 ], [ -45.107464687607191, -21.337772775219403 ], [ -45.107464687607191, -21.338581258975115 ], [ -45.107734182192431, -21.338581258975118 ], [ -45.107734182192431, -21.33885075356034 ], [ -45.108003676777663, -21.338850753560347 ], [ -45.108003676777663, -21.338311764389875 ] ] ] } },
{ "type": "Feature", "properties": { "id_feicao": "fogo_2013_80", "ano": 2013.0, "mes": 11, "codigo_original": 12, "classe": "Formação Campestre", "cor": "#d6bc74", "area_ha": 0.083350719213113184 }, "geometry": { "type": "Polygon", "coordinates": [ [ [ -45.109351149703841, -21.338042269804639 ], [ -45.10962064428908, -21.338042269804642 ], [ -45.10962064428908, -21.33777277521941 ], [ -45.109351149703841, -21.337772775219406 ], [ -45.109351149703841, -21.338042269804639 ] ] ] } },
{ "type": "Feature", "properties": { "id_feicao": "fogo_2013_81", "ano": 2013.0, "mes": 11, "codigo_original": 12, "classe": "Formação Campestre", "cor": "#d6bc74", "area_ha": 0.083350707573816185 }, "geometry": { "type": "Polygon", "coordinates": [ [ [ -45.106925698436719, -21.338042269804639 ], [ -45.107195193021958, -21.338042269804646 ], [ -45.107195193021958, -21.337772775219396 ], [ -45.106925698436719, -21.337772775219406 ], [ -45.106925698436719, -21.338042269804639 ] ] ] } },
{ "type": "Feature", "properties": { "id_feicao": "fogo_2013_82", "ano": 2013.0, "mes": 11, "codigo_original": 12, "classe": "Formação Campestre", "cor": "#d6bc74", "area_ha": 0.083350697445310651 }, "geometry": { "type": "Polygon", "coordinates": [ [ [ -45.104769741754836, -21.338042269804639 ], [ -45.105039236340069, -21.338042269804639 ], [ -45.105039236340069, -21.337772775219403 ], [ -45.104769741754836, -21.337772775219406 ], [ -45.104769741754836, -21.338042269804639 ] ] ] } },
{ "type": "Feature", "properties": { "id_feicao": "fogo_2013_83", "ano": 2013.0, "mes": 11, "codigo_original": 12, "classe": "Formação Campestre", "cor": "#d6bc74", "area_ha": 0.1667017783548683 }, "geometry": { "type": "Polygon", "coordinates": [ [ [ -45.097493387953463, -21.337772775219406 ], [ -45.097762882538703, -21.337772775219406 ], [ -45.097762882538703, -21.337233786048937 ], [ -45.097493387953463, -21.337233786048934 ], [ -45.097493387953463, -21.337772775219406 ] ] ] } },
{ "type": "Feature", "properties": { "id_feicao": "fogo_2013_84", "ano": 2013.0, "mes": 11, "codigo_original": 12, "classe": "Formação Campestre", "cor": "#d6bc74", "area_ha": 1.500318305230482 }, "geometry": { "type": "Polygon", "coordinates": [ [ [ -45.095876420442053, -21.337772775219403 ], [ -45.096954398782991, -21.337772775219406 ], [ -45.096954398782991, -21.337233786048927 ], [ -45.097493387953463, -21.337233786048934 ], [ -45.097493387953463, -21.336964291463705 ], [ -45.097223893368231, -21.336964291463698 ], [ -45.097223893368231, -21.336694796878472 ], [ -45.096954398782991, -21.336694796878458 ], [ -45.096954398782991, -21.336425302293229 ], [ -45.096684904197758, -21.336425302293229 ], [ -45.096684904197758, -21.336964291463708 ], [ -45.095337431271581, -21.336964291463701 ], [ -45.095337431271581, -21.337233786048927 ], [ -45.095606925856814, -21.337233786048941 ], [ -45.095606925856814, -21.337503280634177 ], [ -45.095876420442053, -21.337503280634174 ], [ -45.095876420442053, -21.337772775219403 ] ], [ [ -45.096684904197758, -21.337233786048927 ], [ -45.096684904197758, -21.33750328063417 ], [ -45.096145915027286, -21.33750328063417 ], [ -45.096145915027286, -21.337233786048934 ], [ -45.096684904197758, -21.337233786048927 ] ] ] } },
{ "type": "Feature", "properties": { "id_feicao": "fogo_2013_85", "ano": 2013.0, "mes": 11, "codigo_original": 12, "classe": "Formação Campestre", "cor": "#d6bc74", "area_ha": 1.083570257175863 }, "geometry": { "type": "Polygon", "coordinates": [ [ [ -45.09911035546488, -21.336694796878465 ], [ -45.09911035546488, -21.33723378604893 ], [ -45.099379850050113, -21.337233786048927 ], [ -45.099379850050113, -21.336425302293222 ], [ -45.099918839220585, -21.336425302293232 ], [ -45.099918839220585, -21.335616818537517 ], [ -45.099379850050113, -21.33561681853751 ], [ -45.099379850050113, -21.335886313122749 ], [ -45.09911035546488, -21.335886313122753 ], [ -45.09911035546488, -21.336425302293218 ], [ -45.098571366294408, -21.336425302293225 ], [ -45.098571366294408, -21.336694796878465 ], [ -45.09911035546488, -21.336694796878465 ] ] ] } },
{ "type": "Feature", "properties": { "id_feicao": "fogo_2013_86", "ano": 2013.0, "mes": 11, "codigo_original": 12, "classe": "Formação Campestre", "cor": "#d6bc74", "area_ha": 0.083351557667180901 }, "geometry": { "type": "Polygon", "coordinates": [ [ [ -45.096415409612518, -21.336425302293225 ], [ -45.096684904197758, -21.336425302293229 ], [ -45.096684904197758, -21.336155807707993 ], [ -45.096415409612518, -21.336155807707989 ], [ -45.096415409612518, -21.336425302293225 ] ] ] } },
{ "type": "Feature", "properties": { "id_feicao": "fogo_2013_87", "ano": 2013.0, "mes": 11, "codigo_original": 12, "classe": "Formação Campestre", "cor": "#d6bc74", "area_ha": 0.083351875683292748 }, "geometry": { "type": "Polygon", "coordinates": [ [ [ -45.100727322976297, -21.335886313122753 ], [ -45.10099681756153, -21.335886313122757 ], [ -45.10099681756153, -21.335616818537524 ], [ -45.100727322976297, -21.33561681853752 ], [ -45.100727322976297, -21.335886313122753 ] ] ] } },
{ "type": "Feature", "properties": { "id_feicao": "fogo_2013_88", "ano": 2013.0, "mes": 11, "codigo_original": 12, "classe": "Formação Campestre", "cor": "#d6bc74", "area_ha": 0.250056196370814 }, "geometry": { "type": "Polygon", "coordinates": [ [ [ -45.109081655118608, -21.335616818537524 ], [ -45.109890138874313, -21.335616818537517 ], [ -45.109890138874313, -21.335347323952277 ], [ -45.109081655118608, -21.335347323952277 ], [ -45.109081655118608, -21.335616818537524 ] ] ] } },
{ "type": "Feature", "properties": { "id_feicao": "fogo_2013_89", "ano": 2013.0, "mes": 11, "codigo_original": 12, "classe": "Formação Campestre", "cor": "#d6bc74", "area_ha": 0.25005649590473622 }, "geometry": { "type": "Polygon", "coordinates": [ [ [ -45.098301871709175, -21.335347323952274 ], [ -45.09911035546488, -21.335347323952281 ], [ -45.09911035546488, -21.335077829367048 ], [ -45.098301871709175, -21.335077829367037 ], [ -45.098301871709175, -21.335347323952274 ] ] ] } },
{ "type": "Feature", "properties": { "id_feicao": "fogo_2013_90", "ano": 2013.0, "mes": 11, "codigo_original": 12, "classe": "Formação Campestre", "cor": "#d6bc74", "area_ha": 0.91687602210193875 }, "geometry": { "type": "Polygon", "coordinates": [ [ [ -45.099918839220585, -21.335616818537517 ], [ -45.100188333805825, -21.33561681853752 ], [ -45.100188333805825, -21.335077829367052 ], [ -45.100727322976297, -21.335077829367048 ], [ -45.100727322976297, -21.334538840196579 ], [ -45.10099681756153, -21.334538840196579 ], [ -45.10099681756153, -21.334269345611343 ], [ -45.100457828391058, -21.334269345611339 ], [ -45.100457828391058, -21.334538840196569 ], [ -45.099649344635353, -21.334538840196579 ], [ -45.099649344635353, -21.334808334781812 ], [ -45.099918839220585, -21.334808334781812 ], [ -45.099918839220585, -21.335616818537517 ] ] ] } },
{ "type": "Feature", "properties": { "id_feicao": "fogo_2013_91", "ano": 2013.0, "mes": 11, "codigo_original": 12, "classe": "Formação Campestre", "cor": "#d6bc74", "area_ha": 0.083352318423427635 }, "geometry": { "type": "Polygon", "coordinates": [ [ [ -45.099379850050113, -21.335077829367044 ], [ -45.099649344635353, -21.335077829367041 ], [ -45.099649344635353, -21.334808334781812 ], [ -45.099379850050113, -21.334808334781819 ], [ -45.099379850050113, -21.335077829367044 ] ] ] } },
{ "type": "Feature", "properties": { "id_feicao": "fogo_2013_92", "ano": 2013.0, "mes": 11, "codigo_original": 12, "classe": "Formação Campestre", "cor": "#d6bc74", "area_ha": 0.16670476993285119 }, "geometry": { "type": "Polygon", "coordinates": [ [ [ -45.097493387953463, -21.335077829367044 ], [ -45.097762882538703, -21.335077829367041 ], [ -45.097762882538703, -21.334538840196569 ], [ -45.097493387953463, -21.334538840196572 ], [ -45.097493387953463, -21.335077829367044 ] ] ] } },
{ "type": "Feature", "properties": { "id_feicao": "fogo_2013_93", "ano": 2013.0, "mes": 11, "codigo_original": 12, "classe": "Formação Campestre", "cor": "#d6bc74", "area_ha": 0.083352774315969505 }, "geometry": { "type": "Polygon", "coordinates": [ [ [ -45.10126631214677, -21.334269345611339 ], [ -45.10126631214677, -21.33399985102611 ], [ -45.10099681756153, -21.333999851026103 ], [ -45.10099681756153, -21.334269345611343 ], [ -45.10126631214677, -21.334269345611339 ] ] ] } },
{ "type": "Feature", "properties": { "id_feicao": "fogo_2013_94", "ano": 2013.0, "mes": 11, "codigo_original": 12, "classe": "Formação Campestre", "cor": "#d6bc74", "area_ha": 0.75017801004032914 }, "geometry": { "type": "Polygon", "coordinates": [ [ [ -45.097493387953463, -21.334269345611339 ], [ -45.097493387953463, -21.333999851026103 ], [ -45.097223893368231, -21.333999851026103 ], [ -45.097223893368231, -21.333460861855635 ], [ -45.096954398782991, -21.333460861855638 ], [ -45.096954398782991, -21.332921872685166 ], [ -45.096684904197758, -21.332921872685159 ], [ -45.096684904197758, -21.332652378099926 ], [ -45.096415409612518, -21.332652378099922 ], [ -45.096415409612518, -21.333191367270391 ], [ -45.096684904197758, -21.333191367270391 ], [ -45.096684904197758, -21.333730356440867 ], [ -45.096954398782991, -21.333730356440871 ], [ -45.096954398782991, -21.334269345611336 ], [ -45.097493387953463, -21.334269345611339 ] ] ] } },
{ "type": "Feature", "properties": { "id_feicao": "fogo_2013_95", "ano": 2013.0, "mes": 11, "codigo_original": 12, "classe": "Formação Campestre", "cor": "#d6bc74", "area_ha": 0.16669577566012739 }, "geometry": { "type": "Polygon", "coordinates": [ [ [ -45.095337431271581, -21.343162666924123 ], [ -45.095606925856814, -21.343162666924126 ], [ -45.095606925856814, -21.342623677753654 ], [ -45.095337431271581, -21.342623677753654 ], [ -45.095337431271581, -21.343162666924123 ] ] ] } },
{ "type": "Feature", "properties": { "id_feicao": "fogo_2013_96", "ano": 2013.0, "mes": 11, "codigo_original": 12, "classe": "Formação Campestre", "cor": "#d6bc74", "area_ha": 0.083348399160243572 }, "geometry": { "type": "Polygon", "coordinates": [ [ [ -45.092372990833987, -21.342084688583171 ], [ -45.092642485419219, -21.342084688583174 ], [ -45.092642485419219, -21.341815193997938 ], [ -45.092372990833987, -21.341815193997942 ], [ -45.092372990833987, -21.342084688583171 ] ] ] } },
{ "type": "Feature", "properties": { "id_feicao": "fogo_2013_97", "ano": 2013.0, "mes": 11, "codigo_original": 12, "classe": "Formação Campestre", "cor": "#d6bc74", "area_ha": 0.083348697289079426 }, "geometry": { "type": "Polygon", "coordinates": [ [ [ -45.092103496248747, -21.341545699412706 ], [ -45.092372990833987, -21.341545699412713 ], [ -45.092372990833987, -21.341276204827473 ], [ -45.092103496248747, -21.341276204827473 ], [ -45.092103496248747, -21.341545699412706 ] ] ] } },
{ "type": "Feature", "properties": { "id_feicao": "fogo_2013_98", "ano": 2013.0, "mes": 11, "codigo_original": 12, "classe": "Formação Campestre", "cor": "#d6bc74", "area_ha": 0.33340035786982625 }, "geometry": { "type": "Polygon", "coordinates": [ [ [ -45.084557647862141, -21.339120248145591 ], [ -45.085096637032613, -21.339120248145591 ], [ -45.085096637032613, -21.338581258975111 ], [ -45.084557647862141, -21.338581258975111 ], [ -45.084557647862141, -21.339120248145591 ] ] ] } },
{ "type": "Feature", "properties": { "id_feicao": "fogo_2013_99", "ano": 2013.0, "mes": 11, "codigo_original": 12, "classe": "Formação Campestre", "cor": "#d6bc74", "area_ha": 1.0002106937523931 }, "geometry": { "type": "Polygon", "coordinates": [ [ [ -45.085366131617853, -21.338311764389875 ], [ -45.085635626203086, -21.338311764389875 ], [ -45.085635626203086, -21.338042269804632 ], [ -45.085905120788325, -21.338042269804649 ], [ -45.085905120788325, -21.337233786048934 ], [ -45.086444109958798, -21.337233786048937 ], [ -45.086444109958798, -21.336694796878461 ], [ -45.085905120788325, -21.336694796878465 ], [ -45.085905120788325, -21.336964291463701 ], [ -45.085635626203086, -21.336964291463701 ], [ -45.085635626203086, -21.33723378604893 ], [ -45.085366131617853, -21.33723378604893 ], [ -45.085366131617853, -21.338311764389875 ] ] ] } },
{ "type": "Feature", "properties": { "id_feicao": "fogo_2013_100", "ano": 2013.0, "mes": 11, "codigo_original": 12, "classe": "Formação Campestre", "cor": "#d6bc74", "area_ha": 0.083351093088742348 }, "geometry": { "type": "Polygon", "coordinates": [ [ [ -45.092642485419219, -21.337233786048923 ], [ -45.092911980004459, -21.337233786048927 ], [ -45.092911980004459, -21.336964291463705 ], [ -45.092642485419219, -21.336964291463701 ], [ -45.092642485419219, -21.337233786048923 ] ] ] } },
{ "type": "Feature", "properties": { "id_feicao": "fogo_2013_101", "ano": 2013.0, "mes": 11, "codigo_original": 12, "classe": "Formação Campestre", "cor": "#d6bc74", "area_ha": 0.083351392260193821 }, "geometry": { "type": "Polygon", "coordinates": [ [ [ -45.092642485419219, -21.336694796878461 ], [ -45.092911980004459, -21.336694796878465 ], [ -45.092911980004459, -21.336425302293229 ], [ -45.092642485419219, -21.336425302293225 ], [ -45.092642485419219, -21.336694796878461 ] ] ] } },
{ "type": "Feature", "properties": { "id_feicao": "fogo_2013_102", "ano": 2013.0, "mes": 11, "codigo_original": 12, "classe": "Formação Campestre", "cor": "#d6bc74", "area_ha": 0.25005507759051454 }, "geometry": { "type": "Polygon", "coordinates": [ [ [ -45.093450969174924, -21.336155807708 ], [ -45.093450969174924, -21.335886313122757 ], [ -45.092642485419219, -21.335886313122753 ], [ -45.092642485419219, -21.336155807707986 ], [ -45.093450969174924, -21.336155807708 ] ] ] } },
{ "type": "Feature", "properties": { "id_feicao": "fogo_2013_103", "ano": 2013.0, "mes": 11, "codigo_original": 12, "classe": "Formação Campestre", "cor": "#d6bc74", "area_ha": 0.41675941761272589 }, "geometry": { "type": "Polygon", "coordinates": [ [ [ -45.092911980004459, -21.335347323952288 ], [ -45.092911980004459, -21.33561681853752 ], [ -45.093720463760164, -21.335616818537513 ], [ -45.093720463760164, -21.335886313122753 ], [ -45.093989958345396, -21.335886313122753 ], [ -45.093989958345396, -21.335347323952277 ], [ -45.092911980004459, -21.335347323952288 ] ] ] } },
{ "type": "Feature", "properties": { "id_feicao": "fogo_2013_104", "ano": 2013.0, "mes": 11, "codigo_original": 12, "classe": "Formação Campestre", "cor": "#d6bc74", "area_ha": 0.25005710420664401 }, "geometry": { "type": "Polygon", "coordinates": [ [ [ -45.094528947515869, -21.334538840196579 ], [ -45.094259452930636, -21.334538840196572 ], [ -45.094259452930636, -21.334808334781812 ], [ -45.093989958345396, -21.334808334781801 ], [ -45.093989958345396, -21.335077829367052 ], [ -45.094528947515869, -21.335077829367048 ], [ -45.094528947515869, -21.334538840196579 ] ] ] } },
{ "type": "Feature", "properties": { "id_feicao": "fogo_2013_105", "ano": 2013.0, "mes": 11, "codigo_original": 12, "classe": "Formação Campestre", "cor": "#d6bc74", "area_ha": 0.08335285618957132 }, "geometry": { "type": "Polygon", "coordinates": [ [ [ -45.084557647862141, -21.333999851026103 ], [ -45.084827142447381, -21.333999851026114 ], [ -45.084827142447381, -21.333730356440867 ], [ -45.084557647862141, -21.333730356440871 ], [ -45.084557647862141, -21.333999851026103 ] ] ] } },
{ "type": "Feature", "properties": { "id_feicao": "fogo_2013_106", "ano": 2013.0, "mes": 11, "codigo_original": 12, "classe": "Formação Campestre", "cor": "#d6bc74", "area_ha": 1.000234838229604 }, "geometry": { "type": "Polygon", "coordinates": [ [ [ -45.083210174935964, -21.333999851026107 ], [ -45.083479669521203, -21.333999851026103 ], [ -45.083479669521203, -21.334269345611343 ], [ -45.084018658691676, -21.334269345611339 ], [ -45.084018658691676, -21.333999851026107 ], [ -45.084288153276908, -21.33399985102611 ], [ -45.084288153276908, -21.333730356440871 ], [ -45.084018658691676, -21.333730356440871 ], [ -45.084018658691676, -21.333460861855638 ], [ -45.083749164106436, -21.333460861855631 ], [ -45.083749164106436, -21.333191367270395 ], [ -45.083479669521203, -21.333191367270402 ], [ -45.083479669521203, -21.333460861855638 ], [ -45.082671185765491, -21.333460861855627 ], [ -45.082671185765491, -21.333730356440871 ], [ -45.083210174935964, -21.333730356440874 ], [ -45.083210174935964, -21.333999851026107 ] ] ] } },
{ "type": "Feature", "properties": { "id_feicao": "fogo_2013_107", "ano": 2013.0, "mes": 11, "codigo_original": 12, "classe": "Formação Campestre", "cor": "#d6bc74", "area_ha": 0.083353147320169962 }, "geometry": { "type": "Polygon", "coordinates": [ [ [ -45.082401691180259, -21.333460861855635 ], [ -45.082671185765491, -21.333460861855627 ], [ -45.082671185765491, -21.333191367270395 ], [ -45.082401691180259, -21.333191367270398 ], [ -45.082401691180259, -21.333460861855635 ] ] ] } },
{ "type": "Feature", "properties": { "id_feicao": "fogo_2013_108", "ano": 2013.0, "mes": 11, "codigo_original": 12, "classe": "Formação Campestre", "cor": "#d6bc74", "area_ha": 0.083353301849029962 }, "geometry": { "type": "Polygon", "coordinates": [ [ [ -45.083749164106436, -21.333191367270395 ], [ -45.084018658691676, -21.333191367270398 ], [ -45.084018658691676, -21.332921872685162 ], [ -45.083749164106436, -21.332921872685166 ], [ -45.083749164106436, -21.333191367270395 ] ] ] } },
{ "type": "Feature", "properties": { "id_feicao": "fogo_2013_109", "ano": 2013.0, "mes": 11, "codigo_original": 12, "classe": "Formação Campestre", "cor": "#d6bc74", "area_ha": 0.083353449412062769 }, "geometry": { "type": "Polygon", "coordinates": [ [ [ -45.083210174935964, -21.332921872685162 ], [ -45.083479669521203, -21.332921872685162 ], [ -45.083479669521203, -21.332652378099919 ], [ -45.083210174935964, -21.332652378099915 ], [ -45.083210174935964, -21.332921872685162 ] ] ] } },
{ "type": "Feature", "properties": { "id_feicao": "fogo_2013_110", "ano": 2013.0, "mes": 11, "codigo_original": 12, "classe": "Formação Campestre", "cor": "#d6bc74", "area_ha": 0.16670719494884834 }, "geometry": { "type": "Polygon", "coordinates": [ [ [ -45.082671185765491, -21.332652378099926 ], [ -45.083210174935964, -21.332652378099915 ], [ -45.083210174935964, -21.332382883514683 ], [ -45.082671185765491, -21.332382883514683 ], [ -45.082671185765491, -21.332652378099926 ] ] ] } },
{ "type": "Feature", "properties": { "id_feicao": "fogo_2013_111", "ano": 2013.0, "mes": 11, "codigo_original": 12, "classe": "Formação Campestre", "cor": "#d6bc74", "area_ha": 0.083353745542780786 }, "geometry": { "type": "Polygon", "coordinates": [ [ [ -45.082671185765491, -21.332382883514683 ], [ -45.082671185765491, -21.332113388929447 ], [ -45.082401691180259, -21.332113388929443 ], [ -45.082401691180259, -21.332382883514686 ], [ -45.082671185765491, -21.332382883514683 ] ] ] } },
{ "type": "Feature", "properties": { "id_feicao": "fogo_2013_112", "ano": 2013.0, "mes": 11, "codigo_original": 12, "classe": "Formação Campestre", "cor": "#d6bc74", "area_ha": 0.250065004710459 }, "geometry": { "type": "Polygon", "coordinates": [ [ [ -45.077281294060782, -21.329687937662328 ], [ -45.077281294060782, -21.3302269268328 ], [ -45.077550788646015, -21.3302269268328 ], [ -45.077550788646015, -21.329957432247564 ], [ -45.077820283231254, -21.329957432247561 ], [ -45.077820283231254, -21.329687937662332 ], [ -45.077281294060782, -21.329687937662328 ] ] ] } },
{ "type": "Feature", "properties": { "id_feicao": "fogo_2013_113", "ano": 2013.0, "mes": 11, "codigo_original": 15, "classe": "Pastagem", "cor": "#edde8e", "area_ha": 4.1714328105776142 }, "geometry": { "type": "Polygon", "coordinates": [ [ [ -44.988887070103416, -21.195749128800117 ], [ -44.988887070103416, -21.196018623385338 ], [ -44.988078586347704, -21.196018623385349 ], [ -44.988078586347704, -21.197096601726283 ], [ -44.988617575518177, -21.19709660172629 ], [ -44.988617575518177, -21.197366096311526 ], [ -44.989695553859121, -21.197366096311523 ], [ -44.989695553859121, -21.197096601726287 ], [ -44.990773532200066, -21.197096601726294 ], [ -44.990773532200066, -21.196018623385346 ], [ -44.990504037614834, -21.196018623385338 ], [ -44.990504037614834, -21.195749128800109 ], [ -44.988887070103416, -21.195749128800117 ] ] ] } }
]
}
